<?xml version="1.0" encoding="UTF-8"?>
<osm version="0.6" generator="Overpass API 0.7.62.4 2390de5a">
<note>The data included in this document is from www.openstreetmap.org. The data is made available under ODbL.</note>
<meta osm_base=""/>

  <node id="4312128698" lat="37.4864688" lon="126.9825040">
    <tag k="amenity" v="cafe"/>
    <tag k="brand" v="스타벅스"/>
    <tag k="brand:en" v="Starbucks"/>
    <tag k="brand:ko" v="스타벅스"/>
    <tag k="brand:wikidata" v="Q37158"/>
    <tag k="brand:wikipedia" v="ko:스타벅스"/>
    <tag k="check_date" v="2024-01-03"/>
    <tag k="cuisine" v="coffee_shop"/>
    <tag k="int_name" v="Starbucks"/>
    <tag k="name" v="스타벅스"/>
    <tag k="name:de" v="Starbucks"/>
    <tag k="name:en" v="Starbucks"/>
    <tag k="name:ja" v="スターバックス"/>
    <tag k="name:ko" v="스타벅스"/>
    <tag k="name:ru" v="Старбакс"/>
    <tag k="name:zh" v="星巴克"/>
    <tag k="operator" v="(주)스타벅스커피 코리아"/>
    <tag k="payment:american_express" v="yes"/>
    <tag k="payment:coins" v="yes"/>
    <tag k="payment:diners_club" v="yes"/>
    <tag k="payment:discover_card" v="yes"/>
    <tag k="payment:jcb" v="yes"/>
    <tag k="payment:mastercard" v="yes"/>
    <tag k="payment:notes" v="yes"/>
    <tag k="payment:unionpay" v="yes"/>
    <tag k="payment:visa" v="yes"/>
    <tag k="takeaway" v="yes"/>
    <tag k="website" v="http://www.istarbucks.co.kr/index.do"/>
  </node>
  <node id="4312130395" lat="37.4773048" lon="126.9820368">
    <tag k="amenity" v="cafe"/>
    <tag k="brand" v="스타벅스"/>
    <tag k="brand:en" v="Starbucks"/>
    <tag k="brand:ko" v="스타벅스"/>
    <tag k="brand:wikidata" v="Q37158"/>
    <tag k="cuisine" v="coffee_shop"/>
    <tag k="int_name" v="Starbucks"/>
    <tag k="name" v="스타벅스"/>
    <tag k="name:de" v="Starbucks"/>
    <tag k="name:en" v="Starbucks"/>
    <tag k="name:ja" v="スターバックス"/>
    <tag k="name:ko" v="스타벅스"/>
    <tag k="name:ru" v="Старбакс"/>
    <tag k="name:zh" v="星巴克"/>
    <tag k="operator" v="(주)스타벅스커피 코리아"/>
    <tag k="payment:american_express" v="yes"/>
    <tag k="payment:coins" v="yes"/>
    <tag k="payment:diners_club" v="yes"/>
    <tag k="payment:discover_card" v="yes"/>
    <tag k="payment:jcb" v="yes"/>
    <tag k="payment:mastercard" v="yes"/>
    <tag k="payment:notes" v="yes"/>
    <tag k="payment:unionpay" v="yes"/>
    <tag k="payment:visa" v="yes"/>
    <tag k="takeaway" v="yes"/>
    <tag k="website" v="http://www.istarbucks.co.kr/index.do"/>
  </node>
  <node id="4312151389" lat="37.4784099" lon="126.9815194">
    <tag k="amenity" v="cafe"/>
    <tag k="brand" v="스타벅스"/>
    <tag k="brand:en" v="Starbucks"/>
    <tag k="brand:ko" v="스타벅스"/>
    <tag k="brand:wikidata" v="Q37158"/>
    <tag k="cuisine" v="coffee_shop"/>
    <tag k="int_name" v="Starbucks"/>
    <tag k="name" v="스타벅스"/>
    <tag k="name:de" v="Starbucks"/>
    <tag k="name:en" v="Starbucks"/>
    <tag k="name:ja" v="スターバックス"/>
    <tag k="name:ko" v="스타벅스"/>
    <tag k="name:ru" v="Старбакс"/>
    <tag k="name:zh" v="星巴克"/>
    <tag k="operator" v="(주)스타벅스커피 코리아"/>
    <tag k="payment:american_express" v="yes"/>
    <tag k="payment:coins" v="yes"/>
    <tag k="payment:diners_club" v="yes"/>
    <tag k="payment:discover_card" v="yes"/>
    <tag k="payment:jcb" v="yes"/>
    <tag k="payment:mastercard" v="yes"/>
    <tag k="payment:notes" v="yes"/>
    <tag k="payment:unionpay" v="yes"/>
    <tag k="payment:visa" v="yes"/>
    <tag k="takeaway" v="yes"/>
    <tag k="website" v="http://www.istarbucks.co.kr/index.do"/>
  </node>
  <node id="4631163947" lat="37.4838921" lon="126.9731199">
    <tag k="addr:city" v="서울특별시"/>
    <tag k="addr:district" v="동작구"/>
    <tag k="addr:housenumber" v="16"/>
    <tag k="addr:postcode" v="07004"/>
    <tag k="addr:street" v="사당로17가길"/>
    <tag k="amenity" v="cafe"/>
    <tag k="brand" v="카페베네"/>
    <tag k="brand:en" v="Caffe Bene"/>
    <tag k="brand:wikidata" v="Q5017149"/>
    <tag k="cuisine" v="coffee_shop"/>
    <tag k="internet_access" v="wlan"/>
    <tag k="name" v="카페베네"/>
    <tag k="name:en" v="Caffe Bene"/>
    <tag k="name:ja" v="カフェベネ"/>
    <tag k="name:ko" v="카페베네"/>
    <tag k="operator" v="Caffe Bene"/>
    <tag k="outdoor_seating" v="yes"/>
    <tag k="payment:american_express" v="yes"/>
    <tag k="payment:coins" v="yes"/>
    <tag k="payment:diners_club" v="yes"/>
    <tag k="payment:discover_card" v="yes"/>
    <tag k="payment:jcb" v="yes"/>
    <tag k="payment:mastercard" v="yes"/>
    <tag k="payment:notes" v="yes"/>
    <tag k="payment:unionpay" v="yes"/>
    <tag k="payment:visa" v="yes"/>
    <tag k="smoking" v="no"/>
    <tag k="website" v="http://www.caffebene.co.kr/"/>
  </node>
  <node id="4631164236" lat="37.4837984" lon="126.9733721">
    <tag k="addr:city" v="서울특별시"/>
    <tag k="addr:district" v="동작구"/>
    <tag k="addr:housenumber" v="16"/>
    <tag k="addr:postcode" v="07004"/>
    <tag k="addr:street" v="사당로17가길"/>
    <tag k="amenity" v="cafe"/>
    <tag k="cuisine" v="coffee_shop"/>
    <tag k="internet_access" v="wlan"/>
    <tag k="name" v="이디야"/>
    <tag k="name:en" v="Ediya"/>
  </node>
  <node id="4660165191" lat="37.4761494" lon="126.9651315">
    <tag k="addr:city" v="서울특별시"/>
    <tag k="addr:district" v="관악구"/>
    <tag k="addr:housenumber" v="1948"/>
    <tag k="addr:street" v="남부순환로"/>
    <tag k="amenity" v="cafe"/>
    <tag k="branch" v="낙성대DT점"/>
    <tag k="brand" v="스타벅스"/>
    <tag k="brand:en" v="Starbucks"/>
    <tag k="brand:ko" v="스타벅스"/>
    <tag k="brand:wikidata" v="Q37158"/>
    <tag k="cuisine" v="coffee_shop"/>
    <tag k="int_name" v="Starbucks"/>
    <tag k="internet_access" v="wlan"/>
    <tag k="internet_access:fee" v="yes"/>
    <tag k="name" v="스타벅스"/>
    <tag k="name:de" v="Starbucks"/>
    <tag k="name:en" v="Starbucks"/>
    <tag k="name:ja" v="スターバックス"/>
    <tag k="name:ko" v="스타벅스"/>
    <tag k="name:ru" v="Старбакс"/>
    <tag k="name:zh" v="星巴克"/>
    <tag k="note" v="Drive-Thru available"/>
    <tag k="operator" v="(주)스타벅스커피 코리아"/>
    <tag k="payment:american_express" v="yes"/>
    <tag k="payment:coins" v="yes"/>
    <tag k="payment:diners_club" v="yes"/>
    <tag k="payment:discover_card" v="yes"/>
    <tag k="payment:jcb" v="yes"/>
    <tag k="payment:mastercard" v="yes"/>
    <tag k="payment:notes" v="yes"/>
    <tag k="payment:unionpay" v="yes"/>
    <tag k="payment:visa" v="yes"/>
    <tag k="phone" v="+82 02 872 3249"/>
    <tag k="smoking" v="no"/>
    <tag k="takeaway" v="yes"/>
    <tag k="website" v="http://www.istarbucks.co.kr/index.do"/>
  </node>
  <node id="4772803917" lat="37.4870741" lon="126.9810485">
    <tag k="amenity" v="cafe"/>
    <tag k="brand" v="Sulbing"/>
    <tag k="brand:en" v="Sulbing"/>
    <tag k="brand:ko" v="설빙"/>
    <tag k="brand:wikidata" v="Q18156373"/>
    <tag k="cuisine" v="dessert"/>
    <tag k="name" v="Sulbing"/>
    <tag k="name:en" v="Sulbing"/>
    <tag k="name:ko" v="설빙"/>
    <tag k="takeaway" v="yes"/>
  </node>
  <node id="5091248060" lat="37.4803219" lon="126.9933909">
    <tag k="amenity" v="cafe"/>
    <tag k="name" v="카페무스토"/>
  </node>
  <node id="5339942321" lat="37.4919824" lon="126.9907758">
    <tag k="amenity" v="cafe"/>
    <tag k="brand" v="스타벅스"/>
    <tag k="brand:en" v="Starbucks"/>
    <tag k="brand:ko" v="스타벅스"/>
    <tag k="brand:wikidata" v="Q37158"/>
    <tag k="brand:wikipedia" v="ko:스타벅스"/>
    <tag k="cuisine" v="coffee_shop"/>
    <tag k="int_name" v="Starbucks"/>
    <tag k="internet_access" v="wlan"/>
    <tag k="name" v="스타벅스"/>
    <tag k="name:en" v="Starbucks"/>
    <tag k="name:ja" v="スターバックス"/>
    <tag k="name:ko" v="스타벅스"/>
    <tag k="name:ru" v="Старбакс"/>
    <tag k="name:zh" v="星巴克"/>
    <tag k="payment:american_express" v="yes"/>
    <tag k="payment:cash" v="yes"/>
    <tag k="payment:coins" v="yes"/>
    <tag k="payment:diners_club" v="yes"/>
    <tag k="payment:discover_card" v="yes"/>
    <tag k="payment:jcb" v="yes"/>
    <tag k="payment:mastercard" v="yes"/>
    <tag k="payment:notes" v="yes"/>
    <tag k="payment:unionpay" v="yes"/>
    <tag k="payment:visa" v="yes"/>
    <tag k="smoking" v="no"/>
    <tag k="takeaway" v="yes"/>
    <tag k="website" v="http://www.istarbucks.co.kr/index.do"/>
  </node>
  <node id="5489003022" lat="37.4900373" lon="126.9924007">
    <tag k="addr:city" v="서울특별시"/>
    <tag k="addr:district" v="서초구"/>
    <tag k="addr:housenumber" v="184"/>
    <tag k="addr:street" v="방배로"/>
    <tag k="amenity" v="cafe"/>
    <tag k="brand" v="스타벅스"/>
    <tag k="brand:en" v="Starbucks"/>
    <tag k="brand:ko" v="스타벅스"/>
    <tag k="brand:wikidata" v="Q37158"/>
    <tag k="brand:wikipedia" v="ko:스타벅스"/>
    <tag k="cuisine" v="coffee_shop"/>
    <tag k="internet_access" v="wlan"/>
    <tag k="name" v="스타벅스"/>
    <tag k="name:en" v="Starbucks"/>
    <tag k="name:ja" v="スターバックス"/>
    <tag k="name:ko" v="스타벅스"/>
    <tag k="opening_hours" v="Mo-Su 07:00-23:00"/>
    <tag k="payment:american_express" v="yes"/>
    <tag k="payment:cash" v="yes"/>
    <tag k="payment:coins" v="yes"/>
    <tag k="payment:diners_club" v="yes"/>
    <tag k="payment:discover_card" v="yes"/>
    <tag k="payment:jcb" v="yes"/>
    <tag k="payment:mastercard" v="yes"/>
    <tag k="payment:notes" v="yes"/>
    <tag k="payment:unionpay" v="yes"/>
    <tag k="payment:visa" v="yes"/>
    <tag k="smoking" v="no"/>
    <tag k="takeaway" v="yes"/>
    <tag k="website" v="http://www.istarbucks.co.kr/index.do"/>
  </node>
  <node id="5870861442" lat="37.4800640" lon="126.9833878">
    <tag k="addr:city" v="서울특별시"/>
    <tag k="addr:district" v="서초구"/>
    <tag k="addr:housenumber" v="16-12"/>
    <tag k="addr:street" v="방배천로8길"/>
    <tag k="amenity" v="cafe"/>
    <tag k="name" v="카페 투앤드모멘트"/>
    <tag k="opening_hours" v="Mo-Th 11:30~22:30 Fr-Sa 11:30~23:00 Su 12:00~22:30"/>
  </node>
  <node id="5988213170" lat="37.4761126" lon="126.9810415">
    <tag k="amenity" v="cafe"/>
    <tag k="brand" v="스타벅스"/>
    <tag k="brand:en" v="Starbucks"/>
    <tag k="brand:ko" v="스타벅스"/>
    <tag k="brand:wikidata" v="Q37158"/>
    <tag k="cuisine" v="coffee_shop"/>
    <tag k="int_name" v="Starbucks"/>
    <tag k="name" v="스타벅스"/>
    <tag k="name:de" v="Starbucks"/>
    <tag k="name:en" v="Starbucks"/>
    <tag k="name:ja" v="スターバックス"/>
    <tag k="name:ko" v="스타벅스"/>
    <tag k="name:ru" v="Старбакс"/>
    <tag k="name:zh" v="星巴克"/>
    <tag k="operator" v="(주)스타벅스커피 코리아"/>
    <tag k="payment:american_express" v="yes"/>
    <tag k="payment:coins" v="yes"/>
    <tag k="payment:diners_club" v="yes"/>
    <tag k="payment:discover_card" v="yes"/>
    <tag k="payment:jcb" v="yes"/>
    <tag k="payment:mastercard" v="yes"/>
    <tag k="payment:notes" v="yes"/>
    <tag k="payment:unionpay" v="yes"/>
    <tag k="payment:visa" v="yes"/>
    <tag k="smoking" v="no"/>
    <tag k="takeaway" v="yes"/>
    <tag k="website" v="http://www.istarbucks.co.kr/index.do"/>
  </node>
  <node id="5988213173" lat="37.4834737" lon="126.9743636">
    <tag k="amenity" v="cafe"/>
    <tag k="name" v="빽다방"/>
    <tag k="name:en" v="BBak's Coffee"/>
    <tag k="name:ko" v="빽다방"/>
  </node>
  <node id="8323774205" lat="37.4896093" lon="126.9709093">
    <tag k="addr:city" v="서울특별시"/>
    <tag k="addr:district" v="동작구"/>
    <tag k="addr:housenumber" v="9"/>
    <tag k="addr:postcode" v="07002"/>
    <tag k="addr:street" v="사당로23바길"/>
    <tag k="amenity" v="cafe"/>
    <tag k="cuisine" v="coffee_shop"/>
    <tag k="level" v="2"/>
    <tag k="name" v="커피소사이어티"/>
  </node>
  <node id="8556604219" lat="37.4771822" lon="126.9796285">
    <tag k="amenity" v="cafe"/>
    <tag k="name:en" v="Penny coffeeroasters"/>
  </node>
  <node id="8730254453" lat="37.4865012" lon="126.9941652">
    <tag k="addr:city" v="서울특별시"/>
    <tag k="addr:district" v="서초구"/>
    <tag k="addr:housenumber" v="141"/>
    <tag k="addr:postcode" v="06672"/>
    <tag k="addr:street" v="방배로"/>
    <tag k="amenity" v="cafe"/>
    <tag k="brand" v="메가MGC커피"/>
    <tag k="brand:en" v="Mega Coffee"/>
    <tag k="brand:ko" v="메가커피"/>
    <tag k="brand:wikidata" v="Q120998343"/>
    <tag k="cuisine" v="coffee_shop"/>
    <tag k="name" v="메가MGC커피"/>
    <tag k="name:en" v="Mega Coffee"/>
    <tag k="name:ko" v="메가커피"/>
    <tag k="opening_hours" v="Mo-Fr 07:30-22:30"/>
    <tag k="phone" v="0507-1363-1005"/>
    <tag k="short_name" v="MGC"/>
    <tag k="takeaway" v="yes"/>
  </node>
  <node id="8730254457" lat="37.4874504" lon="126.9940838">
    <tag k="amenity" v="cafe"/>
    <tag k="brand" v="공차"/>
    <tag k="brand:en" v="Gong Cha"/>
    <tag k="brand:ko" v="공차"/>
    <tag k="brand:wikidata" v="Q5581670"/>
    <tag k="brand:wikipedia" v="ko:공차"/>
    <tag k="brand:zh" v="貢茶"/>
    <tag k="cuisine" v="bubble_tea"/>
    <tag k="int_name" v="Gong Cha"/>
    <tag k="name" v="공차"/>
    <tag k="name:en" v="Gong Cha"/>
    <tag k="name:ko" v="공차"/>
    <tag k="name:zh" v="貢茶"/>
    <tag k="takeaway" v="yes"/>
  </node>
  <node id="9284901253" lat="37.4752302" lon="126.9805758">
    <tag k="addr:city" v="서울특별시"/>
    <tag k="addr:district" v="관악구"/>
    <tag k="addr:housenumber" v="32"/>
    <tag k="addr:postcode" v="08807"/>
    <tag k="addr:street" v="승방4길"/>
    <tag k="amenity" v="cafe"/>
    <tag k="cuisine" v="coffee_shop;sandwich;korean"/>
    <tag k="internet_access" v="wlan"/>
    <tag k="internet_access:fee" v="no"/>
    <tag k="internet_access:ssid" v="nactanalda"/>
    <tag k="name" v="낙타날다"/>
    <tag k="opening_hours" v="Mo-Su 10:30-24:00"/>
    <tag k="outdoor_seating" v="yes"/>
    <tag k="phone" v="+821073247926"/>
    <tag k="power" v="사당역카페"/>
    <tag k="source" v="카페"/>
    <tag k="website" v="https://www.instagram.com/nactanalda/"/>
  </node>
  <node id="9747553425" lat="37.4781265" lon="126.9882284">
    <tag k="amenity" v="cafe"/>
    <tag k="name" v="Autocafe coffee"/>
  </node>
  <node id="9747780739" lat="37.4774657" lon="126.9872905">
    <tag k="amenity" v="cafe"/>
    <tag k="check_date" v="2022-05-31"/>
    <tag k="name:ko" v="본죽&amp;비빔밥 cafe"/>
    <tag k="phone" v="3487-6233"/>
  </node>
  <node id="9747780741" lat="37.4773771" lon="126.9871454">
    <tag k="amenity" v="cafe"/>
    <tag k="check_date" v="2022-05-17"/>
    <tag k="name:ko" v="영도커피"/>
  </node>
  <node id="9767327029" lat="37.4767288" lon="126.9832007">
    <tag k="amenity" v="cafe"/>
    <tag k="brand" v="Tom N Toms"/>
    <tag k="brand:en" v="Tom N Toms"/>
    <tag k="brand:ko" v="탐앤탐스"/>
    <tag k="brand:wikidata" v="Q18142418"/>
    <tag k="cuisine" v="coffee_shop;pretzel;smoothie;tea;bread"/>
    <tag k="name" v="Tom N Toms"/>
    <tag k="takeaway" v="yes"/>
  </node>
  <node id="10065223778" lat="37.4930129" lon="126.9905309">
    <tag k="addr:city" v="서울특별시"/>
    <tag k="addr:district" v="서초구"/>
    <tag k="addr:housenumber" v="75"/>
    <tag k="addr:postcode" v="06584"/>
    <tag k="addr:street" v="동광로"/>
    <tag k="amenity" v="cafe"/>
    <tag k="check_date" v="2024-01-10"/>
    <tag k="cuisine" v="coffee_shop"/>
    <tag k="internet_access" v="wlan"/>
    <tag k="internet_access:fee" v="customers"/>
    <tag k="internet_access:ssid" v="Megacoffee"/>
    <tag k="name" v="메가커피"/>
    <tag k="name:en" v="Mega Coffee"/>
  </node>
  <node id="11391397335" lat="37.4744824" lon="126.9813836">
    <tag k="amenity" v="cafe"/>
    <tag k="level" v="2"/>
    <tag k="name" v="와우카페"/>
    <tag k="website" v="http://www.wowcoffee.org/"/>
  </node>
  <node id="11481526936" lat="37.4895469" lon="126.9874157">
    <tag k="amenity" v="cafe"/>
    <tag k="check_date" v="2024-01-03"/>
    <tag k="cuisine" v="dessert"/>
    <tag k="name" v="Dessert 39"/>
  </node>
  <node id="11491195243" lat="37.4826660" lon="126.9821466">
    <tag k="amenity" v="cafe"/>
    <tag k="brand" v="빽다방"/>
    <tag k="brand:en" v="Paik's Coffee"/>
    <tag k="brand:ko" v="빽다방"/>
    <tag k="brand:wikidata" v="Q55730575"/>
    <tag k="check_date" v="2024-01-05"/>
    <tag k="cuisine" v="coffee_shop"/>
    <tag k="name" v="빽다방"/>
    <tag k="name:en" v="Paik's Coffee"/>
    <tag k="name:ko" v="빽다방"/>
    <tag k="takeaway" v="yes"/>
  </node>
  <node id="11527365667" lat="37.4919954" lon="126.9869918">
    <tag k="amenity" v="cafe"/>
    <tag k="check_date" v="2024-01-18"/>
    <tag k="name" v="With Us Cafe"/>
  </node>
  <node id="11865886960" lat="37.4843749" lon="126.9960130">
    <tag k="addr:city" v="서울특별시"/>
    <tag k="addr:district" v="서초구"/>
    <tag k="addr:housenumber" v="114"/>
    <tag k="addr:postcode" v="06665"/>
    <tag k="addr:street" v="방배로"/>
    <tag k="amenity" v="cafe"/>
    <tag k="branch" v="방배다이치빌딩점"/>
    <tag k="brand" v="스타벅스"/>
    <tag k="brand:en" v="Starbucks"/>
    <tag k="brand:ko" v="스타벅스"/>
    <tag k="brand:wikidata" v="Q37158"/>
    <tag k="cuisine" v="coffee_shop"/>
    <tag k="name" v="스타벅스"/>
    <tag k="name:en" v="Starbucks"/>
    <tag k="name:ko" v="스타벅스"/>
    <tag k="opening_hours" v="Mo-Fr 07:00-22:00, Sa-Su 08:00-22:00"/>
    <tag k="takeaway" v="yes"/>
  </node>
  <node id="12074365465" lat="37.4818404" lon="126.9804109">
    <tag k="addr:city" v="서울특별시"/>
    <tag k="addr:district" v="동작구"/>
    <tag k="addr:housenumber" v="12"/>
    <tag k="addr:street" v="동작대로13길"/>
    <tag k="amenity" v="cafe"/>
    <tag k="name" v="땡스커피"/>
  </node>
  <node id="12074370324" lat="37.4781274" lon="126.9803508">
    <tag k="addr:city" v="서울특별시"/>
    <tag k="addr:district" v="동작구"/>
    <tag k="addr:housenumber" v="150"/>
    <tag k="addr:street" v="사당로30길"/>
    <tag k="amenity" v="cafe"/>
    <tag k="name" v="오케이(O.K)"/>
  </node>
  <node id="12074406358" lat="37.4827025" lon="126.9802534">
    <tag k="addr:city" v="서울특별시"/>
    <tag k="addr:district" v="동작구"/>
    <tag k="addr:housenumber" v="24-9"/>
    <tag k="addr:street" v="동작대로15길"/>
    <tag k="amenity" v="cafe"/>
    <tag k="name" v="딴짓 제과점"/>
  </node>
  <node id="12074417028" lat="37.4886724" lon="126.9800710">
    <tag k="addr:city" v="서울특별시"/>
    <tag k="addr:district" v="동작구"/>
    <tag k="addr:housenumber" v="8"/>
    <tag k="addr:street" v="동작대로29다길"/>
    <tag k="amenity" v="cafe"/>
    <tag k="name" v="크로와쿠"/>
  </node>
  <node id="12074417857" lat="37.4884815" lon="126.9790507">
    <tag k="addr:city" v="서울특별시"/>
    <tag k="addr:district" v="동작구"/>
    <tag k="addr:housenumber" v="53"/>
    <tag k="addr:postcode" v="07008"/>
    <tag k="addr:street" v="동작대로29길"/>
    <tag k="addr:unit" v="2층"/>
    <tag k="amenity" v="cafe"/>
    <tag k="name" v="이수살롱"/>
  </node>
  <node id="12074424385" lat="37.4805989" lon="126.9791143">
    <tag k="addr:city" v="서울특별시"/>
    <tag k="addr:district" v="동작구"/>
    <tag k="addr:housenumber" v="43"/>
    <tag k="addr:street" v="동작대로9길"/>
    <tag k="amenity" v="cafe"/>
    <tag k="name" v="머치커피(muchcoffee)"/>
  </node>
  <node id="12074441591" lat="37.4876286" lon="126.9808656">
    <tag k="addr:city" v="서울특별시"/>
    <tag k="addr:district" v="동작구"/>
    <tag k="addr:housenumber" v="20"/>
    <tag k="addr:postcode" v="07008"/>
    <tag k="addr:street" v="동작대로27길"/>
    <tag k="addr:unit" v="1층"/>
    <tag k="amenity" v="cafe"/>
    <tag k="name" v="메가커피 이수태평점"/>
  </node>
  <node id="12076553294" lat="37.4917200" lon="126.9918800">
    <tag k="addr:city" v="서울특별시"/>
    <tag k="addr:district" v="서초구"/>
    <tag k="addr:housenumber" v="93"/>
    <tag k="addr:street" v="서초대로25길"/>
    <tag k="amenity" v="cafe"/>
    <tag k="name" v="쌍떼"/>
  </node>
  <node id="12076553305" lat="37.4910960" lon="126.9918820">
    <tag k="addr:city" v="서울특별시"/>
    <tag k="addr:district" v="서초구"/>
    <tag k="addr:housenumber" v="196"/>
    <tag k="addr:street" v="방배로"/>
    <tag k="amenity" v="cafe"/>
    <tag k="name" v="SEE U BEAN(씨 유 빈)"/>
  </node>
  <node id="12076553334" lat="37.4896160" lon="126.9939760">
    <tag k="addr:city" v="서울특별시"/>
    <tag k="addr:district" v="서초구"/>
    <tag k="addr:housenumber" v="37"/>
    <tag k="addr:street" v="서초대로27길"/>
    <tag k="amenity" v="cafe"/>
    <tag k="name" v="delight(딜라이트)"/>
  </node>
  <node id="12076553350" lat="37.4883230" lon="126.9947470">
    <tag k="addr:city" v="서울특별시"/>
    <tag k="addr:district" v="서초구"/>
    <tag k="addr:housenumber" v="115"/>
    <tag k="addr:street" v="서초대로"/>
    <tag k="amenity" v="cafe"/>
    <tag k="name" v="아뜨리에 파젠다(Atelier FAZENDA)"/>
  </node>
  <node id="12076553351" lat="37.4883060" lon="126.9882100">
    <tag k="addr:city" v="서울특별시"/>
    <tag k="addr:district" v="서초구"/>
    <tag k="addr:housenumber" v="3"/>
    <tag k="addr:street" v="방배중앙로15길"/>
    <tag k="amenity" v="cafe"/>
    <tag k="name" v="Y Coffee Roasters(와이커피로스터스)"/>
  </node>
  <node id="12076553360" lat="37.4876340" lon="126.9855900">
    <tag k="addr:city" v="서울특별시"/>
    <tag k="addr:district" v="서초구"/>
    <tag k="addr:housenumber" v="132"/>
    <tag k="addr:street" v="방배천로"/>
    <tag k="amenity" v="cafe"/>
    <tag k="name" v="책 그리고"/>
  </node>
  <node id="12076553361" lat="37.4875860" lon="126.9828610">
    <tag k="addr:city" v="서울특별시"/>
    <tag k="addr:district" v="서초구"/>
    <tag k="addr:housenumber" v="36"/>
    <tag k="addr:street" v="동광로12가길"/>
    <tag k="amenity" v="cafe"/>
    <tag k="name" v="카페 유(cafe U)"/>
  </node>
  <node id="12076553403" lat="37.4853640" lon="126.9955150">
    <tag k="addr:city" v="서울특별시"/>
    <tag k="addr:district" v="서초구"/>
    <tag k="addr:housenumber" v="126"/>
    <tag k="addr:street" v="방배로"/>
    <tag k="amenity" v="cafe"/>
    <tag k="name" v="비엔나커피하우스 방배점"/>
  </node>
  <node id="12076553424" lat="37.4838726" lon="126.9950680">
    <tag k="addr:city" v="서울특별시"/>
    <tag k="addr:district" v="서초구"/>
    <tag k="addr:housenumber" v="63"/>
    <tag k="addr:street" v="효령로31길"/>
    <tag k="amenity" v="cafe"/>
    <tag k="name" v="아토즈(A to Z)"/>
  </node>
  <node id="12076553430" lat="37.4832770" lon="126.9960890">
    <tag k="addr:city" v="서울특별시"/>
    <tag k="addr:district" v="서초구"/>
    <tag k="addr:housenumber" v="103"/>
    <tag k="addr:street" v="방배로"/>
    <tag k="amenity" v="cafe"/>
    <tag k="name" v="폴 바셋 방배역점"/>
  </node>
  <node id="12076553456" lat="37.4813560" lon="126.9988790">
    <tag k="addr:city" v="서울특별시"/>
    <tag k="addr:district" v="서초구"/>
    <tag k="addr:housenumber" v="4"/>
    <tag k="addr:street" v="효령로34길"/>
    <tag k="amenity" v="cafe"/>
    <tag k="name" v="카멜롯 베이크"/>
  </node>
  <node id="12076553467" lat="37.4794790" lon="126.9828540">
    <tag k="addr:city" v="서울특별시"/>
    <tag k="addr:district" v="서초구"/>
    <tag k="addr:housenumber" v="3-4"/>
    <tag k="addr:street" v="방배천로6길"/>
    <tag k="amenity" v="cafe"/>
    <tag k="name" v="오우아(OH WOAH)"/>
  </node>
  <node id="12076553475" lat="37.4785060" lon="126.9837880">
    <tag k="addr:city" v="서울특별시"/>
    <tag k="addr:district" v="서초구"/>
    <tag k="addr:housenumber" v="33"/>
    <tag k="addr:street" v="방배천로2안길"/>
    <tag k="amenity" v="cafe"/>
    <tag k="name" v="파스타달리"/>
  </node>
  <node id="12076553477" lat="37.4782250" lon="126.9820810">
    <tag k="addr:city" v="서울특별시"/>
    <tag k="addr:district" v="서초구"/>
    <tag k="addr:housenumber" v="20"/>
    <tag k="addr:street" v="동작대로"/>
    <tag k="amenity" v="cafe"/>
    <tag k="name" v="바나프레소 사당역점"/>
  </node>
  <node id="12076553516" lat="37.4745420" lon="126.9930940">
    <tag k="addr:city" v="서울특별시"/>
    <tag k="addr:district" v="서초구"/>
    <tag k="addr:housenumber" v="128"/>
    <tag k="addr:street" v="효령로2길"/>
    <tag k="amenity" v="cafe"/>
    <tag k="name" v="오십사계단커피"/>
  </node>
  <node id="12076553517" lat="37.4735220" lon="126.9837610">
    <tag k="addr:city" v="서울특별시"/>
    <tag k="addr:district" v="서초구"/>
    <tag k="addr:housenumber" v="12"/>
    <tag k="addr:street" v="방배선행길"/>
    <tag k="amenity" v="cafe"/>
    <tag k="name" v="앤스"/>
  </node>
  <node id="12079311419" lat="37.4851850" lon="126.9830135">
    <tag k="addr:city" v="서울특별시"/>
    <tag k="addr:district" v="서초구"/>
    <tag k="addr:housenumber" v="6"/>
    <tag k="addr:street" v="서초대로"/>
    <tag k="amenity" v="cafe"/>
    <tag k="branch" v="이수역점"/>
    <tag k="brand" v="Tom N Toms"/>
    <tag k="brand:en" v="Tom N Toms"/>
    <tag k="brand:ko" v="탐앤탐스"/>
    <tag k="brand:wikidata" v="Q18142418"/>
    <tag k="cuisine" v="coffee_shop;pretzel;smoothie;tea;bread"/>
    <tag k="name" v="Tom N Toms"/>
    <tag k="takeaway" v="yes"/>
  </node>
  <node id="12192179534" lat="37.4876255" lon="126.9804574">
    <tag k="addr:city" v="서울특별시"/>
    <tag k="addr:district" v="동작구"/>
    <tag k="addr:housenumber" v="28"/>
    <tag k="addr:street" v="동작대로27길"/>
    <tag k="addr:subdistrict" v="사당동"/>
    <tag k="amenity" v="cafe"/>
    <tag k="name" v="투썸플레이스 이수역점(2층)"/>
  </node>
  <node id="12192179535" lat="37.4876255" lon="126.9804574">
    <tag k="addr:city" v="서울특별시"/>
    <tag k="addr:district" v="동작구"/>
    <tag k="addr:housenumber" v="28"/>
    <tag k="addr:street" v="동작대로27길"/>
    <tag k="addr:unit" v="(사당동,3층)"/>
    <tag k="amenity" v="cafe"/>
    <tag k="name" v="투썸플레이스 이수역점(3층)"/>
  </node>
  <node id="12192179538" lat="37.4829036" lon="126.9810421">
    <tag k="addr:city" v="서울특별시"/>
    <tag k="addr:district" v="동작구"/>
    <tag k="addr:housenumber" v="43"/>
    <tag k="addr:street" v="사당로30길"/>
    <tag k="addr:unit" v="(사당동,1층)"/>
    <tag k="amenity" v="cafe"/>
    <tag k="name" v="슈보 요단"/>
  </node>
  <node id="12192179774" lat="37.4854685" lon="126.9807114">
    <tag k="addr:city" v="서울특별시"/>
    <tag k="addr:district" v="동작구"/>
    <tag k="addr:housenumber" v="May.46"/>
    <tag k="addr:street" v="동작대로27가길"/>
    <tag k="addr:unit" v="(사당동,102호)"/>
    <tag k="amenity" v="cafe"/>
    <tag k="name" v="꼬치박스"/>
  </node>
  <node id="12192179971" lat="37.4762895" lon="126.9732106">
    <tag k="addr:city" v="서울특별시"/>
    <tag k="addr:district" v="동작구"/>
    <tag k="addr:housenumber" v="2021"/>
    <tag k="addr:street" v="남부순환로"/>
    <tag k="addr:unit" v="(사당동, (1층 2호))"/>
    <tag k="amenity" v="cafe"/>
    <tag k="name" v="라자루스"/>
  </node>
  <node id="12192180389" lat="37.4835660" lon="126.9751186">
    <tag k="addr:city" v="서울특별시"/>
    <tag k="addr:district" v="동작구"/>
    <tag k="addr:housenumber" v="247-7"/>
    <tag k="addr:street" v="사당로"/>
    <tag k="addr:unit" v="(사당동, 1,2층)"/>
    <tag k="amenity" v="cafe"/>
    <tag k="name" v="틈42"/>
  </node>
  <node id="12192180608" lat="37.4848803" lon="126.9813571">
    <tag k="addr:city" v="서울특별시"/>
    <tag k="addr:district" v="동작구"/>
    <tag k="addr:housenumber" v="304,"/>
    <tag k="addr:street" v="사당로"/>
    <tag k="addr:unit" v="1층,2층,3층 (사당동)"/>
    <tag k="amenity" v="cafe"/>
    <tag k="name" v="(주) 세녹코리아"/>
  </node>
  <node id="12192180769" lat="37.4768970" lon="126.9773865">
    <tag k="addr:city" v="서울특별시"/>
    <tag k="addr:district" v="동작구"/>
    <tag k="addr:housenumber" v="2057,"/>
    <tag k="addr:street" v="남부순환로"/>
    <tag k="addr:unit" v="지하1층 (사당동)"/>
    <tag k="amenity" v="cafe"/>
    <tag k="name" v="포도밭에서"/>
  </node>
  <node id="12192186068" lat="37.4778610" lon="126.9835249">
    <tag k="addr:city" v="서울특별시"/>
    <tag k="addr:district" v="서초구"/>
    <tag k="addr:housenumber" v="18,"/>
    <tag k="addr:street" v="방배천로4길"/>
    <tag k="addr:unit" v="지하 1층 (방배동)"/>
    <tag k="amenity" v="cafe"/>
    <tag k="name" v="작은 음악회 7080"/>
  </node>
  <node id="12192205882" lat="37.4883298" lon="126.9947768">
    <tag k="addr:city" v="서울특별시"/>
    <tag k="addr:district" v="서초구"/>
    <tag k="addr:housenumber" v="115"/>
    <tag k="addr:street" v="서초대로"/>
    <tag k="addr:unit" v="(방배동,정다운빌딩 103호)"/>
    <tag k="amenity" v="cafe"/>
    <tag k="name" v="아뜨리에 파젠다(Atelier FAZENDA)"/>
  </node>
  <node id="12192222407" lat="37.4878433" lon="126.9885417">
    <tag k="addr:city" v="서울특별시"/>
    <tag k="addr:district" v="서초구"/>
    <tag k="addr:housenumber" v="95,"/>
    <tag k="addr:street" v="방배중앙로"/>
    <tag k="addr:unit" v="우남빌딩 1층 102호 (방배동)"/>
    <tag k="amenity" v="cafe"/>
    <tag k="name" v="디노블럭"/>
  </node>
  <node id="12192222857" lat="37.4789388" lon="126.9894037">
    <tag k="addr:city" v="서울특별시"/>
    <tag k="addr:district" v="서초구"/>
    <tag k="addr:housenumber" v="47"/>
    <tag k="addr:street" v="효령로"/>
    <tag k="addr:unit" v="(방배동, 2층)"/>
    <tag k="amenity" v="cafe"/>
    <tag k="name" v="BEEREN(베렌)"/>
  </node>
  <node id="12192222930" lat="37.4845810" lon="126.9946495">
    <tag k="addr:city" v="서울특별시"/>
    <tag k="addr:district" v="서초구"/>
    <tag k="addr:housenumber" v="81,"/>
    <tag k="addr:street" v="효령로31길"/>
    <tag k="addr:unit" v="지하1층 (방배동)"/>
    <tag k="amenity" v="cafe"/>
    <tag k="name" v="담연"/>
  </node>
  <node id="12192223013" lat="37.4887400" lon="126.9922882">
    <tag k="addr:city" v="서울특별시"/>
    <tag k="addr:district" v="서초구"/>
    <tag k="addr:housenumber" v="12"/>
    <tag k="addr:street" v="방배로25길"/>
    <tag k="addr:unit" v="(방배동,1층)"/>
    <tag k="amenity" v="cafe"/>
    <tag k="name" v="카페 드 람 cafe de lamp"/>
  </node>
  <node id="12192223054" lat="37.4874481" lon="126.9840298">
    <tag k="addr:city" v="서울특별시"/>
    <tag k="addr:district" v="서초구"/>
    <tag k="addr:housenumber" v="16,"/>
    <tag k="addr:street" v="동광로12가길"/>
    <tag k="addr:subdistrict" v="방배동"/>
    <tag k="addr:unit" v="1층"/>
    <tag k="amenity" v="cafe"/>
    <tag k="name" v="수 버거"/>
  </node>
  <node id="12192223155" lat="37.4836295" lon="126.9844763">
    <tag k="addr:city" v="서울특별시"/>
    <tag k="addr:district" v="서초구"/>
    <tag k="addr:housenumber" v="11,"/>
    <tag k="addr:street" v="방배천로18길"/>
    <tag k="addr:unit" v="B동 101호 (방배동)"/>
    <tag k="amenity" v="cafe"/>
    <tag k="name" v="KELLER(켈러)"/>
  </node>
  <node id="12192223572" lat="37.4783287" lon="127.0007408">
    <tag k="addr:city" v="서울특별시"/>
    <tag k="addr:district" v="서초구"/>
    <tag k="addr:housenumber" v="10-21"/>
    <tag k="addr:street" v="방배로6길"/>
    <tag k="addr:unit" v="(방배동,105호)"/>
    <tag k="amenity" v="cafe"/>
    <tag k="name" v="모이다(moida)"/>
  </node>
  <node id="12192223648" lat="37.4810328" lon="126.9822663">
    <tag k="addr:city" v="서울특별시"/>
    <tag k="addr:district" v="서초구"/>
    <tag k="addr:housenumber" v="48,"/>
    <tag k="addr:street" v="동작대로"/>
    <tag k="addr:unit" v="나동 1층 (방배동)"/>
    <tag k="amenity" v="cafe"/>
    <tag k="name" v="BOKA(보카)"/>
  </node>
  <node id="12192223657" lat="37.4778783" lon="126.9996762">
    <tag k="addr:city" v="서울특별시"/>
    <tag k="addr:district" v="서초구"/>
    <tag k="addr:housenumber" v="35,"/>
    <tag k="addr:street" v="방배로"/>
    <tag k="addr:subdistrict" v="방배동"/>
    <tag k="addr:unit" v="1층"/>
    <tag k="amenity" v="cafe"/>
    <tag k="name" v="오페라빈"/>
  </node>
  <node id="12192223694" lat="37.4838866" lon="126.9950937">
    <tag k="addr:city" v="서울특별시"/>
    <tag k="addr:district" v="서초구"/>
    <tag k="addr:housenumber" v="63,"/>
    <tag k="addr:street" v="효령로31길"/>
    <tag k="addr:unit" v="지하1층 (방배동)"/>
    <tag k="amenity" v="cafe"/>
    <tag k="name" v="아토즈(A to Z)"/>
  </node>
  <node id="12192223888" lat="37.4785131" lon="126.9838169">
    <tag k="addr:city" v="서울특별시"/>
    <tag k="addr:district" v="서초구"/>
    <tag k="addr:housenumber" v="33,"/>
    <tag k="addr:street" v="방배천로2안길"/>
    <tag k="addr:subdistrict" v="방배동"/>
    <tag k="addr:unit" v="1층"/>
    <tag k="amenity" v="cafe"/>
    <tag k="name" v="파스타달리"/>
  </node>
  <node id="12192224162" lat="37.4896232" lon="126.9940051">
    <tag k="addr:city" v="서울특별시"/>
    <tag k="addr:district" v="서초구"/>
    <tag k="addr:housenumber" v="37,"/>
    <tag k="addr:street" v="서초대로27길"/>
    <tag k="addr:subdistrict" v="방배동"/>
    <tag k="addr:unit" v="1층"/>
    <tag k="amenity" v="cafe"/>
    <tag k="name" v="delight(딜라이트)"/>
  </node>
  <node id="12192224368" lat="37.4875923" lon="126.9828907">
    <tag k="addr:city" v="서울특별시"/>
    <tag k="addr:district" v="서초구"/>
    <tag k="addr:housenumber" v="36,"/>
    <tag k="addr:street" v="동광로12가길"/>
    <tag k="addr:unit" v="지상1층 (방배동)"/>
    <tag k="amenity" v="cafe"/>
    <tag k="name" v="카페 유(cafe U)"/>
  </node>
  <node id="12192224391" lat="37.4745482" lon="126.9931231">
    <tag k="addr:city" v="서울특별시"/>
    <tag k="addr:district" v="서초구"/>
    <tag k="addr:housenumber" v="128"/>
    <tag k="addr:street" v="효령로2길"/>
    <tag k="addr:unit" v="(방배동)"/>
    <tag k="amenity" v="cafe"/>
    <tag k="name" v="오십사계단커피"/>
  </node>
  <node id="12192224847" lat="37.4777623" lon="126.9989514">
    <tag k="addr:city" v="서울특별시"/>
    <tag k="addr:district" v="서초구"/>
    <tag k="addr:housenumber" v="10-3,"/>
    <tag k="addr:street" v="방배로3길"/>
    <tag k="addr:unit" v="지하1층 (방배동)"/>
    <tag k="amenity" v="cafe"/>
    <tag k="name" v="에델바움"/>
  </node>
  <node id="12192224999" lat="37.4917580" lon="126.9872723">
    <tag k="addr:city" v="서울특별시"/>
    <tag k="addr:district" v="서초구"/>
    <tag k="addr:housenumber" v="41,"/>
    <tag k="addr:street" v="동광로"/>
    <tag k="addr:subdistrict" v="방배동"/>
    <tag k="addr:unit" v="1층"/>
    <tag k="amenity" v="cafe"/>
    <tag k="name" v="아이엠바리스타"/>
  </node>
  <node id="12192225011" lat="37.4813795" lon="126.9984343">
    <tag k="addr:city" v="서울특별시"/>
    <tag k="addr:district" v="서초구"/>
    <tag k="addr:housenumber" v="132,"/>
    <tag k="addr:street" v="효령로"/>
    <tag k="addr:unit" v="지하1층 (방배동)"/>
    <tag k="amenity" v="cafe"/>
    <tag k="name" v="마노핀 갤러리 방배역점"/>
  </node>
  <node id="12192225938" lat="37.4930856" lon="126.9894508">
    <tag k="addr:city" v="서울특별시"/>
    <tag k="addr:district" v="서초구"/>
    <tag k="addr:housenumber" v="10-3,"/>
    <tag k="addr:street" v="동광로19길"/>
    <tag k="addr:unit" v="1층 103호 (방배동)"/>
    <tag k="amenity" v="cafe"/>
    <tag k="name" v="로뎀나무"/>
  </node>
  <node id="12192226782" lat="37.4828802" lon="126.9963669">
    <tag k="addr:city" v="서울특별시"/>
    <tag k="addr:district" v="서초구"/>
    <tag k="addr:housenumber" v="97,"/>
    <tag k="addr:street" v="방배로"/>
    <tag k="addr:unit" v="1층 (방배동, 청유빌딩)"/>
    <tag k="amenity" v="cafe"/>
    <tag k="name" v="투썸플레이스 방배역"/>
  </node>

</osm>
