{
  "version": 0.6,
  "generator": "Overpass API 0.7.62.4 2390de5a",
  "osm3s": {
    "timestamp_osm_base": "",
    "copyright": "The data included in this document is from www.openstreetmap.org. The data is made available under ODbL."
  },
  "elements": [

{
  "type": "way",
  "id": 37928408,
  "bounds": {
    "minlat": 37.5203451,
    "minlon": 126.9931600,
    "maxlat": 37.5238000,
    "maxlon": 126.9939702
  },
  "nodes": [
    436843897,
    6316109852,
    6316109851,
    436843901
  ],
  "geometry": [
    { "lat": 37.5203451, "lon": 126.9939702 },
    { "lat": 37.5224716, "lon": 126.9935929 },
    { "lat": 37.5232047, "lon": 126.9933644 },
    { "lat": 37.5238000, "lon": 126.9931600 }
  ],
  "tags": {
    "bridge": "yes",
    "highway": "primary",
    "layer": "2",
    "name": "녹사평대로",
    "name:en": "Noksapyeong-daero",
    "name:ja": "緑莎坪大路",
    "name:ko": "녹사평대로",
    "ref": "31"
  }
},
{
  "type": "way",
  "id": 37928409,
  "bounds": {
    "minlat": 37.5100889,
    "minlon": 126.9961536,
    "maxlat": 37.5153761,
    "maxlon": 126.9987210
  },
  "nodes": [
    1132440987,
    436843895,
    3736237089,
    9593189693,
    9990748059,
    798714910,
    9997179734
  ],
  "geometry": [
    { "lat": 37.5100889, "lon": 126.9987210 },
    { "lat": 37.5102233, "lon": 126.9986487 },
    { "lat": 37.5106578, "lon": 126.9984461 },
    { "lat": 37.5110375, "lon": 126.9982772 },
    { "lat": 37.5125620, "lon": 126.9975302 },
    { "lat": 37.5151140, "lon": 126.9962816 },
    { "lat": 37.5153761, "lon": 126.9961536 }
  ],
  "tags": {
    "access": "yes",
    "bicycle": "no",
    "bridge": "yes",
    "foot": "yes",
    "highway": "primary",
    "lanes": "4",
    "layer": "2",
    "maxspeed": "60",
    "name": "반포대로",
    "name:en": "Banpodaero",
    "name:es": "Puente Banpo",
    "name:ja": "盤浦大橋",
    "name:ko": "반포대로",
    "name:ko-Latn": "Banpodae-ro",
    "name:pl": "Banpodae-ro",
    "ncat": "광역시도로",
    "oneway": "yes",
    "ref": "31",
    "surface": "asphalt",
    "wikidata": "Q255506"
  }
},
{
  "type": "way",
  "id": 46622811,
  "bounds": {
    "minlat": 37.5284128,
    "minlon": 127.0099642,
    "maxlat": 37.5302120,
    "maxlon": 127.0116318
  },
  "nodes": [
    732031868,
    732031870,
    732031874,
    1936511269
  ],
  "geometry": [
    { "lat": 37.5302120, "lon": 127.0099642 },
    { "lat": 37.5296066, "lon": 127.0104862 },
    { "lat": 37.5290774, "lon": 127.0110090 },
    { "lat": 37.5284128, "lon": 127.0116318 }
  ],
  "tags": {
    "bicycle": "no",
    "bridge": "yes",
    "highway": "primary",
    "layer": "2",
    "name": "한남대로",
    "name:en": "Hannam-daero",
    "name:ja": "漢南大路",
    "name:ko": "한남대로",
    "ncat": "광역시도로",
    "not:name": "강남대로 (Gangnam-daero)",
    "oneway": "yes",
    "ref": "41;AH1",
    "source": "NTIC",
    "surface": "asphalt"
  }
},
{
  "type": "way",
  "id": 46623304,
  "bounds": {
    "minlat": 37.5220458,
    "minlon": 127.0167449,
    "maxlat": 37.5232050,
    "maxlon": 127.0177956
  },
  "nodes": [
    595776343,
    4360970511,
    595780309,
    3517428101,
    8689941720,
    595776346
  ],
  "geometry": [
    { "lat": 37.5220458, "lon": 127.0177956 },
    { "lat": 37.5222175, "lon": 127.0176806 },
    { "lat": 37.5223573, "lon": 127.0175554 },
    { "lat": 37.5230158, "lon": 127.0169148 },
    { "lat": 37.5231223, "lon": 127.0168188 },
    { "lat": 37.5232050, "lon": 127.0167449 }
  ],
  "tags": {
    "bicycle": "no",
    "highway": "primary",
    "name": "강남대로",
    "name:en": "Gangnam-daero",
    "name:ja": "江南大路",
    "name:ko": "강남대로",
    "name:ko-Latn": "Gangnam-daero",
    "ncat": "광역시도로",
    "oneway": "yes",
    "ref": "41;AH1",
    "source": "NTIC",
    "surface": "asphalt"
  }
},
{
  "type": "way",
  "id": 46623305,
  "bounds": {
    "minlat": 37.5216599,
    "minlon": 127.0177956,
    "maxlat": 37.5220458,
    "maxlon": 127.0180186
  },
  "nodes": [
    595776341,
    595776343
  ],
  "geometry": [
    { "lat": 37.5216599, "lon": 127.0180186 },
    { "lat": 37.5220458, "lon": 127.0177956 }
  ],
  "tags": {
    "bridge": "yes",
    "bridge:structure": "beam",
    "highway": "primary",
    "layer": "1",
    "name": "강남대로",
    "name:en": "Gangnam-daero",
    "name:ja": "江南大路",
    "name:ko": "강남대로",
    "name:ko-Latn": "Gangnam-daero",
    "ncat": "광역시도로",
    "oneway": "yes",
    "ref": "41;AH1",
    "source": "NTIC"
  }
},
{
  "type": "way",
  "id": 59054221,
  "bounds": {
    "minlat": 37.5232050,
    "minlon": 127.0101807,
    "maxlat": 37.5303027,
    "maxlon": 127.0167449
  },
  "nodes": [
    595776346,
    732031887,
    732031786,
    5987947872,
    8111229507,
    1936511274,
    732031889,
    732031890,
    3736778207
  ],
  "geometry": [
    { "lat": 37.5232050, "lon": 127.0167449 },
    { "lat": 37.5246947, "lon": 127.0153926 },
    { "lat": 37.5255325, "lon": 127.0146514 },
    { "lat": 37.5268596, "lon": 127.0134127 },
    { "lat": 37.5277259, "lon": 127.0125649 },
    { "lat": 37.5278878, "lon": 127.0124065 },
    { "lat": 37.5285307, "lon": 127.0118259 },
    { "lat": 37.5291230, "lon": 127.0112553 },
    { "lat": 37.5303027, "lon": 127.0101807 }
  ],
  "tags": {
    "bicycle": "no",
    "bridge": "yes",
    "highway": "primary",
    "layer": "2",
    "name": "한남대로",
    "name:en": "Hannam-daero",
    "name:ja": "漢南大路",
    "name:ko": "한남대로",
    "name:ko-Latn": "Hannamdaero",
    "ncat": "광역시도로",
    "not:name": "강남대로 (Gangnam-daero)",
    "oneway": "yes",
    "ref": "41;AH1",
    "source": "NTIC"
  }
},
{
  "type": "way",
  "id": 71105531,
  "bounds": {
    "minlat": 37.5011974,
    "minlon": 127.0011535,
    "maxlat": 37.5017392,
    "maxlon": 127.0025424
  },
  "nodes": [
    846808269,
    1132502928
  ],
  "geometry": [
    { "lat": 37.5017392, "lon": 127.0025424 },
    { "lat": 37.5011974, "lon": 127.0011535 }
  ],
  "tags": {
    "highway": "primary",
    "maxspeed": "60",
    "name": "사평대로",
    "name:en": "Sapyeong-daero",
    "name:ko": "사평대로",
    "surface": "asphalt"
  }
},
{
  "type": "way",
  "id": 71105534,
  "bounds": {
    "minlat": 37.5043500,
    "minlon": 127.0148182,
    "maxlat": 37.5044398,
    "maxlon": 127.0150808
  },
  "nodes": [
    4899542143,
    1996442184
  ],
  "geometry": [
    { "lat": 37.5043500, "lon": 127.0150808 },
    { "lat": 37.5044398, "lon": 127.0148182 }
  ],
  "tags": {
    "highway": "primary",
    "name": "사평대로",
    "name:en": "Sapyeong-daero",
    "name:ko": "사평대로"
  }
},
{
  "type": "way",
  "id": 71105555,
  "bounds": {
    "minlat": 37.5017392,
    "minlon": 127.0025424,
    "maxlat": 37.5023285,
    "maxlon": 127.0040099
  },
  "nodes": [
    846808605,
    846808269
  ],
  "geometry": [
    { "lat": 37.5023285, "lon": 127.0040099 },
    { "lat": 37.5017392, "lon": 127.0025424 }
  ],
  "tags": {
    "highway": "primary",
    "layer": "-1",
    "name": "사평지하차도",
    "name:ko": "사평지하차도",
    "tunnel": "yes"
  }
},
{
  "type": "way",
  "id": 177618264,
  "bounds": {
    "minlat": 37.5160595,
    "minlon": 127.0178557,
    "maxlat": 37.5216021,
    "maxlon": 127.0193796
  },
  "nodes": [
    595776271,
    5987954183,
    595776272,
    595776273,
    2032644156,
    2032644155,
    600377807,
    600377800,
    11225381658,
    11225381645,
    4867335002,
    4867335000
  ],
  "geometry": [
    { "lat": 37.5216021, "lon": 127.0178557 },
    { "lat": 37.5213440, "lon": 127.0179607 },
    { "lat": 37.5209822, "lon": 127.0180858 },
    { "lat": 37.5205019, "lon": 127.0181836 },
    { "lat": 37.5186970, "lon": 127.0187164 },
    { "lat": 37.5184817, "lon": 127.0187266 },
    { "lat": 37.5183522, "lon": 127.0187502 },
    { "lat": 37.5176230, "lon": 127.0189529 },
    { "lat": 37.5163829, "lon": 127.0192940 },
    { "lat": 37.5163605, "lon": 127.0193002 },
    { "lat": 37.5162035, "lon": 127.0193434 },
    { "lat": 37.5160595, "lon": 127.0193796 }
  ],
  "tags": {
    "access": "yes",
    "bicycle": "no",
    "foot": "no",
    "highway": "primary",
    "lanes": "8",
    "name": "강남대로",
    "name:en": "Gangnam-daero",
    "name:ja": "江南大路",
    "name:ko": "강남대로",
    "name:ko-Latn": "Gangnam-daero",
    "ncat": "광역시도로",
    "oneway": "yes",
    "ref": "41",
    "source": "NTIC"
  }
},
{
  "type": "way",
  "id": 177618265,
  "bounds": {
    "minlat": 37.5162367,
    "minlon": 127.0180186,
    "maxlat": 37.5216599,
    "maxlon": 127.0196370
  },
  "nodes": [
    4867335001,
    11225381646,
    11225381657,
    8489372364,
    1880368712,
    4867334998,
    595776274,
    595776341
  ],
  "geometry": [
    { "lat": 37.5162367, "lon": 127.0196370 },
    { "lat": 37.5164120, "lon": 127.0195807 },
    { "lat": 37.5164351, "lon": 127.0195733 },
    { "lat": 37.5166169, "lon": 127.0195150 },
    { "lat": 37.5169560, "lon": 127.0194216 },
    { "lat": 37.5177517, "lon": 127.0191332 },
    { "lat": 37.5179925, "lon": 127.0190459 },
    { "lat": 37.5216599, "lon": 127.0180186 }
  ],
  "tags": {
    "access": "yes",
    "highway": "primary",
    "lanes": "8",
    "name": "강남대로",
    "name:en": "Gangnam-daero",
    "name:ja": "江南大路",
    "name:ko": "강남대로",
    "name:ko-Latn": "Gangnam-daero",
    "ncat": "광역시도로",
    "oneway": "yes"
  }
},
{
  "type": "way",
  "id": 215040147,
  "bounds": {
    "minlat": 37.5029697,
    "minlon": 127.0194082,
    "maxlat": 37.5034452,
    "maxlon": 127.0211197
  },
  "nodes": [
    732033332,
    2903119697,
    4894927250,
    4894922585,
    2281095529,
    9950412733,
    12061684198,
    414684605
  ],
  "geometry": [
    { "lat": 37.5029697, "lon": 127.0194082 },
    { "lat": 37.5029750, "lon": 127.0194805 },
    { "lat": 37.5029802, "lon": 127.0195528 },
    { "lat": 37.5030107, "lon": 127.0197506 },
    { "lat": 37.5030582, "lon": 127.0199592 },
    { "lat": 37.5033425, "lon": 127.0209196 },
    { "lat": 37.5033840, "lon": 127.0210004 },
    { "lat": 37.5034452, "lon": 127.0211197 }
  ],
  "tags": {
    "highway": "primary",
    "name": "사평대로",
    "name:en": "Sapyeong-daero",
    "name:ja": "砂坪大路",
    "name:ko": "사평대로",
    "oneway": "yes"
  }
},
{
  "type": "way",
  "id": 215040163,
  "bounds": {
    "minlat": 37.5029392,
    "minlon": 127.0169792,
    "maxlat": 37.5033134,
    "maxlon": 127.0194082
  },
  "nodes": [
    8556909677,
    10269514050,
    10269514051,
    10269514052,
    10269514053,
    10269514054,
    732033410,
    10269514055,
    732033413,
    732033332
  ],
  "geometry": [
    { "lat": 37.5033134, "lon": 127.0169792 },
    { "lat": 37.5032186, "lon": 127.0171583 },
    { "lat": 37.5031311, "lon": 127.0173324 },
    { "lat": 37.5030707, "lon": 127.0174716 },
    { "lat": 37.5030312, "lon": 127.0175916 },
    { "lat": 37.5029981, "lon": 127.0177349 },
    { "lat": 37.5029602, "lon": 127.0179343 },
    { "lat": 37.5029443, "lon": 127.0181359 },
    { "lat": 37.5029392, "lon": 127.0183151 },
    { "lat": 37.5029697, "lon": 127.0194082 }
  ],
  "tags": {
    "highway": "primary",
    "name": "사평대로",
    "name:en": "Sapyeong-daero",
    "name:ja": "砂坪大路",
    "name:ko": "사평대로",
    "oneway": "yes"
  }
},
{
  "type": "way",
  "id": 218681384,
  "bounds": {
    "minlat": 37.5110812,
    "minlon": 127.0213861,
    "maxlat": 37.5111721,
    "maxlon": 127.0214351
  },
  "nodes": [
    2280678861,
    11083667700,
    2280678863
  ],
  "geometry": [
    { "lat": 37.5110812, "lon": 127.0214351 },
    { "lat": 37.5111253, "lon": 127.0214113 },
    { "lat": 37.5111721, "lon": 127.0213861 }
  ],
  "tags": {
    "access": "yes",
    "highway": "primary",
    "lanes": "8",
    "name": "강남대로",
    "name:en": "Gangnam-daero",
    "name:ja": "江南大路",
    "name:ko": "강남대로",
    "name:ko-Latn": "Gangnam-daero",
    "ncat": "광역시도로",
    "oneway": "yes",
    "ref": "41",
    "surface": "asphalt"
  }
},
{
  "type": "way",
  "id": 218865675,
  "bounds": {
    "minlat": 37.5110085,
    "minlon": 127.0211737,
    "maxlat": 37.5111077,
    "maxlon": 127.0212150
  },
  "nodes": [
    2280678862,
    11083667701,
    2280678860
  ],
  "geometry": [
    { "lat": 37.5111077, "lon": 127.0211737 },
    { "lat": 37.5110558, "lon": 127.0211953 },
    { "lat": 37.5110085, "lon": 127.0212150 }
  ],
  "tags": {
    "access": "yes",
    "highway": "primary",
    "lanes": "8",
    "name": "강남대로",
    "name:en": "Gangnam-daero",
    "name:ja": "江南大路",
    "name:ko": "강남대로",
    "name:ko-Latn": "Gangnam-daero",
    "ncat": "광역시도로",
    "oneway": "yes",
    "ref": "41",
    "surface": "asphalt"
  }
},
{
  "type": "way",
  "id": 218870945,
  "bounds": {
    "minlat": 37.5045730,
    "minlon": 127.0097594,
    "maxlat": 37.5047198,
    "maxlon": 127.0103746
  },
  "nodes": [
    436864998,
    11245135932,
    11245135922,
    10269514049,
    10269514025,
    1132502927
  ],
  "geometry": [
    { "lat": 37.5047198, "lon": 127.0103746 },
    { "lat": 37.5046891, "lon": 127.0102460 },
    { "lat": 37.5046795, "lon": 127.0102057 },
    { "lat": 37.5046639, "lon": 127.0101403 },
    { "lat": 37.5045817, "lon": 127.0097960 },
    { "lat": 37.5045730, "lon": 127.0097594 }
  ],
  "tags": {
    "destination:backward": "사평대로;신논현역;반포IC",
    "destination:forward": "현충원;이수교차로;서울성모병원",
    "destination:lang:en:backward": "Sapyeong-daero;Sinnonhyeon Station;Banpo IC",
    "destination:lang:en:forward": "Nat'l Cemetery;Isu Jct;Seoul St. Mary's Hospital",
    "highway": "primary",
    "name": "사평대로",
    "name:en": "Sapyeong-daero",
    "name:ja": "砂坪大路",
    "name:ko": "사평대로"
  }
},
{
  "type": "way",
  "id": 218907632,
  "bounds": {
    "minlat": 37.5256547,
    "minlon": 126.9913196,
    "maxlat": 37.5299145,
    "maxlon": 126.9918795
  },
  "nodes": [
    436843910,
    4275443117,
    436843909,
    4275443119,
    387153290,
    436843907,
    436843906,
    436843905,
    436843904
  ],
  "geometry": [
    { "lat": 37.5299145, "lon": 126.9913196 },
    { "lat": 37.5293945, "lon": 126.9913839 },
    { "lat": 37.5292100, "lon": 126.9914100 },
    { "lat": 37.5287292, "lon": 126.9914558 },
    { "lat": 37.5272773, "lon": 126.9915940 },
    { "lat": 37.5263300, "lon": 126.9916900 },
    { "lat": 37.5260600, "lon": 126.9917400 },
    { "lat": 37.5258300, "lon": 126.9917800 },
    { "lat": 37.5256547, "lon": 126.9918795 }
  ],
  "tags": {
    "highway": "primary",
    "name": "녹사평대로",
    "name:en": "Noksapyeong-daero",
    "name:ja": "緑莎坪大路",
    "name:ko": "녹사평대로",
    "ref": "31"
  }
},
{
  "type": "way",
  "id": 218959279,
  "bounds": {
    "minlat": 37.5238000,
    "minlon": 126.9918795,
    "maxlat": 37.5256547,
    "maxlon": 126.9931600
  },
  "nodes": [
    436843904,
    436843903,
    4239829342,
    3054132435,
    436843902,
    3054132434,
    436843901
  ],
  "geometry": [
    { "lat": 37.5256547, "lon": 126.9918795 },
    { "lat": 37.5254500, "lon": 126.9920200 },
    { "lat": 37.5252272, "lon": 126.9921834 },
    { "lat": 37.5248493, "lon": 126.9924605 },
    { "lat": 37.5245500, "lon": 126.9926800 },
    { "lat": 37.5240472, "lon": 126.9930018 },
    { "lat": 37.5238000, "lon": 126.9931600 }
  ],
  "tags": {
    "highway": "primary",
    "name": "녹사평대로",
    "name:en": "Noksapyeong-daero",
    "name:ja": "緑莎坪大路",
    "name:ko": "녹사평대로",
    "name:ko-Latn": "Noksapyeong-daero",
    "ref": "31"
  }
},
{
  "type": "way",
  "id": 218964496,
  "bounds": {
    "minlat": 37.5018625,
    "minlon": 126.9756962,
    "maxlat": 37.5037966,
    "maxlon": 126.9798998
  },
  "nodes": [
    1668695129,
    4908230134,
    4908230137,
    4099725196,
    4099725195,
    4099725205,
    4099725204,
    4099725203,
    436881317,
    436881315,
    436881314,
    1667063109,
    2244930356,
    2244930358,
    2244930325,
    1667062956,
    2244510783
  ],
  "geometry": [
    { "lat": 37.5037966, "lon": 126.9756962 },
    { "lat": 37.5037320, "lon": 126.9756997 },
    { "lat": 37.5036628, "lon": 126.9757359 },
    { "lat": 37.5034124, "lon": 126.9760169 },
    { "lat": 37.5030941, "lon": 126.9763795 },
    { "lat": 37.5029459, "lon": 126.9765533 },
    { "lat": 37.5027976, "lon": 126.9767299 },
    { "lat": 37.5025523, "lon": 126.9770507 },
    { "lat": 37.5023808, "lon": 126.9772953 },
    { "lat": 37.5022473, "lon": 126.9775612 },
    { "lat": 37.5021510, "lon": 126.9777844 },
    { "lat": 37.5020665, "lon": 126.9780117 },
    { "lat": 37.5020038, "lon": 126.9782451 },
    { "lat": 37.5019609, "lon": 126.9784997 },
    { "lat": 37.5019294, "lon": 126.9788845 },
    { "lat": 37.5019057, "lon": 126.9793741 },
    { "lat": 37.5018625, "lon": 126.9798998 }
  ],
  "tags": {
    "highway": "primary",
    "lanes": "8",
    "name": "현충로",
    "name:en": "Hyeonchung-ro",
    "name:ja": "顕忠路",
    "name:ko": "현충로",
    "name:ko-Latn": "Hyeonchungno",
    "oneway": "yes",
    "review": "no",
    "source": "NTIC",
    "surface": "paved"
  }
},
{
  "type": "way",
  "id": 218972540,
  "bounds": {
    "minlat": 37.5070793,
    "minlon": 127.0214351,
    "maxlat": 37.5110812,
    "maxlon": 127.0234200
  },
  "nodes": [
    4867334970,
    2280678852,
    11170694851,
    3827672502,
    11170694852,
    11170694853,
    1326187671,
    1326187638,
    2280678861
  ],
  "geometry": [
    { "lat": 37.5070793, "lon": 127.0234200 },
    { "lat": 37.5071882, "lon": 127.0233360 },
    { "lat": 37.5072937, "lon": 127.0232654 },
    { "lat": 37.5086481, "lon": 127.0226152 },
    { "lat": 37.5088648, "lon": 127.0225058 },
    { "lat": 37.5093811, "lon": 127.0222598 },
    { "lat": 37.5096534, "lon": 127.0221677 },
    { "lat": 37.5106198, "lon": 127.0216796 },
    { "lat": 37.5110812, "lon": 127.0214351 }
  ],
  "tags": {
    "access": "yes",
    "highway": "primary",
    "lanes": "8",
    "name": "강남대로",
    "name:en": "Gangnam-daero",
    "name:ja": "江南大路",
    "name:ko": "강남대로",
    "name:ko-Latn": "Gangnam-daero",
    "oneway": "yes",
    "ref": "41",
    "surface": "asphalt"
  }
},
{
  "type": "way",
  "id": 219837933,
  "bounds": {
    "minlat": 37.5034452,
    "minlon": 127.0211197,
    "maxlat": 37.5036945,
    "maxlon": 127.0219564
  },
  "nodes": [
    414684605,
    3054785344,
    10796636294,
    2281095533
  ],
  "geometry": [
    { "lat": 37.5034452, "lon": 127.0211197 },
    { "lat": 37.5034935, "lon": 127.0212820 },
    { "lat": 37.5035940, "lon": 127.0216192 },
    { "lat": 37.5036945, "lon": 127.0219564 }
  ],
  "tags": {
    "highway": "primary",
    "name": "사평대로",
    "name:en": "Sapyeong-daero",
    "name:ja": "砂坪大路",
    "name:ko": "사평대로"
  }
},
{
  "type": "way",
  "id": 219837936,
  "bounds": {
    "minlat": 37.5082729,
    "minlon": 127.0212150,
    "maxlat": 37.5110085,
    "maxlon": 127.0225295
  },
  "nodes": [
    2280678860,
    2477265762,
    3827672541,
    4182209842,
    2477340275,
    4984365472
  ],
  "geometry": [
    { "lat": 37.5110085, "lon": 127.0212150 },
    { "lat": 37.5105351, "lon": 127.0214082 },
    { "lat": 37.5095546, "lon": 127.0218882 },
    { "lat": 37.5089508, "lon": 127.0221980 },
    { "lat": 37.5085253, "lon": 127.0224081 },
    { "lat": 37.5082729, "lon": 127.0225295 }
  ],
  "tags": {
    "access": "yes",
    "highway": "primary",
    "lanes": "8",
    "name": "강남대로",
    "name:en": "Gangnam-daero",
    "name:ja": "江南大路",
    "name:ko": "강남대로",
    "name:ko-Latn": "Gangnam-daero",
    "oneway": "yes",
    "ref": "41",
    "surface": "asphalt"
  }
},
{
  "type": "way",
  "id": 248405547,
  "bounds": {
    "minlat": 37.5020004,
    "minlon": 126.9793950,
    "maxlat": 37.5020302,
    "maxlon": 126.9799802
  },
  "nodes": [
    2551950332,
    2551950333
  ],
  "geometry": [
    { "lat": 37.5020004, "lon": 126.9799802 },
    { "lat": 37.5020302, "lon": 126.9793950 }
  ],
  "tags": {
    "highway": "primary",
    "layer": "-1",
    "name": "동작대로",
    "name:en": "Dongjak-daero",
    "name:ko": "동작대로",
    "oneway": "yes",
    "tunnel": "yes"
  }
},
{
  "type": "way",
  "id": 248405548,
  "bounds": {
    "minlat": 37.5016768,
    "minlon": 126.9799802,
    "maxlat": 37.5020004,
    "maxlon": 126.9818869
  },
  "nodes": [
    2551950328,
    11708349990,
    11708349989,
    11229639130,
    2551950330,
    2551950332
  ],
  "geometry": [
    { "lat": 37.5016768, "lon": 126.9818869 },
    { "lat": 37.5017699, "lon": 126.9815867 },
    { "lat": 37.5018419, "lon": 126.9813257 },
    { "lat": 37.5018945, "lon": 126.9810892 },
    { "lat": 37.5019498, "lon": 126.9806534 },
    { "lat": 37.5020004, "lon": 126.9799802 }
  ],
  "tags": {
    "highway": "primary",
    "lanes": "3",
    "name": "동작대로",
    "name:en": "Dongjak-daero",
    "name:ko": "동작대로",
    "oneway": "yes"
  }
},
{
  "type": "way",
  "id": 248405549,
  "bounds": {
    "minlat": 37.5020302,
    "minlon": 126.9758888,
    "maxlat": 37.5036996,
    "maxlon": 126.9793950
  },
  "nodes": [
    2551950333,
    2551950334,
    2551950336,
    2551950338,
    2551950340,
    2551950342,
    2551950346,
    2551950348,
    4099725202,
    4099725201,
    4099725200,
    4099725217,
    4099725199,
    4099725198,
    6264720427
  ],
  "geometry": [
    { "lat": 37.5020302, "lon": 126.9793950 },
    { "lat": 37.5020493, "lon": 126.9789062 },
    { "lat": 37.5020956, "lon": 126.9785561 },
    { "lat": 37.5021419, "lon": 126.9782960 },
    { "lat": 37.5022055, "lon": 126.9780772 },
    { "lat": 37.5022895, "lon": 126.9778448 },
    { "lat": 37.5023751, "lon": 126.9776321 },
    { "lat": 37.5025014, "lon": 126.9773706 },
    { "lat": 37.5026738, "lon": 126.9770926 },
    { "lat": 37.5028739, "lon": 126.9768281 },
    { "lat": 37.5030847, "lon": 126.9765967 },
    { "lat": 37.5032621, "lon": 126.9763862 },
    { "lat": 37.5033637, "lon": 126.9762655 },
    { "lat": 37.5036662, "lon": 126.9759249 },
    { "lat": 37.5036996, "lon": 126.9758888 }
  ],
  "tags": {
    "highway": "primary",
    "name": "현충로",
    "name:en": "Hyeonchung-ro",
    "name:ko": "현충로",
    "oneway": "yes"
  }
},
{
  "type": "way",
  "id": 248405550,
  "bounds": {
    "minlat": 37.5037966,
    "minlon": 126.9670279,
    "maxlat": 37.5068846,
    "maxlon": 126.9756962
  },
  "nodes": [
    1668695129,
    4099725194,
    7552329918,
    436798771,
    4908230133,
    3736262139,
    3736262142,
    436881320,
    436881321,
    436881322,
    1994676613,
    436881323,
    1994676519,
    1994676646,
    4611290304,
    4611290315,
    4611290297,
    4611290340,
    436881325,
    4936539496,
    1994676557,
    4612835523,
    4611290317,
    4611290276,
    1994676699,
    4611246528
  ],
  "geometry": [
    { "lat": 37.5037966, "lon": 126.9756962 },
    { "lat": 37.5038451, "lon": 126.9756465 },
    { "lat": 37.5038774, "lon": 126.9756123 },
    { "lat": 37.5040572, "lon": 126.9754258 },
    { "lat": 37.5044554, "lon": 126.9750103 },
    { "lat": 37.5045467, "lon": 126.9749015 },
    { "lat": 37.5048094, "lon": 126.9745562 },
    { "lat": 37.5049157, "lon": 126.9743437 },
    { "lat": 37.5052441, "lon": 126.9735209 },
    { "lat": 37.5054986, "lon": 126.9729190 },
    { "lat": 37.5055902, "lon": 126.9726854 },
    { "lat": 37.5056349, "lon": 126.9725043 },
    { "lat": 37.5056942, "lon": 126.9721374 },
    { "lat": 37.5056504, "lon": 126.9712744 },
    { "lat": 37.5056515, "lon": 126.9712490 },
    { "lat": 37.5056483, "lon": 126.9711807 },
    { "lat": 37.5056632, "lon": 126.9707096 },
    { "lat": 37.5056611, "lon": 126.9705164 },
    { "lat": 37.5056717, "lon": 126.9703339 },
    { "lat": 37.5057518, "lon": 126.9700310 },
    { "lat": 37.5057982, "lon": 126.9698554 },
    { "lat": 37.5058746, "lon": 126.9696446 },
    { "lat": 37.5058966, "lon": 126.9695838 },
    { "lat": 37.5062233, "lon": 126.9686543 },
    { "lat": 37.5062881, "lon": 126.9685037 },
    { "lat": 37.5068846, "lon": 126.9670279 }
  ],
  "tags": {
    "highway": "primary",
    "lanes": "8",
    "name": "현충로",
    "name:en": "Hyeonchung-ro",
    "name:ja": "顕忠路",
    "name:ko": "현충로",
    "name:ko-Latn": "Hyeonchungno",
    "oneway": "no",
    "review": "no",
    "source": "NTIC",
    "surface": "asphalt"
  }
},
{
  "type": "way",
  "id": 248405551,
  "bounds": {
    "minlat": 37.4982195,
    "minlon": 126.9812804,
    "maxlat": 37.5017179,
    "maxlon": 126.9881924
  },
  "nodes": [
    2551950326,
    7496126912,
    7660036085,
    11229661052,
    11229661043,
    2551950323,
    2551950320,
    2551950313,
    2551950309,
    2551950300,
    2551950279,
    2551950265,
    2551950261,
    2551950258,
    2551950250,
    2551950251
  ],
  "geometry": [
    { "lat": 37.5017179, "lon": 126.9812804 },
    { "lat": 37.5016532, "lon": 126.9816395 },
    { "lat": 37.5015144, "lon": 126.9821058 },
    { "lat": 37.5014083, "lon": 126.9823700 },
    { "lat": 37.5012802, "lon": 126.9826204 },
    { "lat": 37.5011168, "lon": 126.9828790 },
    { "lat": 37.5009302, "lon": 126.9831744 },
    { "lat": 37.5004018, "lon": 126.9840784 },
    { "lat": 37.5000911, "lon": 126.9845204 },
    { "lat": 37.4996871, "lon": 126.9849640 },
    { "lat": 37.4988897, "lon": 126.9858356 },
    { "lat": 37.4986217, "lon": 126.9862366 },
    { "lat": 37.4984580, "lon": 126.9865886 },
    { "lat": 37.4983232, "lon": 126.9869594 },
    { "lat": 37.4982195, "lon": 126.9875812 },
    { "lat": 37.4982495, "lon": 126.9881924 }
  ],
  "tags": {
    "bridge": "yes",
    "highway": "primary",
    "lanes": "2",
    "layer": "3",
    "name": "이수고가차도",
    "name:ko": "이수고가차도",
    "oneway": "yes"
  }
},
{
  "type": "way",
  "id": 317781645,
  "bounds": {
    "minlat": 37.5031026,
    "minlon": 127.0194471,
    "maxlat": 37.5034452,
    "maxlon": 127.0211197
  },
  "nodes": [
    414684605,
    12061684199,
    9950412732,
    2281095530,
    3827608184
  ],
  "geometry": [
    { "lat": 37.5034452, "lon": 127.0211197 },
    { "lat": 37.5034417, "lon": 127.0209697 },
    { "lat": 37.5034397, "lon": 127.0208816 },
    { "lat": 37.5031435, "lon": 127.0198225 },
    { "lat": 37.5031026, "lon": 127.0194471 }
  ],
  "tags": {
    "highway": "primary",
    "name": "사평대로",
    "name:en": "Sapyeong-daero",
    "name:ja": "砂坪大路",
    "name:ko": "사평대로",
    "oneway": "yes"
  }
},
{
  "type": "way",
  "id": 333972430,
  "bounds": {
    "minlat": 37.5289307,
    "minlon": 126.9675154,
    "maxlat": 37.5295507,
    "maxlon": 126.9681234
  },
  "nodes": [
    5851157764,
    10815767424,
    5851158286
  ],
  "geometry": [
    { "lat": 37.5295507, "lon": 126.9681234 },
    { "lat": 37.5294612, "lon": 126.9680356 },
    { "lat": 37.5289307, "lon": 126.9675154 }
  ],
  "tags": {
    "bicycle": "designated",
    "busway": "lane",
    "cycleway": "shared_lane",
    "cycleway:right": "shared_lane",
    "highway": "primary",
    "name": "한강대로",
    "name:en": "Hangang-daero",
    "name:ja": "漢江大路",
    "name:ko": "한강대로",
    "name:ko-Latn": "Hangang-daero",
    "ncat": "광역시도로",
    "oneway": "yes",
    "oneway:bus": "no",
    "review": "no",
    "source": "NTIC"
  }
},
{
  "type": "way",
  "id": 473798790,
  "bounds": {
    "minlat": 37.5023285,
    "minlon": 127.0040099,
    "maxlat": 37.5030062,
    "maxlon": 127.0057428
  },
  "nodes": [
    1132502938,
    846808605
  ],
  "geometry": [
    { "lat": 37.5030062, "lon": 127.0057428 },
    { "lat": 37.5023285, "lon": 127.0040099 }
  ],
  "tags": {
    "highway": "primary",
    "name": "사평대로",
    "name:en": "Sapyeong-daero",
    "name:ko": "사평대로"
  }
},
{
  "type": "way",
  "id": 480856734,
  "bounds": {
    "minlat": 37.5077658,
    "minlon": 126.9997304,
    "maxlat": 37.5081842,
    "maxlon": 126.9997845
  },
  "nodes": [
    4738140907,
    4738140909
  ],
  "geometry": [
    { "lat": 37.5077658, "lon": 126.9997845 },
    { "lat": 37.5081842, "lon": 126.9997304 }
  ],
  "tags": {
    "highway": "primary",
    "name": "반포대로",
    "name:en": "Banpo-daero",
    "name:ko": "반포대로",
    "ncat": "광역시도로",
    "oneway": "yes",
    "ref": "31",
    "surface": "asphalt"
  }
},
{
  "type": "way",
  "id": 480856735,
  "bounds": {
    "minlat": 37.5032560,
    "minlon": 127.0008478,
    "maxlat": 37.5054700,
    "maxlon": 127.0024906
  },
  "nodes": [
    4738140908,
    2829529343,
    3616300172,
    4738140915,
    11199667192,
    1445606433
  ],
  "geometry": [
    { "lat": 37.5032560, "lon": 127.0024906 },
    { "lat": 37.5040784, "lon": 127.0018254 },
    { "lat": 37.5045848, "lon": 127.0014157 },
    { "lat": 37.5050078, "lon": 127.0011098 },
    { "lat": 37.5051712, "lon": 127.0010172 },
    { "lat": 37.5054700, "lon": 127.0008478 }
  ],
  "tags": {
    "bridge": "yes",
    "bridge:structure": "beam",
    "highway": "primary",
    "layer": "1",
    "name": "강남터미널고가차도",
    "name:ko": "강남터미널고가차도",
    "ref": "31"
  }
},
{
  "type": "way",
  "id": 480856736,
  "bounds": {
    "minlat": 37.5054700,
    "minlon": 126.9997845,
    "maxlat": 37.5077658,
    "maxlon": 127.0008478
  },
  "nodes": [
    1445606433,
    11212147451,
    4146924153,
    4738140907
  ],
  "geometry": [
    { "lat": 37.5054700, "lon": 127.0008478 },
    { "lat": 37.5062374, "lon": 127.0004943 },
    { "lat": 37.5073641, "lon": 126.9999753 },
    { "lat": 37.5077658, "lon": 126.9997845 }
  ],
  "tags": {
    "bridge": "yes",
    "highway": "primary",
    "layer": "1",
    "name": "반포대로",
    "name:en": "Banpo-daero",
    "name:ko": "반포대로",
    "ncat": "광역시도로",
    "ref": "31",
    "surface": "asphalt"
  }
},
{
  "type": "way",
  "id": 480856742,
  "bounds": {
    "minlat": 37.5001784,
    "minlon": 126.9986443,
    "maxlat": 37.5011974,
    "maxlon": 127.0011535
  },
  "nodes": [
    1132502928,
    2623317253,
    2623317226,
    2622713668,
    2622713665
  ],
  "geometry": [
    { "lat": 37.5011974, "lon": 127.0011535 },
    { "lat": 37.5010702, "lon": 127.0008041 },
    { "lat": 37.5006549, "lon": 126.9998020 },
    { "lat": 37.5005827, "lon": 126.9996414 },
    { "lat": 37.5001784, "lon": 126.9986443 }
  ],
  "tags": {
    "highway": "primary",
    "maxspeed": "60",
    "name": "사평대로",
    "name:en": "Sapyeong-daero",
    "name:ko": "사평대로"
  }
},
{
  "type": "way",
  "id": 494954974,
  "bounds": {
    "minlat": 37.5130541,
    "minlon": 127.0197037,
    "maxlat": 37.5151105,
    "maxlon": 127.0202796
  },
  "nodes": [
    4867334999,
    4867334996,
    9892111593,
    357824648,
    4867334989,
    2280678864
  ],
  "geometry": [
    { "lat": 37.5151105, "lon": 127.0197037 },
    { "lat": 37.5147494, "lon": 127.0197800 },
    { "lat": 37.5142712, "lon": 127.0199076 },
    { "lat": 37.5139422, "lon": 127.0199955 },
    { "lat": 37.5137516, "lon": 127.0200491 },
    { "lat": 37.5130541, "lon": 127.0202796 }
  ],
  "tags": {
    "access": "yes",
    "highway": "primary",
    "lanes": "8",
    "name": "강남대로",
    "name:en": "Gangnam-daero",
    "name:ja": "江南大路",
    "name:ko": "강남대로",
    "name:ko-Latn": "Gangnam-daero",
    "ncat": "광역시도로",
    "oneway": "yes",
    "ref": "41"
  }
},
{
  "type": "way",
  "id": 494954980,
  "bounds": {
    "minlat": 37.5119737,
    "minlon": 127.0203261,
    "maxlat": 37.5138046,
    "maxlon": 127.0210057
  },
  "nodes": [
    3785287020,
    11204519576,
    4181513101,
    4867334982,
    2296567417,
    4867334990
  ],
  "geometry": [
    { "lat": 37.5119737, "lon": 127.0210057 },
    { "lat": 37.5122464, "lon": 127.0208863 },
    { "lat": 37.5128505, "lon": 127.0206217 },
    { "lat": 37.5131136, "lon": 127.0205439 },
    { "lat": 37.5137103, "lon": 127.0203550 },
    { "lat": 37.5138046, "lon": 127.0203261 }
  ],
  "tags": {
    "access": "yes",
    "highway": "primary",
    "lanes": "8",
    "name": "강남대로",
    "name:en": "Gangnam-daero",
    "name:ja": "江南大路",
    "name:ko": "강남대로",
    "name:ko-Latn": "Gangnam-daero",
    "ncat": "광역시도로",
    "oneway": "yes",
    "ref": "41",
    "surface": "asphalt"
  }
},
{
  "type": "way",
  "id": 498559927,
  "bounds": {
    "minlat": 37.5047198,
    "minlon": 127.0103746,
    "maxlat": 37.5048429,
    "maxlon": 127.0115607
  },
  "nodes": [
    4899542151,
    846808242,
    11245135926,
    11245135931,
    436864998
  ],
  "geometry": [
    { "lat": 37.5048429, "lon": 127.0115607 },
    { "lat": 37.5048057, "lon": 127.0112432 },
    { "lat": 37.5047456, "lon": 127.0106324 },
    { "lat": 37.5047396, "lon": 127.0105752 },
    { "lat": 37.5047198, "lon": 127.0103746 }
  ],
  "tags": {
    "destination:backward": "사평대로;신논현역;반포IC",
    "destination:forward": "현충원;이수교차로;서울성모병원",
    "destination:lang:en:backward": "Sapyeong-daero;Sinnonhyeon Station;Banpo IC",
    "destination:lang:en:forward": "Nat'l Cemetery;Isu Jct;Seoul St. Mary's Hospital",
    "highway": "primary",
    "name": "사평대로",
    "name:en": "Sapyeong-daero",
    "name:ja": "砂坪大路",
    "name:ko": "사평대로",
    "oneway": "no"
  }
},
{
  "type": "way",
  "id": 498559932,
  "bounds": {
    "minlat": 37.5030062,
    "minlon": 127.0057428,
    "maxlat": 37.5042894,
    "maxlon": 127.0089208
  },
  "nodes": [
    846808334,
    846808420,
    3132859829,
    3060556033,
    1132502938
  ],
  "geometry": [
    { "lat": 37.5042894, "lon": 127.0089208 },
    { "lat": 37.5033614, "lon": 127.0066069 },
    { "lat": 37.5031692, "lon": 127.0061394 },
    { "lat": 37.5030625, "lon": 127.0058799 },
    { "lat": 37.5030062, "lon": 127.0057428 }
  ],
  "tags": {
    "highway": "primary",
    "name": "사평대로",
    "name:en": "Sapyeong-daero",
    "name:ja": "沙平大路",
    "name:ko": "사평대로"
  }
},
{
  "type": "way",
  "id": 509191796,
  "bounds": {
    "minlat": 37.5003167,
    "minlon": 126.9817233,
    "maxlat": 37.5015616,
    "maxlon": 126.9840723
  },
  "nodes": [
    9481744111,
    11229661051,
    11229661042,
    2551950319,
    2551950314,
    2551950310
  ],
  "geometry": [
    { "lat": 37.5015616, "lon": 126.9817233 },
    { "lat": 37.5014391, "lon": 126.9820866 },
    { "lat": 37.5012855, "lon": 126.9824430 },
    { "lat": 37.5010772, "lon": 126.9827846 },
    { "lat": 37.5005598, "lon": 126.9836272 },
    { "lat": 37.5003167, "lon": 126.9840723 }
  ],
  "tags": {
    "highway": "primary",
    "name": "동작대로",
    "name:en": "Dongjak-daero",
    "name:ko": "동작대로",
    "oneway": "yes"
  }
},
{
  "type": "way",
  "id": 521182519,
  "bounds": {
    "minlat": 37.5068846,
    "minlon": 126.9638707,
    "maxlat": 37.5086751,
    "maxlon": 126.9670279
  },
  "nodes": [
    4611246528,
    8482522490,
    7775281607,
    4611290233,
    4611290226,
    10239817426,
    3888649162,
    436881331,
    4611290224,
    1994676491,
    436881332,
    436881333,
    7775281599,
    4611246540,
    1994676552,
    436881334
  ],
  "geometry": [
    { "lat": 37.5068846, "lon": 126.9670279 },
    { "lat": 37.5069690, "lon": 126.9668173 },
    { "lat": 37.5070983, "lon": 126.9664945 },
    { "lat": 37.5071085, "lon": 126.9664692 },
    { "lat": 37.5071865, "lon": 126.9662712 },
    { "lat": 37.5072507, "lon": 126.9661082 },
    { "lat": 37.5072914, "lon": 126.9660111 },
    { "lat": 37.5075600, "lon": 126.9653700 },
    { "lat": 37.5075668, "lon": 126.9653568 },
    { "lat": 37.5077082, "lon": 126.9650836 },
    { "lat": 37.5078179, "lon": 126.9649095 },
    { "lat": 37.5079552, "lon": 126.9647119 },
    { "lat": 37.5082567, "lon": 126.9642923 },
    { "lat": 37.5082879, "lon": 126.9642489 },
    { "lat": 37.5083137, "lon": 126.9642130 },
    { "lat": 37.5086751, "lon": 126.9638707 }
  ],
  "tags": {
    "highway": "primary",
    "lanes": "8",
    "name": "현충로",
    "name:en": "Hyeonchung-ro",
    "name:ja": "顕忠路",
    "name:ko": "현충로",
    "name:ko-Latn": "Hyeonchungno",
    "oneway": "no",
    "review": "no",
    "source": "NTIC",
    "surface": "paved"
  }
},
{
  "type": "way",
  "id": 521766178,
  "bounds": {
    "minlat": 37.5111077,
    "minlon": 127.0202796,
    "maxlat": 37.5130541,
    "maxlon": 127.0211737
  },
  "nodes": [
    2280678864,
    2861578308,
    2429722067,
    2280678862
  ],
  "geometry": [
    { "lat": 37.5130541, "lon": 127.0202796 },
    { "lat": 37.5126588, "lon": 127.0204337 },
    { "lat": 37.5121600, "lon": 127.0206655 },
    { "lat": 37.5111077, "lon": 127.0211737 }
  ],
  "tags": {
    "access": "yes",
    "highway": "primary",
    "lanes": "8",
    "name": "강남대로",
    "name:en": "Gangnam-daero",
    "name:ja": "江南大路",
    "name:ko": "강남대로",
    "name:ko-Latn": "Gangnam-daero",
    "ncat": "광역시도로",
    "oneway": "yes",
    "ref": "41",
    "surface": "asphalt"
  }
},
{
  "type": "way",
  "id": 521766179,
  "bounds": {
    "minlat": 37.5151105,
    "minlon": 127.0193796,
    "maxlat": 37.5160595,
    "maxlon": 127.0197037
  },
  "nodes": [
    4867335000,
    7168332244,
    4867334997,
    11212130976,
    4867334999
  ],
  "geometry": [
    { "lat": 37.5160595, "lon": 127.0193796 },
    { "lat": 37.5158814, "lon": 127.0194431 },
    { "lat": 37.5154799, "lon": 127.0195745 },
    { "lat": 37.5152625, "lon": 127.0196506 },
    { "lat": 37.5151105, "lon": 127.0197037 }
  ],
  "tags": {
    "access": "yes",
    "highway": "primary",
    "lanes": "8",
    "name": "강남대로",
    "name:en": "Gangnam-daero",
    "name:ja": "江南大路",
    "name:ko": "강남대로",
    "name:ko-Latn": "Gangnam-daero",
    "ncat": "광역시도로",
    "oneway": "yes",
    "ref": "41",
    "surface": "asphalt"
  }
},
{
  "type": "way",
  "id": 521766184,
  "bounds": {
    "minlat": 37.5138046,
    "minlon": 127.0197569,
    "maxlat": 37.5156441,
    "maxlon": 127.0203261
  },
  "nodes": [
    4867334990,
    9892111591,
    4867334987,
    5411457473,
    8489372377
  ],
  "geometry": [
    { "lat": 37.5138046, "lon": 127.0203261 },
    { "lat": 37.5143243, "lon": 127.0201811 },
    { "lat": 37.5146065, "lon": 127.0201024 },
    { "lat": 37.5155463, "lon": 127.0197902 },
    { "lat": 37.5156441, "lon": 127.0197569 }
  ],
  "tags": {
    "access": "yes",
    "cycleway:right": "no",
    "highway": "primary",
    "lanes": "8",
    "name": "강남대로",
    "name:en": "Gangnam-daero",
    "name:ja": "江南大路",
    "name:ko": "강남대로",
    "name:ko-Latn": "Gangnam-daero",
    "ncat": "광역시도로",
    "oneway": "yes",
    "ref": "41",
    "surface": "asphalt"
  }
},
{
  "type": "way",
  "id": 521766185,
  "bounds": {
    "minlat": 37.5111721,
    "minlon": 127.0210057,
    "maxlat": 37.5119737,
    "maxlon": 127.0213861
  },
  "nodes": [
    2280678863,
    3785287020
  ],
  "geometry": [
    { "lat": 37.5111721, "lon": 127.0213861 },
    { "lat": 37.5119737, "lon": 127.0210057 }
  ],
  "tags": {
    "access": "yes",
    "highway": "primary",
    "lanes": "8",
    "name": "강남대로",
    "name:en": "Gangnam-daero",
    "name:ja": "江南大路",
    "name:ko": "강남대로",
    "name:ko-Latn": "Gangnam-daero",
    "ncat": "광역시도로",
    "oneway": "yes",
    "ref": "41",
    "surface": "asphalt"
  }
},
{
  "type": "way",
  "id": 522946364,
  "bounds": {
    "minlat": 37.5030067,
    "minlon": 127.0024906,
    "maxlat": 37.5032560,
    "maxlon": 127.0027094
  },
  "nodes": [
    4738140914,
    4738140908
  ],
  "geometry": [
    { "lat": 37.5030067, "lon": 127.0027094 },
    { "lat": 37.5032560, "lon": 127.0024906 }
  ],
  "tags": {
    "highway": "primary",
    "name": "반포대로",
    "name:en": "Banpo-daero",
    "name:ko": "반포대로",
    "ncat": "광역시도로",
    "ref": "31",
    "surface": "asphalt"
  }
},
{
  "type": "way",
  "id": 522946368,
  "bounds": {
    "minlat": 37.5027361,
    "minlon": 127.0027094,
    "maxlat": 37.5030067,
    "maxlon": 127.0029321
  },
  "nodes": [
    1132502918,
    4738140914
  ],
  "geometry": [
    { "lat": 37.5027361, "lon": 127.0029321 },
    { "lat": 37.5030067, "lon": 127.0027094 }
  ],
  "tags": {
    "highway": "primary",
    "name": "반포대로",
    "name:en": "Banpo-daero",
    "name:ko": "반포대로",
    "ref": "31",
    "surface": "asphalt"
  }
},
{
  "type": "way",
  "id": 523257329,
  "bounds": {
    "minlat": 37.5030914,
    "minlon": 127.0189684,
    "maxlat": 37.5031026,
    "maxlon": 127.0194471
  },
  "nodes": [
    3827608184,
    2244637648
  ],
  "geometry": [
    { "lat": 37.5031026, "lon": 127.0194471 },
    { "lat": 37.5030914, "lon": 127.0189684 }
  ],
  "tags": {
    "highway": "primary",
    "name": "사평대로",
    "name:en": "Sapyeong-daero",
    "name:ja": "砂坪大路",
    "name:ko": "사평대로",
    "oneway": "yes"
  }
},
{
  "type": "way",
  "id": 523344135,
  "bounds": {
    "minlat": 37.4997725,
    "minlon": 127.0034656,
    "maxlat": 37.5019983,
    "maxlon": 127.0040235
  },
  "nodes": [
    1950794518,
    7888195521,
    3071506233,
    7888119744,
    7888119745,
    8487578006,
    7888119756,
    1132502920
  ],
  "geometry": [
    { "lat": 37.4997725, "lon": 127.0040235 },
    { "lat": 37.4999552, "lon": 127.0039901 },
    { "lat": 37.5000009, "lon": 127.0039818 },
    { "lat": 37.5010181, "lon": 127.0037704 },
    { "lat": 37.5015267, "lon": 127.0036367 },
    { "lat": 37.5016766, "lon": 127.0035823 },
    { "lat": 37.5018528, "lon": 127.0035184 },
    { "lat": 37.5019983, "lon": 127.0034656 }
  ],
  "tags": {
    "highway": "primary",
    "name": "반포대로",
    "name:en": "Banpo-daero",
    "name:ko": "반포대로",
    "ncat": "광역시도로",
    "ref": "31",
    "surface": "asphalt"
  }
},
{
  "type": "way",
  "id": 524280032,
  "bounds": {
    "minlat": 37.5231105,
    "minlon": 127.0116318,
    "maxlat": 37.5284128,
    "maxlon": 127.0165710
  },
  "nodes": [
    1936511269,
    7816990855,
    5987947843,
    732031876,
    595776267
  ],
  "geometry": [
    { "lat": 37.5284128, "lon": 127.0116318 },
    { "lat": 37.5268511, "lon": 127.0130833 },
    { "lat": 37.5263728, "lon": 127.0135279 },
    { "lat": 37.5246491, "lon": 127.0151551 },
    { "lat": 37.5231105, "lon": 127.0165710 }
  ],
  "tags": {
    "bicycle": "no",
    "bridge": "yes",
    "highway": "primary",
    "layer": "2",
    "name": "한남대로",
    "name:en": "Hannam-daero",
    "name:ja": "漢南大路",
    "name:ko": "한남대로",
    "name:ko-Latn": "Hannamdaero",
    "ncat": "광역시도로",
    "not:name": "강남대로 (Gangnam-daero)",
    "oneway": "yes",
    "ref": "41;AH1",
    "source": "NTIC"
  }
},
{
  "type": "way",
  "id": 525738543,
  "bounds": {
    "minlat": 37.5093341,
    "minlon": 126.9988159,
    "maxlat": 37.5098820,
    "maxlon": 126.9992312
  },
  "nodes": [
    1132441052,
    9593189687,
    9593189686,
    6316109855
  ],
  "geometry": [
    { "lat": 37.5093341, "lon": 126.9992312 },
    { "lat": 37.5094279, "lon": 126.9991736 },
    { "lat": 37.5095073, "lon": 126.9991148 },
    { "lat": 37.5098820, "lon": 126.9988159 }
  ],
  "tags": {
    "highway": "primary",
    "name": "반포대로",
    "name:en": "Banpo-daero",
    "name:ko": "반포대로",
    "ncat": "광역시도로",
    "oneway": "yes",
    "ref": "31",
    "surface": "asphalt"
  }
},
{
  "type": "way",
  "id": 525738544,
  "bounds": {
    "minlat": 37.5081842,
    "minlon": 126.9995116,
    "maxlat": 37.5086973,
    "maxlon": 126.9997304
  },
  "nodes": [
    4738140909,
    7624785517
  ],
  "geometry": [
    { "lat": 37.5081842, "lon": 126.9997304 },
    { "lat": 37.5086973, "lon": 126.9995116 }
  ],
  "tags": {
    "highway": "primary",
    "lanes": "3",
    "name": "반포대로",
    "name:en": "Banpo-daero",
    "name:ko": "반포대로",
    "ncat": "광역시도로",
    "oneway": "yes",
    "ref": "31",
    "surface": "asphalt"
  }
},
{
  "type": "way",
  "id": 542367267,
  "bounds": {
    "minlat": 37.5036945,
    "minlon": 127.0219564,
    "maxlat": 37.5041537,
    "maxlon": 127.0234815
  },
  "nodes": [
    2281095533,
    2281095534,
    5237800470
  ],
  "geometry": [
    { "lat": 37.5036945, "lon": 127.0219564 },
    { "lat": 37.5039472, "lon": 127.0227946 },
    { "lat": 37.5041537, "lon": 127.0234815 }
  ],
  "tags": {
    "highway": "primary",
    "name": "사평대로",
    "name:en": "Sapyeong-daero",
    "name:ja": "砂坪大路",
    "name:ko": "사평대로",
    "surface": "asphalt"
  }
},
{
  "type": "way",
  "id": 547990895,
  "bounds": {
    "minlat": 37.5081509,
    "minlon": 126.9990496,
    "maxlat": 37.5090431,
    "maxlon": 126.9995041
  },
  "nodes": [
    5294397070,
    9593189675,
    5170500458
  ],
  "geometry": [
    { "lat": 37.5090431, "lon": 126.9990496 },
    { "lat": 37.5085160, "lon": 126.9993090 },
    { "lat": 37.5081509, "lon": 126.9995041 }
  ],
  "tags": {
    "highway": "primary",
    "name": "반포대로",
    "name:ko": "반포대로",
    "oneway": "yes",
    "ref": "31",
    "surface": "asphalt"
  }
},
{
  "type": "way",
  "id": 585352846,
  "bounds": {
    "minlat": 37.5017179,
    "minlon": 126.9798998,
    "maxlat": 37.5018625,
    "maxlon": 126.9812804
  },
  "nodes": [
    2244510783,
    436881308,
    11229639131,
    2551950326
  ],
  "geometry": [
    { "lat": 37.5018625, "lon": 126.9798998 },
    { "lat": 37.5018050, "lon": 126.9806206 },
    { "lat": 37.5017588, "lon": 126.9809728 },
    { "lat": 37.5017179, "lon": 126.9812804 }
  ],
  "tags": {
    "highway": "primary",
    "lanes": "8",
    "name": "현충로",
    "name:en": "Hyeonchung-ro",
    "name:ja": "顕忠路",
    "name:ko": "현충로",
    "name:ko-Latn": "Hyeonchungno",
    "oneway": "yes",
    "review": "no",
    "source": "NTIC",
    "surface": "paved"
  }
},
{
  "type": "way",
  "id": 619137635,
  "bounds": {
    "minlat": 37.5267866,
    "minlon": 126.9654236,
    "maxlat": 37.5289307,
    "maxlon": 126.9675154
  },
  "nodes": [
    5851158286,
    7816990840,
    1814298192,
    5161537011,
    436879485,
    5161537010,
    5851158290
  ],
  "geometry": [
    { "lat": 37.5289307, "lon": 126.9675154 },
    { "lat": 37.5284868, "lon": 126.9670545 },
    { "lat": 37.5281964, "lon": 126.9667530 },
    { "lat": 37.5279119, "lon": 126.9664835 },
    { "lat": 37.5274455, "lon": 126.9660418 },
    { "lat": 37.5273396, "lon": 126.9659425 },
    { "lat": 37.5267866, "lon": 126.9654236 }
  ],
  "tags": {
    "bicycle": "designated",
    "busway": "lane",
    "cycleway": "shared_lane",
    "cycleway:right": "shared_lane",
    "highway": "primary",
    "lanes": "5",
    "name": "한강대로",
    "name:en": "Hangang-daero",
    "name:ja": "漢江大路",
    "name:ko": "한강대로",
    "name:ko-Latn": "Hangang-daero",
    "ncat": "광역시도로",
    "oneway": "yes",
    "oneway:bus": "no",
    "review": "no",
    "source": "NTIC",
    "surface": "asphalt"
  }
},
{
  "type": "way",
  "id": 619137637,
  "bounds": {
    "minlat": 37.5262828,
    "minlon": 126.9652539,
    "maxlat": 37.5281158,
    "maxlon": 126.9669955
  },
  "nodes": [
    5851157780,
    5589589797,
    5589589796,
    5589589789,
    5851158285
  ],
  "geometry": [
    { "lat": 37.5262828, "lon": 126.9652539 },
    { "lat": 37.5272099, "lon": 126.9661448 },
    { "lat": 37.5277806, "lon": 126.9666931 },
    { "lat": 37.5278939, "lon": 126.9668021 },
    { "lat": 37.5281158, "lon": 126.9669955 }
  ],
  "tags": {
    "bicycle": "designated",
    "busway": "lane",
    "cycleway:right": "shared_lane",
    "highway": "primary",
    "lanes": "5",
    "name": "한강대로",
    "name:en": "Hangang-daero",
    "name:ja": "漢江大路",
    "name:ko": "한강대로",
    "name:ko-Latn": "Hangang-daero",
    "ncat": "광역시도로",
    "oneway": "yes",
    "oneway:bus": "no",
    "review": "no",
    "source": "NTIC",
    "surface": "asphalt"
  }
},
{
  "type": "way",
  "id": 619137638,
  "bounds": {
    "minlat": 37.5281158,
    "minlon": 126.9669955,
    "maxlat": 37.5294450,
    "maxlon": 126.9682546
  },
  "nodes": [
    5851158285,
    4595384290,
    10815767425,
    5851157765
  ],
  "geometry": [
    { "lat": 37.5281158, "lon": 126.9669955 },
    { "lat": 37.5287328, "lon": 126.9675757 },
    { "lat": 37.5293773, "lon": 126.9681901 },
    { "lat": 37.5294450, "lon": 126.9682546 }
  ],
  "tags": {
    "bicycle": "designated",
    "busway": "lane",
    "cycleway:right": "shared_lane",
    "highway": "primary",
    "lanes": "5",
    "name": "한강대로",
    "name:en": "Hangang-daero",
    "name:ja": "漢江大路",
    "name:ko": "한강대로",
    "name:ko-Latn": "Hangang-daero",
    "ncat": "광역시도로",
    "oneway": "yes",
    "oneway:bus": "no",
    "review": "no",
    "source": "NTIC",
    "surface": "asphalt"
  }
},
{
  "type": "way",
  "id": 619137643,
  "bounds": {
    "minlat": 37.5263841,
    "minlon": 126.9650940,
    "maxlat": 37.5267866,
    "maxlon": 126.9654236
  },
  "nodes": [
    5851158290,
    5589589799
  ],
  "geometry": [
    { "lat": 37.5267866, "lon": 126.9654236 },
    { "lat": 37.5263841, "lon": 126.9650940 }
  ],
  "tags": {
    "bicycle": "designated",
    "busway": "lane",
    "cycleway": "shared_lane",
    "cycleway:right": "shared_lane",
    "highway": "primary",
    "lanes": "6",
    "name": "한강대로",
    "name:en": "Hangang-daero",
    "name:ja": "漢江大路",
    "name:ko": "한강대로",
    "name:ko-Latn": "Hangang-daero",
    "ncat": "광역시도로",
    "oneway": "yes",
    "oneway:bus": "no",
    "review": "no",
    "source": "NTIC",
    "surface": "asphalt"
  }
},
{
  "type": "way",
  "id": 619137645,
  "bounds": {
    "minlat": 37.5223838,
    "minlon": 126.9619104,
    "maxlat": 37.5262828,
    "maxlon": 126.9652539
  },
  "nodes": [
    5851158315,
    8757692593,
    5851158322,
    8482511644,
    5851158314,
    5851158313,
    5851158312,
    5851158311,
    5851158310,
    5851158327,
    5851158321,
    5851158309,
    5851157781,
    8482370409,
    5851157780
  ],
  "geometry": [
    { "lat": 37.5223838, "lon": 126.9619104 },
    { "lat": 37.5225219, "lon": 126.9620040 },
    { "lat": 37.5225440, "lon": 126.9620190 },
    { "lat": 37.5229530, "lon": 126.9622704 },
    { "lat": 37.5230825, "lon": 126.9623838 },
    { "lat": 37.5232633, "lon": 126.9625072 },
    { "lat": 37.5234782, "lon": 126.9626574 },
    { "lat": 37.5236207, "lon": 126.9627539 },
    { "lat": 37.5237334, "lon": 126.9628398 },
    { "lat": 37.5242333, "lon": 126.9633088 },
    { "lat": 37.5243114, "lon": 126.9633880 },
    { "lat": 37.5253095, "lon": 126.9643363 },
    { "lat": 37.5257277, "lon": 126.9647575 },
    { "lat": 37.5259773, "lon": 126.9649807 },
    { "lat": 37.5262828, "lon": 126.9652539 }
  ],
  "tags": {
    "bicycle": "designated",
    "busway": "lane",
    "cycleway:right": "shared_lane",
    "highway": "primary",
    "lanes": "6",
    "name": "한강대로",
    "name:en": "Hangang-daero",
    "name:ja": "漢江大路",
    "name:ko": "한강대로",
    "name:ko-Latn": "Hangang-daero",
    "ncat": "광역시도로",
    "oneway": "yes",
    "oneway:bus": "no",
    "review": "no",
    "source": "NTIC",
    "surface": "asphalt"
  }
},
{
  "type": "way",
  "id": 669002341,
  "bounds": {
    "minlat": 37.5036996,
    "minlon": 126.9756962,
    "maxlat": 37.5037966,
    "maxlon": 126.9758888
  },
  "nodes": [
    6264720427,
    4908230136,
    4908230135,
    1668695129
  ],
  "geometry": [
    { "lat": 37.5036996, "lon": 126.9758888 },
    { "lat": 37.5037320, "lon": 126.9758539 },
    { "lat": 37.5037724, "lon": 126.9757761 },
    { "lat": 37.5037966, "lon": 126.9756962 }
  ],
  "tags": {
    "highway": "primary",
    "name": "현충로",
    "name:en": "Hyeonchung-ro",
    "name:ko": "현충로",
    "oneway": "yes"
  }
},
{
  "type": "way",
  "id": 674432572,
  "bounds": {
    "minlat": 37.5100337,
    "minlon": 126.9960470,
    "maxlat": 37.5153343,
    "maxlon": 126.9985899
  },
  "nodes": [
    9997179733,
    8951264342,
    9990748058,
    6316109843,
    9593189692,
    6316109841,
    6316109854
  ],
  "geometry": [
    { "lat": 37.5153343, "lon": 126.9960470 },
    { "lat": 37.5148746, "lon": 126.9962668 },
    { "lat": 37.5136130, "lon": 126.9968864 },
    { "lat": 37.5122247, "lon": 126.9975664 },
    { "lat": 37.5107157, "lon": 126.9982760 },
    { "lat": 37.5101626, "lon": 126.9985295 },
    { "lat": 37.5100337, "lon": 126.9985899 }
  ],
  "tags": {
    "access": "yes",
    "bicycle": "no",
    "bridge": "yes",
    "foot": "yes",
    "highway": "primary",
    "lanes": "4",
    "layer": "2",
    "maxspeed": "60",
    "name": "반포대로",
    "name:en": "Banpodaero",
    "name:es": "Puente Banpo",
    "name:ja": "盤浦大橋",
    "name:ko": "반포대로",
    "name:ko-Latn": "Banpodae-ro",
    "name:pl": "Banpodae-ro",
    "ncat": "광역시도로",
    "oneway": "yes",
    "ref": "31",
    "surface": "asphalt",
    "wikidata": "Q255506"
  }
},
{
  "type": "way",
  "id": 674432577,
  "bounds": {
    "minlat": 37.5090431,
    "minlon": 126.9985899,
    "maxlat": 37.5100337,
    "maxlon": 126.9990496
  },
  "nodes": [
    6316109854,
    9593189672,
    5294397069,
    5294397070
  ],
  "geometry": [
    { "lat": 37.5100337, "lon": 126.9985899 },
    { "lat": 37.5099272, "lon": 126.9986232 },
    { "lat": 37.5091478, "lon": 126.9990221 },
    { "lat": 37.5090431, "lon": 126.9990496 }
  ],
  "tags": {
    "highway": "primary",
    "name": "반포대로",
    "name:en": "Banpodaero",
    "name:es": "Puente Banpo",
    "name:ja": "盤浦大橋",
    "name:ko": "반포대로",
    "name:ko-Latn": "Banpodae-ro",
    "name:pl": "Banpodae-ro",
    "oneway": "yes",
    "ref": "31",
    "surface": "asphalt"
  }
},
{
  "type": "way",
  "id": 674432580,
  "bounds": {
    "minlat": 37.5098820,
    "minlon": 126.9987210,
    "maxlat": 37.5100889,
    "maxlon": 126.9988159
  },
  "nodes": [
    6316109855,
    1132440987
  ],
  "geometry": [
    { "lat": 37.5098820, "lon": 126.9988159 },
    { "lat": 37.5100889, "lon": 126.9987210 }
  ],
  "tags": {
    "highway": "primary",
    "name": "반포대로",
    "name:en": "Banpo-daero",
    "name:ko": "반포대로",
    "ncat": "광역시도로",
    "oneway": "yes",
    "ref": "31",
    "surface": "asphalt"
  }
},
{
  "type": "way",
  "id": 691602197,
  "bounds": {
    "minlat": 37.5042894,
    "minlon": 127.0089208,
    "maxlat": 37.5045730,
    "maxlon": 127.0097594
  },
  "nodes": [
    1132502927,
    7839157350,
    9519030310,
    846808334
  ],
  "geometry": [
    { "lat": 37.5045730, "lon": 127.0097594 },
    { "lat": 37.5045013, "lon": 127.0095472 },
    { "lat": 37.5044594, "lon": 127.0094234 },
    { "lat": 37.5042894, "lon": 127.0089208 }
  ],
  "tags": {
    "destination:backward": "사평대로;신논현역;반포IC",
    "destination:forward": "현충원;이수교차로;서울성모병원",
    "destination:lang:en:backward": "Sapyeong-daero;Sinnonhyeon Station;Banpo IC",
    "destination:lang:en:forward": "Nat'l Cemetery;Isu Jct;Seoul St. Mary's Hospital",
    "highway": "primary",
    "name": "사평대로",
    "name:en": "Sapyeong-daero",
    "name:ja": "砂坪大路",
    "name:ko": "사평대로"
  }
},
{
  "type": "way",
  "id": 694764608,
  "bounds": {
    "minlat": 37.5216021,
    "minlon": 127.0172762,
    "maxlat": 37.5223684,
    "maxlon": 127.0178557
  },
  "nodes": [
    5987954176,
    9481728419,
    595776271
  ],
  "geometry": [
    { "lat": 37.5223684, "lon": 127.0172762 },
    { "lat": 37.5220889, "lon": 127.0174986 },
    { "lat": 37.5216021, "lon": 127.0178557 }
  ],
  "tags": {
    "access": "yes",
    "bicycle": "no",
    "bridge": "yes",
    "foot": "no",
    "highway": "primary",
    "lanes": "8",
    "layer": "1",
    "name": "강남대로",
    "name:en": "Gangnam-daero",
    "name:ja": "江南大路",
    "name:ko": "강남대로",
    "name:ko-Latn": "Gangnam-daero",
    "ncat": "광역시도로",
    "oneway": "yes",
    "ref": "41",
    "source": "NTIC"
  }
},
{
  "type": "way",
  "id": 694764610,
  "bounds": {
    "minlat": 37.5223684,
    "minlon": 127.0165710,
    "maxlat": 37.5231105,
    "maxlon": 127.0172762
  },
  "nodes": [
    595776267,
    595780360,
    5987954176
  ],
  "geometry": [
    { "lat": 37.5231105, "lon": 127.0165710 },
    { "lat": 37.5225608, "lon": 127.0170959 },
    { "lat": 37.5223684, "lon": 127.0172762 }
  ],
  "tags": {
    "access": "yes",
    "bicycle": "no",
    "foot": "no",
    "highway": "primary",
    "lanes": "8",
    "name": "강남대로",
    "name:en": "Gangnam-daero",
    "name:ja": "江南大路",
    "name:ko": "강남대로",
    "name:ko-Latn": "Gangnam-daero",
    "ncat": "광역시도로",
    "oneway": "yes",
    "ref": "41;AH1",
    "source": "NTIC"
  }
},
{
  "type": "way",
  "id": 801468099,
  "bounds": {
    "minlat": 37.4999675,
    "minlon": 126.9818869,
    "maxlat": 37.5016768,
    "maxlon": 126.9848348
  },
  "nodes": [
    2551950301,
    11229661045,
    7496126906,
    7496126907,
    7496126908,
    9481744110,
    2551950328
  ],
  "geometry": [
    { "lat": 37.4999675, "lon": 126.9848348 },
    { "lat": 37.5003886, "lon": 126.9842670 },
    { "lat": 37.5010631, "lon": 126.9831121 },
    { "lat": 37.5012869, "lon": 126.9827429 },
    { "lat": 37.5014098, "lon": 126.9825227 },
    { "lat": 37.5015516, "lon": 126.9822248 },
    { "lat": 37.5016768, "lon": 126.9818869 }
  ],
  "tags": {
    "highway": "primary",
    "lanes": "1",
    "oneway": "yes"
  }
},
{
  "type": "way",
  "id": 816395059,
  "bounds": {
    "minlat": 37.5086973,
    "minlon": 126.9992312,
    "maxlat": 37.5093341,
    "maxlon": 126.9995116
  },
  "nodes": [
    7624785517,
    3103437729,
    1132441052
  ],
  "geometry": [
    { "lat": 37.5086973, "lon": 126.9995116 },
    { "lat": 37.5088810, "lon": 126.9994333 },
    { "lat": 37.5093341, "lon": 126.9992312 }
  ],
  "tags": {
    "highway": "primary",
    "name": "반포대로",
    "name:en": "Banpo-daero",
    "name:ko": "반포대로",
    "ncat": "광역시도로",
    "oneway": "yes",
    "ref": "31",
    "surface": "asphalt"
  }
},
{
  "type": "way",
  "id": 845497255,
  "bounds": {
    "minlat": 37.5019983,
    "minlon": 127.0029321,
    "maxlat": 37.5027361,
    "maxlon": 127.0034656
  },
  "nodes": [
    1132502918,
    7888119741,
    1132502920
  ],
  "geometry": [
    { "lat": 37.5027361, "lon": 127.0029321 },
    { "lat": 37.5023222, "lon": 127.0032680 },
    { "lat": 37.5019983, "lon": 127.0034656 }
  ],
  "tags": {
    "highway": "primary",
    "name": "반포대로",
    "name:en": "Banpo-daero",
    "name:ko": "반포대로",
    "ref": "31",
    "surface": "asphalt"
  }
},
{
  "type": "way",
  "id": 845497258,
  "bounds": {
    "minlat": 37.5015267,
    "minlon": 127.0036367,
    "maxlat": 37.5021847,
    "maxlon": 127.0039903
  },
  "nodes": [
    7888119745,
    7888119758,
    7888119755,
    7888119754
  ],
  "geometry": [
    { "lat": 37.5015267, "lon": 127.0036367 },
    { "lat": 37.5019683, "lon": 127.0038037 },
    { "lat": 37.5020836, "lon": 127.0038473 },
    { "lat": 37.5021847, "lon": 127.0039903 }
  ],
  "tags": {
    "highway": "primary",
    "oneway": "yes"
  }
},
{
  "type": "way",
  "id": 913895962,
  "bounds": {
    "minlat": 37.5156441,
    "minlon": 127.0196211,
    "maxlat": 37.5160701,
    "maxlon": 127.0197569
  },
  "nodes": [
    8489372377,
    7168332250,
    8489501829
  ],
  "geometry": [
    { "lat": 37.5156441, "lon": 127.0197569 },
    { "lat": 37.5159621, "lon": 127.0196488 },
    { "lat": 37.5160701, "lon": 127.0196211 }
  ],
  "tags": {
    "access": "yes",
    "highway": "primary",
    "lanes": "8",
    "name": "강남대로",
    "name:en": "Gangnam-daero",
    "name:ja": "江南大路",
    "name:ko": "강남대로",
    "name:ko-Latn": "Gangnam-daero",
    "ncat": "광역시도로",
    "oneway": "yes",
    "ref": "41"
  }
},
{
  "type": "way",
  "id": 919132017,
  "bounds": {
    "minlat": 37.5160701,
    "minlon": 127.0196211,
    "maxlat": 37.5162367,
    "maxlon": 127.0196370
  },
  "nodes": [
    8489501829,
    10968044689,
    4867335001
  ],
  "geometry": [
    { "lat": 37.5160701, "lon": 127.0196211 },
    { "lat": 37.5161540, "lon": 127.0196291 },
    { "lat": 37.5162367, "lon": 127.0196370 }
  ],
  "tags": {
    "access": "yes",
    "highway": "primary",
    "lanes": "8",
    "name": "강남대로",
    "name:en": "Gangnam-daero",
    "name:ja": "江南大路",
    "name:ko": "강남대로",
    "name:ko-Latn": "Gangnam-daero",
    "ncat": "광역시도로",
    "oneway": "yes",
    "ref": "41"
  }
},
{
  "type": "way",
  "id": 921681811,
  "bounds": {
    "minlat": 37.5033134,
    "minlon": 127.0150808,
    "maxlat": 37.5043500,
    "maxlon": 127.0169792
  },
  "nodes": [
    4899542143,
    8556909673,
    8556909672,
    8556909671,
    8556909670,
    8556909669,
    8556909668,
    8556909667,
    8556909666,
    8556909665,
    8556909664,
    8556909663,
    10212207846,
    8556909677
  ],
  "geometry": [
    { "lat": 37.5043500, "lon": 127.0150808 },
    { "lat": 37.5042448, "lon": 127.0151456 },
    { "lat": 37.5042049, "lon": 127.0152307 },
    { "lat": 37.5041714, "lon": 127.0153072 },
    { "lat": 37.5041341, "lon": 127.0153823 },
    { "lat": 37.5041033, "lon": 127.0154460 },
    { "lat": 37.5040756, "lon": 127.0155043 },
    { "lat": 37.5040506, "lon": 127.0155566 },
    { "lat": 37.5040150, "lon": 127.0156297 },
    { "lat": 37.5039815, "lon": 127.0156961 },
    { "lat": 37.5038011, "lon": 127.0160317 },
    { "lat": 37.5036676, "lon": 127.0162748 },
    { "lat": 37.5034303, "lon": 127.0167509 },
    { "lat": 37.5033134, "lon": 127.0169792 }
  ],
  "tags": {
    "highway": "primary",
    "lanes": "4",
    "name": "사평대로",
    "name:en": "Sapyeong-daero",
    "name:ja": "砂坪大路",
    "name:ko": "사평대로",
    "oneway": "yes"
  }
},
{
  "type": "way",
  "id": 921681812,
  "bounds": {
    "minlat": 37.5030914,
    "minlon": 127.0150808,
    "maxlat": 37.5043681,
    "maxlon": 127.0189684
  },
  "nodes": [
    2244637648,
    11212370134,
    732033559,
    10269514061,
    10269514060,
    10269514059,
    10269514058,
    732033498,
    10269514057,
    10269514056,
    2244637672,
    8556909676,
    8556909675,
    8556909674,
    1996442203,
    4899542142,
    4899542143
  ],
  "geometry": [
    { "lat": 37.5030914, "lon": 127.0189684 },
    { "lat": 37.5030945, "lon": 127.0185665 },
    { "lat": 37.5030975, "lon": 127.0181789 },
    { "lat": 37.5031056, "lon": 127.0180514 },
    { "lat": 37.5031260, "lon": 127.0179102 },
    { "lat": 37.5031640, "lon": 127.0177199 },
    { "lat": 37.5032140, "lon": 127.0175459 },
    { "lat": 37.5032307, "lon": 127.0175033 },
    { "lat": 37.5032853, "lon": 127.0173638 },
    { "lat": 37.5033612, "lon": 127.0172038 },
    { "lat": 37.5035028, "lon": 127.0169389 },
    { "lat": 37.5039086, "lon": 127.0162131 },
    { "lat": 37.5040990, "lon": 127.0158631 },
    { "lat": 37.5041671, "lon": 127.0157222 },
    { "lat": 37.5042432, "lon": 127.0155590 },
    { "lat": 37.5043681, "lon": 127.0152456 },
    { "lat": 37.5043500, "lon": 127.0150808 }
  ],
  "tags": {
    "highway": "primary",
    "lanes": "4",
    "name": "사평대로",
    "name:en": "Sapyeong-daero",
    "name:ja": "砂坪大路",
    "name:ko": "사평대로",
    "oneway": "yes"
  }
},
{
  "type": "way",
  "id": 1028460287,
  "bounds": {
    "minlat": 37.5015975,
    "minlon": 126.9818869,
    "maxlat": 37.5016768,
    "maxlon": 126.9822376
  },
  "nodes": [
    436805206,
    2551950328
  ],
  "geometry": [
    { "lat": 37.5015975, "lon": 126.9822376 },
    { "lat": 37.5016768, "lon": 126.9818869 }
  ],
  "tags": {
    "highway": "primary",
    "lanes": "1",
    "oneway": "yes"
  }
},
{
  "type": "way",
  "id": 1028460289,
  "bounds": {
    "minlat": 37.5015616,
    "minlon": 126.9812804,
    "maxlat": 37.5017179,
    "maxlon": 126.9817233
  },
  "nodes": [
    2551950326,
    9481744111
  ],
  "geometry": [
    { "lat": 37.5017179, "lon": 126.9812804 },
    { "lat": 37.5015616, "lon": 126.9817233 }
  ],
  "tags": {
    "bridge": "yes",
    "highway": "primary",
    "layer": "3",
    "name": "동작대로",
    "name:en": "Dongjak-daero",
    "name:ko": "동작대로",
    "oneway": "yes"
  }
},
{
  "type": "way",
  "id": 1091571409,
  "bounds": {
    "minlat": 37.5153343,
    "minlon": 126.9939407,
    "maxlat": 37.5203451,
    "maxlon": 126.9960470
  },
  "nodes": [
    436843897,
    6316109850,
    6316109849,
    6316109848,
    6316109847,
    8951264341,
    9997179733
  ],
  "geometry": [
    { "lat": 37.5203451, "lon": 126.9939702 },
    { "lat": 37.5202520, "lon": 126.9939407 },
    { "lat": 37.5194401, "lon": 126.9941171 },
    { "lat": 37.5188487, "lon": 126.9943719 },
    { "lat": 37.5184849, "lon": 126.9945382 },
    { "lat": 37.5165266, "lon": 126.9954769 },
    { "lat": 37.5153343, "lon": 126.9960470 }
  ],
  "tags": {
    "access": "yes",
    "bicycle": "no",
    "bridge": "yes",
    "foot": "yes",
    "highway": "primary",
    "lanes": "4",
    "layer": "2",
    "maxspeed": "60",
    "name": "녹사평대로",
    "name:en": "Noksapyeong-daero",
    "name:es": "Puente Banpo",
    "name:ja": "緑莎坪大路",
    "name:ko": "녹사평대로",
    "name:ko-Latn": "Noksapyeong-daero",
    "name:pl": "Banpodaegyo (Most Banpo)",
    "ncat": "광역시도로",
    "oneway": "yes",
    "ref": "31",
    "surface": "asphalt",
    "wikidata": "Q255506"
  }
},
{
  "type": "way",
  "id": 1091571410,
  "bounds": {
    "minlat": 37.5153761,
    "minlon": 126.9939702,
    "maxlat": 37.5203451,
    "maxlon": 126.9961536
  },
  "nodes": [
    9997179734,
    9593189694,
    9593189703,
    9593189702,
    9593189701,
    8951264336,
    1132440998,
    6316109853,
    436843897
  ],
  "geometry": [
    { "lat": 37.5153761, "lon": 126.9961536 },
    { "lat": 37.5184644, "lon": 126.9946455 },
    { "lat": 37.5189078, "lon": 126.9944233 },
    { "lat": 37.5191755, "lon": 126.9943037 },
    { "lat": 37.5192981, "lon": 126.9942475 },
    { "lat": 37.5194140, "lon": 126.9942082 },
    { "lat": 37.5198571, "lon": 126.9940939 },
    { "lat": 37.5202721, "lon": 126.9940259 },
    { "lat": 37.5203451, "lon": 126.9939702 }
  ],
  "tags": {
    "access": "yes",
    "bicycle": "no",
    "bridge": "yes",
    "foot": "yes",
    "highway": "primary",
    "lanes": "4",
    "layer": "2",
    "maxspeed": "60",
    "name": "녹사평대로",
    "name:en": "Noksapyeong-daero",
    "name:es": "Puente Banpo",
    "name:ja": "緑莎坪大路",
    "name:ko": "녹사평대로",
    "name:ko-Latn": "Noksapyeong-daero",
    "name:pl": "Banpodaegyo (Most Banpo)",
    "ncat": "광역시도로",
    "oneway": "yes",
    "ref": "31",
    "surface": "asphalt",
    "wikidata": "Q255506"
  }
},
{
  "type": "way",
  "id": 1116550473,
  "bounds": {
    "minlat": 37.5044398,
    "minlon": 127.0115607,
    "maxlat": 37.5048466,
    "maxlon": 127.0148182
  },
  "nodes": [
    1996442184,
    4899542146,
    4899542144,
    4899542145,
    2244637702,
    4899542147,
    4899542148,
    2244637690,
    4899542149,
    2244637610,
    4899542150,
    846808298,
    4899542151
  ],
  "geometry": [
    { "lat": 37.5044398, "lon": 127.0148182 },
    { "lat": 37.5045310, "lon": 127.0145711 },
    { "lat": 37.5046157, "lon": 127.0143160 },
    { "lat": 37.5046772, "lon": 127.0140528 },
    { "lat": 37.5047237, "lon": 127.0137816 },
    { "lat": 37.5047639, "lon": 127.0135500 },
    { "lat": 37.5047871, "lon": 127.0133378 },
    { "lat": 37.5048189, "lon": 127.0131094 },
    { "lat": 37.5048279, "lon": 127.0128528 },
    { "lat": 37.5048393, "lon": 127.0125933 },
    { "lat": 37.5048466, "lon": 127.0122575 },
    { "lat": 37.5048453, "lon": 127.0119539 },
    { "lat": 37.5048429, "lon": 127.0115607 }
  ],
  "tags": {
    "highway": "primary",
    "name": "사평대로",
    "name:en": "Sapyeong-daero",
    "name:ja": "砂坪大路",
    "name:ko": "사평대로"
  }
},
{
  "type": "way",
  "id": 1212097843,
  "bounds": {
    "minlat": 37.5012317,
    "minlon": 126.9822376,
    "maxlat": 37.5015975,
    "maxlon": 126.9829917
  },
  "nodes": [
    11229661049,
    11229661047,
    436805206
  ],
  "geometry": [
    { "lat": 37.5012317, "lon": 126.9829917 },
    { "lat": 37.5014828, "lon": 126.9825040 },
    { "lat": 37.5015975, "lon": 126.9822376 }
  ],
  "tags": {
    "highway": "primary",
    "lanes": "3",
    "oneway": "yes"
  }
}

  ]
}
