<?xml version="1.0" encoding="UTF-8"?>
<osm version="0.6" generator="Overpass API 0.7.62.4 2390de5a">
<note>The data included in this document is from www.openstreetmap.org. The data is made available under ODbL.</note>
<meta osm_base=""/>

  <way id="178441451">
    <bounds minlat="37.4889850" minlon="126.9979099" maxlat="37.4902139" maxlon="127.0021677"/>
    <nd ref="2623456359" lat="37.4889850" lon="126.9979099"/>
    <nd ref="7513749191" lat="37.4902139" lon="127.0021677"/>
    <tag k="highway" v="primary"/>
    <tag k="lanes" v="2"/>
    <tag k="layer" v="-1"/>
    <tag k="name" v="서초대로"/>
    <tag k="name:en" v="Seocho-daero"/>
    <tag k="name:ja" v="瑞草大路"/>
    <tag k="name:ko" v="서초대로"/>
    <tag k="name:zh" v="瑞草大路"/>
    <tag k="ref" v="90"/>
    <tag k="surface" v="asphalt"/>
    <tag k="tunnel" v="yes"/>
    <tag k="tunnel:name" v="서리풀터널"/>
    <tag k="tunnel:name:en" v="Seoripul Tunnel"/>
    <tag k="tunnel:name:ja" v="ソリプルトンネル"/>
    <tag k="tunnel:name:ko" v="서리풀터널"/>
    <tag k="tunnel:name:zh" v="霜草隧道"/>
  </way>
  <way id="180126089">
    <bounds minlat="37.4838996" minlon="126.9776671" maxlat="37.4853495" maxlon="126.9820551"/>
    <nd ref="4984575380" lat="37.4853495" lon="126.9820551"/>
    <nd ref="6480188918" lat="37.4852299" lon="126.9815434"/>
    <nd ref="1685616423" lat="37.4852155" lon="126.9814987"/>
    <nd ref="8485205793" lat="37.4851809" lon="126.9813889"/>
    <nd ref="6710377059" lat="37.4851537" lon="126.9813028"/>
    <nd ref="436849893" lat="37.4850710" lon="126.9810692"/>
    <nd ref="8154128186" lat="37.4849812" lon="126.9808376"/>
    <nd ref="6480188912" lat="37.4848885" lon="126.9805960"/>
    <nd ref="10931045203" lat="37.4844823" lon="126.9795463"/>
    <nd ref="2110270473" lat="37.4844202" lon="126.9793859"/>
    <nd ref="10931045204" lat="37.4844158" lon="126.9793717"/>
    <nd ref="4195737191" lat="37.4843654" lon="126.9792205"/>
    <nd ref="1685616399" lat="37.4842646" lon="126.9788833"/>
    <nd ref="1685608069" lat="37.4840694" lon="126.9782525"/>
    <nd ref="4195737202" lat="37.4840048" lon="126.9780435"/>
    <nd ref="1828215897" lat="37.4838996" lon="126.9776671"/>
    <tag k="highway" v="primary"/>
    <tag k="name" v="사당로"/>
    <tag k="name:en" v="Sadang-ro"/>
    <tag k="name:ko" v="사당로"/>
    <tag k="ref" v="90"/>
    <tag k="surface" v="asphalt"/>
  </way>
  <way id="201067498">
    <bounds minlat="37.4750402" minlon="127.0017707" maxlat="37.4751703" maxlon="127.0018557"/>
    <nd ref="5406500145" lat="37.4750402" lon="127.0018557"/>
    <nd ref="5406500165" lat="37.4751703" lon="127.0017707"/>
    <tag k="highway" v="secondary"/>
    <tag k="name" v="방배로"/>
    <tag k="name:en" v="Bangbae-ro"/>
    <tag k="name:ko" v="방배로"/>
    <tag k="name:ko-Latn" v="Bangbaero"/>
  </way>
  <way id="201067500">
    <bounds minlat="37.4853952" minlon="126.9822344" maxlat="37.4855674" maxlon="126.9834963"/>
    <nd ref="4984575382" lat="37.4853952" lon="126.9822344"/>
    <nd ref="4186016189" lat="37.4854580" lon="126.9825777"/>
    <nd ref="8485173590" lat="37.4855148" lon="126.9830112"/>
    <nd ref="8485683011" lat="37.4855525" lon="126.9833062"/>
    <nd ref="2110270506" lat="37.4855674" lon="126.9834963"/>
    <tag k="highway" v="primary"/>
    <tag k="name" v="서초대로"/>
    <tag k="name:en" v="Seocho-daero"/>
    <tag k="name:ko" v="서초대로"/>
    <tag k="ref" v="90"/>
    <tag k="surface" v="asphalt"/>
  </way>
  <way id="201076954">
    <bounds minlat="37.4757487" minlon="126.9849174" maxlat="37.4760950" maxlon="126.9863202"/>
    <nd ref="5406417391" lat="37.4757487" lon="126.9863202"/>
    <nd ref="5406417417" lat="37.4757707" lon="126.9861602"/>
    <nd ref="436882855" lat="37.4759329" lon="126.9855635"/>
    <nd ref="436830508" lat="37.4760808" lon="126.9849818"/>
    <nd ref="5406417404" lat="37.4760950" lon="126.9849174"/>
    <tag k="bridge:name" v="사당고가도로"/>
    <tag k="highway" v="primary"/>
    <tag k="name" v="남부순환로"/>
    <tag k="name:en" v="Nambusunhwan-ro"/>
    <tag k="name:ja" v="南部循環路"/>
    <tag k="name:ko" v="남부순환로"/>
    <tag k="name:zh" v="南部循环路"/>
    <tag k="oneway" v="yes"/>
    <tag k="ref" v="92"/>
    <tag k="surface" v="asphalt"/>
  </way>
  <way id="215028506">
    <bounds minlat="37.4863686" minlon="126.9823242" maxlat="37.4874348" maxlon="126.9824148"/>
    <nd ref="3804191055" lat="37.4863686" lon="126.9823242"/>
    <nd ref="11710856345" lat="37.4874348" lon="126.9824148"/>
    <tag k="highway" v="secondary"/>
    <tag k="name" v="동작대로"/>
    <tag k="name:en" v="Dongjak-daero"/>
    <tag k="name:ko" v="동작대로"/>
    <tag k="name:zh" v="铜雀大路"/>
    <tag k="oneway" v="yes"/>
    <tag k="surface" v="asphalt"/>
  </way>
  <way id="218870937">
    <bounds minlat="37.4814575" minlon="126.9936264" maxlat="37.4876823" maxlon="126.9976500"/>
    <nd ref="5747375654" lat="37.4814575" lon="126.9976500"/>
    <nd ref="8471989455" lat="37.4815743" lon="126.9975620"/>
    <nd ref="5935888703" lat="37.4817329" lon="126.9974425"/>
    <nd ref="4185835030" lat="37.4819279" lon="126.9973292"/>
    <nd ref="436844219" lat="37.4832788" lon="126.9964804"/>
    <nd ref="1696934743" lat="37.4843821" lon="126.9957527"/>
    <nd ref="4185805689" lat="37.4849385" lon="126.9953861"/>
    <nd ref="436844221" lat="37.4855112" lon="126.9950087"/>
    <nd ref="4185805742" lat="37.4860009" lon="126.9946883"/>
    <nd ref="2545067226" lat="37.4866048" lon="126.9942932"/>
    <nd ref="2110270505" lat="37.4876823" lon="126.9936264"/>
    <tag k="highway" v="secondary"/>
    <tag k="name" v="방배로"/>
    <tag k="name:en" v="Bangbae-ro"/>
    <tag k="name:ko" v="방배로"/>
    <tag k="name:ko-Latn" v="Bangbaero"/>
    <tag k="surface" v="asphalt"/>
  </way>
  <way id="218870946">
    <bounds minlat="37.4927747" minlon="126.9897546" maxlat="37.4939073" maxlon="126.9904803"/>
    <nd ref="414684380" lat="37.4927747" lon="126.9904803"/>
    <nd ref="2622874627" lat="37.4934399" lon="126.9900541"/>
    <nd ref="2533109203" lat="37.4939073" lon="126.9897546"/>
    <tag k="highway" v="secondary"/>
    <tag k="name" v="방배로"/>
    <tag k="name:en" v="Bangbae-ro"/>
    <tag k="name:ko" v="방배로"/>
    <tag k="name:ko-Latn" v="Bangbaero"/>
  </way>
  <way id="218870947">
    <bounds minlat="37.4786110" minlon="126.9893190" maxlat="37.4801800" maxlon="126.9936400"/>
    <nd ref="436844243" lat="37.4801800" lon="126.9936400"/>
    <nd ref="8486344918" lat="37.4801477" lon="126.9935436"/>
    <nd ref="436882870" lat="37.4800098" lon="126.9931320"/>
    <nd ref="8486318227" lat="37.4797217" lon="126.9922533"/>
    <nd ref="4185930092" lat="37.4795619" lon="126.9917409"/>
    <nd ref="4107814207" lat="37.4793575" lon="126.9911101"/>
    <nd ref="436882869" lat="37.4793000" lon="126.9909300"/>
    <nd ref="1872514039" lat="37.4791053" lon="126.9904072"/>
    <nd ref="436882868" lat="37.4789500" lon="126.9899900"/>
    <nd ref="1872514033" lat="37.4787606" lon="126.9895988"/>
    <nd ref="1696934679" lat="37.4786110" lon="126.9893190"/>
    <tag k="highway" v="secondary"/>
    <tag k="name" v="효령로"/>
    <tag k="name:en" v="Hyoryeong-ro"/>
    <tag k="name:ko" v="효령로"/>
    <tag k="name:ko-Latn" v="Hyoryeongno"/>
    <tag k="name:zh" v="孝宁路"/>
  </way>
  <way id="218870948">
    <bounds minlat="37.4805775" minlon="126.9948776" maxlat="37.4814575" maxlon="126.9976500"/>
    <nd ref="5747375654" lat="37.4814575" lon="126.9976500"/>
    <nd ref="8471989458" lat="37.4813894" lon="126.9974407"/>
    <nd ref="5935888702" lat="37.4813334" lon="126.9972687"/>
    <nd ref="1696934704" lat="37.4812027" lon="126.9968673"/>
    <nd ref="4185991221" lat="37.4810287" lon="126.9962966"/>
    <nd ref="1696934696" lat="37.4808105" lon="126.9956284"/>
    <nd ref="4185991215" lat="37.4805775" lon="126.9948776"/>
    <tag k="highway" v="secondary"/>
    <tag k="lanes" v="6"/>
    <tag k="name" v="효령로"/>
    <tag k="name:en" v="Hyoryeong-ro"/>
    <tag k="name:ko" v="효령로"/>
    <tag k="name:ko-Latn" v="Hyoryeongno"/>
    <tag k="name:zh" v="孝宁路"/>
    <tag k="ncat" v="광역시도로"/>
    <tag k="review" v="no"/>
    <tag k="source" v="NTIC"/>
    <tag k="surface" v="asphalt"/>
  </way>
  <way id="218877839">
    <bounds minlat="37.4814575" minlon="126.9976500" maxlat="37.4815991" maxlon="126.9986348"/>
    <nd ref="5747375654" lat="37.4814575" lon="126.9976500"/>
    <nd ref="8471989456" lat="37.4814823" lon="126.9977466"/>
    <nd ref="10220955565" lat="37.4815155" lon="126.9978758"/>
    <nd ref="5935888704" lat="37.4815387" lon="126.9980348"/>
    <nd ref="3274307620" lat="37.4815991" lon="126.9986348"/>
    <tag k="highway" v="secondary"/>
    <tag k="name" v="효령로"/>
    <tag k="name:en" v="Hyoryeong-ro"/>
    <tag k="name:ko" v="효령로"/>
    <tag k="name:ko-Latn" v="Hyoryeongno"/>
    <tag k="name:zh" v="孝宁路"/>
    <tag k="ncat" v="광역시도로"/>
    <tag k="review" v="no"/>
    <tag k="source" v="NTIC"/>
  </way>
  <way id="218966986">
    <bounds minlat="37.4751703" minlon="127.0017707" maxlat="37.4776296" maxlon="127.0069913"/>
    <nd ref="436830490" lat="37.4776296" lon="127.0069913"/>
    <nd ref="3462555597" lat="37.4775446" lon="127.0068091"/>
    <nd ref="1696934648" lat="37.4764852" lon="127.0045710"/>
    <nd ref="11431820851" lat="37.4752608" lon="127.0019636"/>
    <nd ref="5406500165" lat="37.4751703" lon="127.0017707"/>
    <tag k="highway" v="primary"/>
    <tag k="name" v="남부순환로"/>
    <tag k="name:en" v="Nambusunhwan-ro"/>
    <tag k="name:ja" v="南部循環路"/>
    <tag k="name:ko" v="남부순환로"/>
    <tag k="name:zh" v="南部循环路"/>
    <tag k="oneway" v="yes"/>
    <tag k="ref" v="92"/>
  </way>
  <way id="251118727">
    <bounds minlat="37.4764954" minlon="126.9777048" maxlat="37.4765632" maxlon="126.9803450"/>
    <nd ref="5406418025" lat="37.4765632" lon="126.9777048"/>
    <nd ref="2574027700" lat="37.4765257" lon="126.9783287"/>
    <nd ref="2574027698" lat="37.4765189" lon="126.9792745"/>
    <nd ref="2583215103" lat="37.4765125" lon="126.9799716"/>
    <nd ref="2574027696" lat="37.4764954" lon="126.9803450"/>
    <tag k="highway" v="primary"/>
    <tag k="name" v="남부순환로"/>
    <tag k="name:en" v="Nambusunhwan-ro"/>
    <tag k="name:ko" v="남부순환로"/>
    <tag k="oneway" v="yes"/>
    <tag k="ref" v="92"/>
  </way>
  <way id="251118733">
    <bounds minlat="37.4760203" minlon="126.9815053" maxlat="37.4764494" maxlon="126.9815404"/>
    <nd ref="11521951180" lat="37.4764494" lon="126.9815404"/>
    <nd ref="2578295005" lat="37.4763283" lon="126.9815347"/>
    <nd ref="11521951149" lat="37.4760203" lon="126.9815053"/>
    <tag k="highway" v="secondary"/>
    <tag k="name" v="과천대로"/>
    <tag k="name:en" v="Gwacheon-daero"/>
    <tag k="name:ko" v="과천대로"/>
    <tag k="oneway" v="yes"/>
    <tag k="surface" v="asphalt"/>
  </way>
  <way id="481020927">
    <bounds minlat="37.4832175" minlon="126.9687935" maxlat="37.4859596" maxlon="126.9745030"/>
    <nd ref="2110270463" lat="37.4832175" lon="126.9745030"/>
    <nd ref="8485083912" lat="37.4832247" lon="126.9744228"/>
    <nd ref="2826160281" lat="37.4832317" lon="126.9743444"/>
    <nd ref="2110270512" lat="37.4832419" lon="126.9742303"/>
    <nd ref="2110270465" lat="37.4832773" lon="126.9739559"/>
    <nd ref="2110270503" lat="37.4833422" lon="126.9736835"/>
    <nd ref="436849883" lat="37.4834403" lon="126.9734034"/>
    <nd ref="436849881" lat="37.4836803" lon="126.9728671"/>
    <nd ref="2110270484" lat="37.4837292" lon="126.9727725"/>
    <nd ref="2110270501" lat="37.4837820" lon="126.9726848"/>
    <nd ref="2110270531" lat="37.4838461" lon="126.9725908"/>
    <nd ref="4195696302" lat="37.4838921" lon="126.9725367"/>
    <nd ref="2110270485" lat="37.4839128" lon="126.9725124"/>
    <nd ref="2110270529" lat="37.4839846" lon="126.9724421"/>
    <nd ref="2110270504" lat="37.4840567" lon="126.9723807"/>
    <nd ref="2110270522" lat="37.4841200" lon="126.9723090"/>
    <nd ref="2110270433" lat="37.4841785" lon="126.9722310"/>
    <nd ref="2110270498" lat="37.4842306" lon="126.9721468"/>
    <nd ref="2110270493" lat="37.4842800" lon="126.9720486"/>
    <nd ref="436849877" lat="37.4843661" lon="126.9718613"/>
    <nd ref="4195693782" lat="37.4843889" lon="126.9718021"/>
    <nd ref="2826150773" lat="37.4848103" lon="126.9707058"/>
    <nd ref="8482869704" lat="37.4849823" lon="126.9702581"/>
    <nd ref="2110270487" lat="37.4850683" lon="126.9700345"/>
    <nd ref="4195693779" lat="37.4850988" lon="126.9699628"/>
    <nd ref="2110270526" lat="37.4851325" lon="126.9698833"/>
    <nd ref="2826162155" lat="37.4851485" lon="126.9698538"/>
    <nd ref="436849875" lat="37.4852088" lon="126.9697427"/>
    <nd ref="436849874" lat="37.4853055" lon="126.9695960"/>
    <nd ref="4195612499" lat="37.4854628" lon="126.9694030"/>
    <nd ref="436849872" lat="37.4859596" lon="126.9687935"/>
    <tag k="highway" v="primary"/>
    <tag k="name" v="사당로"/>
    <tag k="name:en" v="Sadang-ro"/>
    <tag k="name:ko" v="사당로"/>
    <tag k="ref" v="90"/>
    <tag k="surface" v="asphalt"/>
  </way>
  <way id="494997544">
    <bounds minlat="37.4686289" minlon="126.9831436" maxlat="37.4714931" maxlon="126.9857047"/>
    <nd ref="4819734414" lat="37.4714931" lon="126.9831436"/>
    <nd ref="4867773816" lat="37.4701956" lon="126.9839795"/>
    <nd ref="11526383102" lat="37.4697695" lon="126.9843762"/>
    <nd ref="11639834554" lat="37.4692634" lon="126.9849241"/>
    <nd ref="11526383103" lat="37.4691044" lon="126.9850962"/>
    <nd ref="4867773818" lat="37.4686289" lon="126.9857047"/>
    <tag k="highway" v="secondary"/>
    <tag k="name" v="과천대로"/>
    <tag k="name:en" v="Gwacheon-daero"/>
    <tag k="name:ko" v="과천대로"/>
    <tag k="oneway" v="yes"/>
  </way>
  <way id="494997545">
    <bounds minlat="37.4661132" minlon="126.9866139" maxlat="37.4678689" maxlon="126.9877805"/>
    <nd ref="3079948577" lat="37.4678689" lon="126.9866139"/>
    <nd ref="4867773820" lat="37.4675540" lon="126.9869207"/>
    <nd ref="4867774121" lat="37.4670801" lon="126.9872945"/>
    <nd ref="4867773783" lat="37.4661132" lon="126.9877805"/>
    <tag k="highway" v="secondary"/>
    <tag k="name" v="과천대로"/>
    <tag k="name:en" v="Gwacheon-daero"/>
    <tag k="name:ko" v="과천대로"/>
    <tag k="oneway" v="yes"/>
  </way>
  <way id="497290277">
    <bounds minlat="37.4764288" minlon="126.9817608" maxlat="37.4766578" maxlon="126.9817796"/>
    <nd ref="4888858378" lat="37.4764288" lon="126.9817608"/>
    <nd ref="4888858379" lat="37.4766578" lon="126.9817796"/>
    <tag k="highway" v="secondary"/>
    <tag k="name" v="동작대로"/>
    <tag k="name:en" v="Dongjak-daero"/>
    <tag k="name:ko" v="동작대로"/>
    <tag k="name:zh" v="铜雀大路"/>
    <tag k="oneway" v="yes"/>
    <tag k="surface" v="asphalt"/>
  </way>
  <way id="497290496">
    <bounds minlat="37.4764288" minlon="126.9815404" maxlat="37.4764494" maxlon="126.9817608"/>
    <nd ref="11521951180" lat="37.4764494" lon="126.9815404"/>
    <nd ref="11521951204" lat="37.4764470" lon="126.9815727"/>
    <nd ref="11521991147" lat="37.4764348" lon="126.9816987"/>
    <nd ref="4888858378" lat="37.4764288" lon="126.9817608"/>
    <tag k="highway" v="primary"/>
    <tag k="name" v="남부순환로"/>
    <tag k="name:en" v="Nambusunhwan-ro"/>
    <tag k="name:ko" v="남부순환로"/>
    <tag k="name:zh" v="南部循环路"/>
    <tag k="oneway" v="yes"/>
    <tag k="ref" v="92"/>
    <tag k="surface" v="asphalt"/>
  </way>
  <way id="497290497">
    <bounds minlat="37.4756223" minlon="126.9817608" maxlat="37.4764288" maxlon="126.9862742"/>
    <nd ref="4888858378" lat="37.4764288" lon="126.9817608"/>
    <nd ref="2578295006" lat="37.4764071" lon="126.9819812"/>
    <nd ref="2574027723" lat="37.4763507" lon="126.9823559"/>
    <nd ref="2574027692" lat="37.4763009" lon="126.9826358"/>
    <nd ref="4644299349" lat="37.4762356" lon="126.9829865"/>
    <nd ref="2574027690" lat="37.4761703" lon="126.9833692"/>
    <nd ref="2574027688" lat="37.4760308" lon="126.9842800"/>
    <nd ref="4644355017" lat="37.4759264" lon="126.9847799"/>
    <nd ref="2574027686" lat="37.4757731" lon="126.9855000"/>
    <nd ref="5406417407" lat="37.4756447" lon="126.9860570"/>
    <nd ref="5406417409" lat="37.4756223" lon="126.9862742"/>
    <tag k="highway" v="primary"/>
    <tag k="name" v="남부순환로"/>
    <tag k="name:en" v="Nambusunhwan-ro"/>
    <tag k="name:ko" v="남부순환로"/>
    <tag k="name:zh" v="南部循环路"/>
    <tag k="oneway" v="yes"/>
    <tag k="ref" v="92"/>
    <tag k="surface" v="asphalt"/>
  </way>
  <way id="497290498">
    <bounds minlat="37.4766578" minlon="126.9817796" maxlat="37.4771805" maxlon="126.9818010"/>
    <nd ref="4888858379" lat="37.4766578" lon="126.9817796"/>
    <nd ref="4888858380" lat="37.4767908" lon="126.9817853"/>
    <nd ref="11521951178" lat="37.4769504" lon="126.9817933"/>
    <nd ref="4888858384" lat="37.4771805" lon="126.9818010"/>
    <tag k="highway" v="secondary"/>
    <tag k="name" v="동작대로"/>
    <tag k="name:en" v="Dongjak-daero"/>
    <tag k="name:ko" v="동작대로"/>
    <tag k="name:zh" v="铜雀大路"/>
    <tag k="oneway" v="yes"/>
    <tag k="surface" v="asphalt"/>
  </way>
  <way id="497290499">
    <bounds minlat="37.4766578" minlon="126.9815481" maxlat="37.4766771" maxlon="126.9817796"/>
    <nd ref="4888858379" lat="37.4766578" lon="126.9817796"/>
    <nd ref="11521991148" lat="37.4766599" lon="126.9817549"/>
    <nd ref="11521951203" lat="37.4766744" lon="126.9815804"/>
    <nd ref="11521951201" lat="37.4766771" lon="126.9815481"/>
    <tag k="highway" v="primary"/>
    <tag k="name" v="남부순환로"/>
    <tag k="name:en" v="Nambusunhwan-ro"/>
    <tag k="name:ko" v="남부순환로"/>
    <tag k="name:zh" v="南部循环路"/>
    <tag k="oneway" v="yes"/>
    <tag k="ref" v="92"/>
    <tag k="surface" v="asphalt"/>
  </way>
  <way id="497290500">
    <bounds minlat="37.4764494" minlon="126.9815404" maxlat="37.4766771" maxlon="126.9815481"/>
    <nd ref="11521951201" lat="37.4766771" lon="126.9815481"/>
    <nd ref="11521951180" lat="37.4764494" lon="126.9815404"/>
    <tag k="highway" v="secondary"/>
    <tag k="name" v="동작대로"/>
    <tag k="name:en" v="Dongjak-daero"/>
    <tag k="name:ko" v="동작대로"/>
    <tag k="name:zh" v="铜雀大路"/>
    <tag k="oneway" v="yes"/>
    <tag k="surface" v="asphalt"/>
  </way>
  <way id="497290501">
    <bounds minlat="37.4766771" minlon="126.9778846" maxlat="37.4767826" maxlon="126.9815481"/>
    <nd ref="11521951201" lat="37.4766771" lon="126.9815481"/>
    <nd ref="2574027678" lat="37.4766918" lon="126.9813369"/>
    <nd ref="2574027713" lat="37.4767248" lon="126.9808535"/>
    <nd ref="2583215102" lat="37.4767722" lon="126.9799844"/>
    <nd ref="2574027702" lat="37.4767826" lon="126.9793184"/>
    <nd ref="2574027701" lat="37.4767585" lon="126.9783456"/>
    <nd ref="5406417419" lat="37.4767079" lon="126.9778846"/>
    <tag k="highway" v="primary"/>
    <tag k="name" v="남부순환로"/>
    <tag k="name:en" v="Nambusunhwan-ro"/>
    <tag k="name:ko" v="남부순환로"/>
    <tag k="oneway" v="yes"/>
    <tag k="ref" v="92"/>
  </way>
  <way id="509191831">
    <bounds minlat="37.4853495" minlon="126.9820551" maxlat="37.4853952" maxlon="126.9822344"/>
    <nd ref="4984575382" lat="37.4853952" lon="126.9822344"/>
    <nd ref="4984575380" lat="37.4853495" lon="126.9820551"/>
    <tag k="highway" v="primary"/>
    <tag k="name" v="사당로"/>
    <tag k="name:en" v="Sadang-ro"/>
    <tag k="name:ko" v="사당로"/>
    <tag k="ref" v="90"/>
    <tag k="surface" v="asphalt"/>
  </way>
  <way id="509191833">
    <bounds minlat="37.4831530" minlon="126.9820446" maxlat="37.4853952" maxlon="126.9822344"/>
    <nd ref="4984575390" lat="37.4831530" lon="126.9820446"/>
    <nd ref="436838053" lat="37.4839603" lon="126.9821298"/>
    <nd ref="4185991244" lat="37.4844705" lon="126.9821700"/>
    <nd ref="8485212887" lat="37.4848122" lon="126.9821991"/>
    <nd ref="4984575382" lat="37.4853952" lon="126.9822344"/>
    <tag k="highway" v="secondary"/>
    <tag k="name" v="동작대로"/>
    <tag k="name:en" v="Dongjak-daero"/>
    <tag k="name:ko" v="동작대로"/>
    <tag k="name:zh" v="铜雀大路"/>
    <tag k="oneway" v="yes"/>
    <tag k="surface" v="asphalt"/>
  </way>
  <way id="509191846">
    <bounds minlat="37.4800927" minlon="126.9817168" maxlat="37.4853495" maxlon="126.9820551"/>
    <nd ref="4984575380" lat="37.4853495" lon="126.9820551"/>
    <nd ref="8485205797" lat="37.4848215" lon="126.9820117"/>
    <nd ref="4984575387" lat="37.4843832" lon="126.9819747"/>
    <nd ref="11356882003" lat="37.4840480" lon="126.9819412"/>
    <nd ref="4984575397" lat="37.4827349" lon="126.9818235"/>
    <nd ref="11356882004" lat="37.4823345" lon="126.9817957"/>
    <nd ref="4984575399" lat="37.4816986" lon="126.9817621"/>
    <nd ref="8485807426" lat="37.4813970" lon="126.9817553"/>
    <nd ref="11521951186" lat="37.4812298" lon="126.9817484"/>
    <nd ref="4984575401" lat="37.4805718" lon="126.9817213"/>
    <nd ref="11521951189" lat="37.4802461" lon="126.9817168"/>
    <nd ref="11521951182" lat="37.4800927" lon="126.9817195"/>
    <tag k="highway" v="secondary"/>
    <tag k="name" v="동작대로"/>
    <tag k="name:en" v="Dongjak-daero"/>
    <tag k="name:ko" v="동작대로"/>
    <tag k="name:zh" v="铜雀大路"/>
    <tag k="oneway" v="yes"/>
    <tag k="surface" v="asphalt"/>
  </way>
  <way id="518362764">
    <bounds minlat="37.4764494" minlon="126.9803450" maxlat="37.4764954" maxlon="126.9815404"/>
    <nd ref="2574027696" lat="37.4764954" lon="126.9803450"/>
    <nd ref="2578295007" lat="37.4764666" lon="126.9813393"/>
    <nd ref="11521951180" lat="37.4764494" lon="126.9815404"/>
    <tag k="highway" v="primary"/>
    <tag k="name" v="남부순환로"/>
    <tag k="name:en" v="Nambusunhwan-ro"/>
    <tag k="name:ko" v="남부순환로"/>
    <tag k="oneway" v="yes"/>
    <tag k="ref" v="92"/>
  </way>
  <way id="518362765">
    <bounds minlat="37.4714931" minlon="126.9815509" maxlat="37.4753625" maxlon="126.9831436"/>
    <nd ref="11523765973" lat="37.4753625" lon="126.9815509"/>
    <nd ref="11521951157" lat="37.4749208" lon="126.9816645"/>
    <nd ref="11521951146" lat="37.4745456" lon="126.9817499"/>
    <nd ref="8485788356" lat="37.4744639" lon="126.9817720"/>
    <nd ref="8485788357" lat="37.4739810" lon="126.9819353"/>
    <nd ref="436838043" lat="37.4732410" lon="126.9823042"/>
    <nd ref="11358748969" lat="37.4732215" lon="126.9823128"/>
    <nd ref="6576179878" lat="37.4730544" lon="126.9823871"/>
    <nd ref="11408638267" lat="37.4722621" lon="126.9827230"/>
    <nd ref="10216741666" lat="37.4721033" lon="126.9827931"/>
    <nd ref="11521951150" lat="37.4718914" lon="126.9829118"/>
    <nd ref="4819734414" lat="37.4714931" lon="126.9831436"/>
    <tag k="highway" v="secondary"/>
    <tag k="name" v="과천대로"/>
    <tag k="name:en" v="Gwacheon-daero"/>
    <tag k="name:ko" v="과천대로"/>
    <tag k="name:zh" v="果川大路"/>
    <tag k="oneway" v="yes"/>
    <tag k="surface" v="asphalt"/>
  </way>
  <way id="518362768">
    <bounds minlat="37.4627706" minlon="126.9877805" maxlat="37.4661132" maxlon="126.9881507"/>
    <nd ref="4867773783" lat="37.4661132" lon="126.9877805"/>
    <nd ref="11639834528" lat="37.4650657" lon="126.9881293"/>
    <nd ref="4867773782" lat="37.4638901" lon="126.9881507"/>
    <nd ref="4867774128" lat="37.4633421" lon="126.9880093"/>
    <nd ref="4867774129" lat="37.4627706" lon="126.9878837"/>
    <tag k="highway" v="secondary"/>
    <tag k="name" v="과천대로"/>
    <tag k="name:en" v="Gwacheon-daero"/>
    <tag k="name:ko" v="과천대로"/>
    <tag k="oneway" v="yes"/>
  </way>
  <way id="518362769">
    <bounds minlat="37.4661344" minlon="126.9817137" maxlat="37.4764288" maxlon="126.9880364"/>
    <nd ref="3079163739" lat="37.4661344" lon="126.9880364"/>
    <nd ref="4867773785" lat="37.4663667" lon="126.9879350"/>
    <nd ref="11521951059" lat="37.4667566" lon="126.9877306"/>
    <nd ref="4867773786" lat="37.4671426" lon="126.9874968"/>
    <nd ref="4867773787" lat="37.4676316" lon="126.9870778"/>
    <nd ref="4867773790" lat="37.4678377" lon="126.9868839"/>
    <nd ref="4867773789" lat="37.4679523" lon="126.9867929"/>
    <nd ref="4867773791" lat="37.4680418" lon="126.9866905"/>
    <nd ref="4867773798" lat="37.4695655" lon="126.9849423"/>
    <nd ref="4867773801" lat="37.4712798" lon="126.9834974"/>
    <nd ref="10968625010" lat="37.4716949" lon="126.9832536"/>
    <nd ref="4867773804" lat="37.4717246" lon="126.9832362"/>
    <nd ref="11521951162" lat="37.4719540" lon="126.9831031"/>
    <nd ref="4867773803" lat="37.4721597" lon="126.9829838"/>
    <nd ref="4867773805" lat="37.4726682" lon="126.9827393"/>
    <nd ref="6576179879" lat="37.4730912" lon="126.9825284"/>
    <nd ref="4867773807" lat="37.4732929" lon="126.9824278"/>
    <nd ref="4867773809" lat="37.4740317" lon="126.9821176"/>
    <nd ref="6576155457" lat="37.4745720" lon="126.9819476"/>
    <nd ref="4867773810" lat="37.4746660" lon="126.9819216"/>
    <nd ref="11521951172" lat="37.4754165" lon="126.9817495"/>
    <nd ref="4888858376" lat="37.4758897" lon="126.9817137"/>
    <nd ref="4888858381" lat="37.4763156" lon="126.9817493"/>
    <nd ref="4888858378" lat="37.4764288" lon="126.9817608"/>
    <tag k="cycleway:right" v="no"/>
    <tag k="highway" v="secondary"/>
    <tag k="lanes" v="4"/>
    <tag k="maxheight" v="4.8"/>
    <tag k="name" v="과천대로"/>
    <tag k="name:en" v="Gwacheon-daero"/>
    <tag k="name:ko" v="과천대로"/>
    <tag k="name:zh" v="果川大路"/>
    <tag k="oneway" v="yes"/>
    <tag k="smoothness" v="good"/>
    <tag k="surface" v="asphalt"/>
  </way>
  <way id="521118062">
    <bounds minlat="37.4832000" minlon="126.9745030" maxlat="37.4838996" maxlon="126.9776671"/>
    <nd ref="1828215897" lat="37.4838996" lon="126.9776671"/>
    <nd ref="436849887" lat="37.4835507" lon="126.9765218"/>
    <nd ref="2110270445" lat="37.4833580" lon="126.9759536"/>
    <nd ref="2110270483" lat="37.4832923" lon="126.9757070"/>
    <nd ref="436849886" lat="37.4832389" lon="126.9754448"/>
    <nd ref="2110270518" lat="37.4832112" lon="126.9752494"/>
    <nd ref="2110270539" lat="37.4832000" lon="126.9750496"/>
    <nd ref="2110270463" lat="37.4832175" lon="126.9745030"/>
    <tag k="highway" v="primary"/>
    <tag k="name" v="사당로"/>
    <tag k="name:en" v="Sadang-ro"/>
    <tag k="name:ko" v="사당로"/>
    <tag k="ref" v="90"/>
    <tag k="surface" v="asphalt"/>
  </way>
  <way id="521118064">
    <bounds minlat="37.4766771" minlon="126.9815481" maxlat="37.4772422" maxlon="126.9815625"/>
    <nd ref="11521951197" lat="37.4772422" lon="126.9815625"/>
    <nd ref="5078036623" lat="37.4769558" lon="126.9815621"/>
    <nd ref="2578295008" lat="37.4768021" lon="126.9815518"/>
    <nd ref="11521951201" lat="37.4766771" lon="126.9815481"/>
    <tag k="highway" v="secondary"/>
    <tag k="name" v="동작대로"/>
    <tag k="name:en" v="Dongjak-daero"/>
    <tag k="name:ko" v="동작대로"/>
    <tag k="name:zh" v="铜雀大路"/>
    <tag k="oneway" v="yes"/>
    <tag k="surface" v="asphalt"/>
  </way>
  <way id="521118065">
    <bounds minlat="37.4771805" minlon="126.9818010" maxlat="37.4801050" maxlon="126.9818918"/>
    <nd ref="4888858384" lat="37.4771805" lon="126.9818010"/>
    <nd ref="4888858387" lat="37.4783072" lon="126.9818319"/>
    <nd ref="7838702950" lat="37.4790755" lon="126.9818655"/>
    <nd ref="4888858390" lat="37.4794259" lon="126.9818808"/>
    <nd ref="4683581782" lat="37.4801050" lon="126.9818918"/>
    <tag k="highway" v="secondary"/>
    <tag k="name" v="동작대로"/>
    <tag k="name:en" v="Dongjak-daero"/>
    <tag k="name:ko" v="동작대로"/>
    <tag k="name:zh" v="铜雀大路"/>
    <tag k="oneway" v="yes"/>
    <tag k="surface" v="asphalt"/>
  </way>
  <way id="521118329">
    <bounds minlat="37.4859596" minlon="126.9646891" maxlat="37.4904098" maxlon="126.9687935"/>
    <nd ref="436849872" lat="37.4859596" lon="126.9687935"/>
    <nd ref="4195696329" lat="37.4863742" lon="126.9682848"/>
    <nd ref="4195612494" lat="37.4864742" lon="126.9681622"/>
    <nd ref="2826168228" lat="37.4868008" lon="126.9677615"/>
    <nd ref="3713453085" lat="37.4874405" lon="126.9669767"/>
    <nd ref="4195610580" lat="37.4876374" lon="126.9667352"/>
    <nd ref="2110270516" lat="37.4877633" lon="126.9665807"/>
    <nd ref="2110270466" lat="37.4878695" lon="126.9665178"/>
    <nd ref="2110270499" lat="37.4879612" lon="126.9664481"/>
    <nd ref="2110270432" lat="37.4880713" lon="126.9663759"/>
    <nd ref="436849869" lat="37.4882146" lon="126.9663007"/>
    <nd ref="3713452980" lat="37.4884959" lon="126.9661959"/>
    <nd ref="436849868" lat="37.4893597" lon="126.9657959"/>
    <nd ref="8482789903" lat="37.4894677" lon="126.9657020"/>
    <nd ref="8482789907" lat="37.4896146" lon="126.9655743"/>
    <nd ref="436849867" lat="37.4898292" lon="126.9653260"/>
    <nd ref="2826160233" lat="37.4901780" lon="126.9648792"/>
    <nd ref="436849866" lat="37.4904098" lon="126.9646891"/>
    <tag k="highway" v="primary"/>
    <tag k="name" v="사당로"/>
    <tag k="name:en" v="Sadang-ro"/>
    <tag k="name:ko" v="사당로"/>
    <tag k="ref" v="90"/>
    <tag k="surface" v="asphalt"/>
  </way>
  <way id="521242021">
    <bounds minlat="37.4881553" minlon="126.9821737" maxlat="37.4893484" maxlon="126.9824419"/>
    <nd ref="4984575354" lat="37.4893484" lon="126.9824419"/>
    <nd ref="4984575362" lat="37.4889532" lon="126.9823154"/>
    <nd ref="4984575363" lat="37.4885207" lon="126.9822094"/>
    <nd ref="4984575372" lat="37.4881553" lon="126.9821737"/>
    <tag k="highway" v="secondary"/>
    <tag k="name" v="동작대로"/>
    <tag k="name:en" v="Dongjak-daero"/>
    <tag k="name:ko" v="동작대로"/>
    <tag k="name:zh" v="铜雀大路"/>
    <tag k="oneway" v="yes"/>
    <tag k="surface" v="asphalt"/>
  </way>
  <way id="521279994">
    <bounds minlat="37.4904098" minlon="126.9609436" maxlat="37.4947590" maxlon="126.9646891"/>
    <nd ref="436849866" lat="37.4904098" lon="126.9646891"/>
    <nd ref="436849865" lat="37.4913981" lon="126.9643208"/>
    <nd ref="10701233350" lat="37.4915085" lon="126.9642534"/>
    <nd ref="436849864" lat="37.4916426" lon="126.9641404"/>
    <nd ref="8482789908" lat="37.4924411" lon="126.9632644"/>
    <nd ref="436849863" lat="37.4926419" lon="126.9630493"/>
    <nd ref="436849862" lat="37.4928366" lon="126.9629029"/>
    <nd ref="10701233342" lat="37.4936954" lon="126.9624815"/>
    <nd ref="436849861" lat="37.4940570" lon="126.9622974"/>
    <nd ref="2826156903" lat="37.4942888" lon="126.9621223"/>
    <nd ref="436849860" lat="37.4945174" lon="126.9618273"/>
    <nd ref="436849859" lat="37.4946476" lon="126.9614936"/>
    <nd ref="436849858" lat="37.4947590" lon="126.9609436"/>
    <tag k="highway" v="primary"/>
    <tag k="name" v="사당로"/>
    <tag k="name:en" v="Sadang-ro"/>
    <tag k="name:ko" v="사당로"/>
    <tag k="ref" v="90"/>
    <tag k="surface" v="asphalt"/>
  </way>
  <way id="522803619">
    <bounds minlat="37.4864085" minlon="126.9895912" maxlat="37.4876823" maxlon="126.9936264"/>
    <nd ref="1887910783" lat="37.4864085" lon="126.9895912"/>
    <nd ref="436849903" lat="37.4866475" lon="126.9903763"/>
    <nd ref="1696934760" lat="37.4868465" lon="126.9910305"/>
    <nd ref="2511517634" lat="37.4870315" lon="126.9916383"/>
    <nd ref="1696934761" lat="37.4872407" lon="126.9922651"/>
    <nd ref="436849906" lat="37.4874454" lon="126.9928961"/>
    <nd ref="2110270505" lat="37.4876823" lon="126.9936264"/>
    <tag k="highway" v="primary"/>
    <tag k="name" v="서초대로"/>
    <tag k="name:en" v="Seocho-daero"/>
    <tag k="name:ko" v="서초대로"/>
    <tag k="ref" v="90"/>
    <tag k="surface" v="asphalt"/>
  </way>
  <way id="522803623">
    <bounds minlat="37.4858222" minlon="126.9860017" maxlat="37.4864085" maxlon="126.9895912"/>
    <nd ref="1685686413" lat="37.4858222" lon="126.9860017"/>
    <nd ref="1696934757" lat="37.4859428" lon="126.9870547"/>
    <nd ref="3804191047" lat="37.4859699" lon="126.9872837"/>
    <nd ref="4185879887" lat="37.4860344" lon="126.9879403"/>
    <nd ref="2110270443" lat="37.4860593" lon="126.9881183"/>
    <nd ref="2110270521" lat="37.4861140" lon="126.9884116"/>
    <nd ref="3804191050" lat="37.4861540" lon="126.9885970"/>
    <nd ref="1696934759" lat="37.4861746" lon="126.9886628"/>
    <nd ref="1887910783" lat="37.4864085" lon="126.9895912"/>
    <tag k="highway" v="primary"/>
    <tag k="name" v="서초대로"/>
    <tag k="name:en" v="Seocho-daero"/>
    <tag k="name:ko" v="서초대로"/>
    <tag k="ref" v="90"/>
    <tag k="surface" v="asphalt"/>
  </way>
  <way id="522803624">
    <bounds minlat="37.4763312" minlon="126.9861447" maxlat="37.4773756" maxlon="126.9866780"/>
    <nd ref="2110341086" lat="37.4773756" lon="126.9866780"/>
    <nd ref="4185920046" lat="37.4770170" lon="126.9865145"/>
    <nd ref="436882859" lat="37.4769965" lon="126.9864989"/>
    <nd ref="436882857" lat="37.4768413" lon="126.9863962"/>
    <nd ref="2110341089" lat="37.4766743" lon="126.9863026"/>
    <nd ref="9882864417" lat="37.4765526" lon="126.9862463"/>
    <nd ref="436882856" lat="37.4764142" lon="126.9861822"/>
    <nd ref="2574027733" lat="37.4763312" lon="126.9861447"/>
    <tag k="highway" v="secondary"/>
    <tag k="name" v="효령로"/>
    <tag k="name:en" v="Hyoryeong-ro"/>
    <tag k="name:ko" v="효령로"/>
    <tag k="name:ko-Latn" v="Hyoryeongno"/>
    <tag k="name:zh" v="孝宁路"/>
  </way>
  <way id="522803625">
    <bounds minlat="37.4773756" minlon="126.9866780" maxlat="37.4786110" maxlon="126.9893190"/>
    <nd ref="1696934679" lat="37.4786110" lon="126.9893190"/>
    <nd ref="4185920067" lat="37.4783429" lon="126.9887881"/>
    <nd ref="1872514043" lat="37.4781656" lon="126.9884372"/>
    <nd ref="436882865" lat="37.4779700" lon="126.9880500"/>
    <nd ref="436882863" lat="37.4777163" lon="126.9875481"/>
    <nd ref="4185991233" lat="37.4776442" lon="126.9873982"/>
    <nd ref="436882862" lat="37.4775200" lon="126.9871400"/>
    <nd ref="2110341086" lat="37.4773756" lon="126.9866780"/>
    <tag k="highway" v="secondary"/>
    <tag k="name" v="효령로"/>
    <tag k="name:en" v="Hyoryeong-ro"/>
    <tag k="name:ko" v="효령로"/>
    <tag k="name:ko-Latn" v="Hyoryeongno"/>
    <tag k="name:zh" v="孝宁路"/>
    <tag k="surface" v="asphalt"/>
  </way>
  <way id="522803634">
    <bounds minlat="37.4766065" minlon="126.9817796" maxlat="37.4766578" maxlon="126.9823498"/>
    <nd ref="2574027717" lat="37.4766065" lon="126.9823498"/>
    <nd ref="2574027676" lat="37.4766376" lon="126.9820342"/>
    <nd ref="4888858379" lat="37.4766578" lon="126.9817796"/>
    <tag k="highway" v="primary"/>
    <tag k="name" v="남부순환로"/>
    <tag k="name:en" v="Nambusunhwan-ro"/>
    <tag k="name:ko" v="남부순환로"/>
    <tag k="name:zh" v="南部循环路"/>
    <tag k="oneway" v="yes"/>
    <tag k="ref" v="92"/>
  </way>
  <way id="523141749">
    <bounds minlat="37.4879197" minlon="126.9944055" maxlat="37.4889850" maxlon="126.9979099"/>
    <nd ref="2623456123" lat="37.4879197" lon="126.9944055"/>
    <nd ref="10220955567" lat="37.4880143" lon="126.9947215"/>
    <nd ref="2623456313" lat="37.4881354" lon="126.9951131"/>
    <nd ref="2623456328" lat="37.4883255" lon="126.9957368"/>
    <nd ref="7513740462" lat="37.4884692" lon="126.9962137"/>
    <nd ref="2623456359" lat="37.4889850" lon="126.9979099"/>
    <tag k="highway" v="primary"/>
    <tag k="name" v="서초대로"/>
    <tag k="name:en" v="Seocho-daero"/>
    <tag k="name:ja" v="瑞草大路"/>
    <tag k="name:ko" v="서초대로"/>
    <tag k="name:zh" v="瑞草大路"/>
    <tag k="ref" v="90"/>
    <tag k="surface" v="asphalt"/>
  </way>
  <way id="523141750">
    <bounds minlat="37.4876823" minlon="126.9936264" maxlat="37.4879197" maxlon="126.9944055"/>
    <nd ref="2110270505" lat="37.4876823" lon="126.9936264"/>
    <nd ref="4185805734" lat="37.4878969" lon="126.9943333"/>
    <nd ref="2623456123" lat="37.4879197" lon="126.9944055"/>
    <tag k="highway" v="primary"/>
    <tag k="name" v="서초대로"/>
    <tag k="name:en" v="Seocho-daero"/>
    <tag k="name:ja" v="瑞草大路"/>
    <tag k="name:ko" v="서초대로"/>
    <tag k="name:zh" v="瑞草大路"/>
    <tag k="ref" v="90"/>
    <tag k="surface" v="asphalt"/>
  </way>
  <way id="523141751">
    <bounds minlat="37.4876823" minlon="126.9904803" maxlat="37.4927747" maxlon="126.9936264"/>
    <nd ref="2110270505" lat="37.4876823" lon="126.9936264"/>
    <nd ref="2103868103" lat="37.4888702" lon="126.9928575"/>
    <nd ref="2509978199" lat="37.4900382" lon="126.9921346"/>
    <nd ref="2509978764" lat="37.4910431" lon="126.9915271"/>
    <nd ref="2510006962" lat="37.4922110" lon="126.9908210"/>
    <nd ref="414684380" lat="37.4927747" lon="126.9904803"/>
    <tag k="highway" v="secondary"/>
    <tag k="name" v="방배로"/>
    <tag k="name:en" v="Bangbae-ro"/>
    <tag k="name:ko" v="방배로"/>
    <tag k="name:ko-Latn" v="Bangbaero"/>
  </way>
  <way id="523286674">
    <bounds minlat="37.4757487" minlon="126.9861679" maxlat="37.4758287" maxlon="126.9863202"/>
    <nd ref="5406417391" lat="37.4757487" lon="126.9863202"/>
    <nd ref="5406417406" lat="37.4758287" lon="126.9861679"/>
    <tag k="highway" v="primary"/>
    <tag k="name" v="남부순환로"/>
    <tag k="name:en" v="Nambusunhwan-ro"/>
    <tag k="name:ko" v="남부순환로"/>
    <tag k="oneway" v="yes"/>
    <tag k="ref" v="92"/>
    <tag k="surface" v="asphalt"/>
  </way>
  <way id="523341061">
    <bounds minlat="37.4909123" minlon="126.9827592" maxlat="37.4921544" maxlon="126.9828103"/>
    <nd ref="436838063" lat="37.4909123" lon="126.9827592"/>
    <nd ref="2533109193" lat="37.4916643" lon="126.9827787"/>
    <nd ref="4984575345" lat="37.4921544" lon="126.9828103"/>
    <tag k="highway" v="secondary"/>
    <tag k="name" v="동작대로"/>
    <tag k="name:en" v="Dongjak-daero"/>
    <tag k="name:ko" v="동작대로"/>
    <tag k="name:zh" v="铜雀大路"/>
    <tag k="oneway" v="yes"/>
    <tag k="surface" v="asphalt"/>
  </way>
  <way id="523341069">
    <bounds minlat="37.4855674" minlon="126.9834963" maxlat="37.4858222" maxlon="126.9860017"/>
    <nd ref="2110270506" lat="37.4855674" lon="126.9834963"/>
    <nd ref="4683581779" lat="37.4855885" lon="126.9837173"/>
    <nd ref="1685686496" lat="37.4856644" lon="126.9844437"/>
    <nd ref="4185991239" lat="37.4857639" lon="126.9852546"/>
    <nd ref="3804191046" lat="37.4857721" lon="126.9853513"/>
    <nd ref="1685686413" lat="37.4858222" lon="126.9860017"/>
    <tag k="highway" v="primary"/>
    <tag k="lanes" v="6"/>
    <tag k="name" v="서초대로"/>
    <tag k="name:en" v="Seocho-daero"/>
    <tag k="name:ko" v="서초대로"/>
    <tag k="name:zh" v="瑞草大路"/>
    <tag k="ref" v="90"/>
    <tag k="surface" v="asphalt"/>
  </way>
  <way id="523341070">
    <bounds minlat="37.4892375" minlon="126.9826306" maxlat="37.4909123" maxlon="126.9827592"/>
    <nd ref="4984575366" lat="37.4892375" lon="126.9826306"/>
    <nd ref="3804191223" lat="37.4895455" lon="126.9827142"/>
    <nd ref="436838061" lat="37.4899469" lon="126.9827478"/>
    <nd ref="4195811997" lat="37.4901811" lon="126.9827533"/>
    <nd ref="436838063" lat="37.4909123" lon="126.9827592"/>
    <tag k="highway" v="secondary"/>
    <tag k="name" v="동작대로"/>
    <tag k="name:en" v="Dongjak-daero"/>
    <tag k="name:ko" v="동작대로"/>
    <tag k="name:zh" v="铜雀大路"/>
    <tag k="oneway" v="yes"/>
    <tag k="surface" v="asphalt"/>
  </way>
  <way id="541467450">
    <bounds minlat="37.4921544" minlon="126.9828103" maxlat="37.4937761" maxlon="126.9828701"/>
    <nd ref="4984575345" lat="37.4921544" lon="126.9828103"/>
    <nd ref="2624211566" lat="37.4926905" lon="126.9828469"/>
    <nd ref="4195788589" lat="37.4937761" lon="126.9828701"/>
    <tag k="cycleway:right" v="no"/>
    <tag k="highway" v="secondary"/>
    <tag k="lanes" v="4"/>
    <tag k="name" v="동작대로"/>
    <tag k="name:en" v="Dongjak-daero"/>
    <tag k="name:ko" v="동작대로"/>
    <tag k="name:zh" v="铜雀大路"/>
    <tag k="oneway" v="yes"/>
    <tag k="smoothness" v="good"/>
    <tag k="surface" v="asphalt"/>
  </way>
  <way id="541467453">
    <bounds minlat="37.4883434" minlon="126.9824471" maxlat="37.4892375" maxlon="126.9826306"/>
    <nd ref="1825741516" lat="37.4883434" lon="126.9824471"/>
    <nd ref="3804191207" lat="37.4884797" lon="126.9824713"/>
    <nd ref="3804191213" lat="37.4889141" lon="126.9825392"/>
    <nd ref="4984575366" lat="37.4892375" lon="126.9826306"/>
    <tag k="highway" v="secondary"/>
    <tag k="name" v="동작대로"/>
    <tag k="name:en" v="Dongjak-daero"/>
    <tag k="name:ko" v="동작대로"/>
    <tag k="name:zh" v="铜雀大路"/>
    <tag k="oneway" v="yes"/>
    <tag k="surface" v="asphalt"/>
  </way>
  <way id="541467456">
    <bounds minlat="37.4874186" minlon="126.9824140" maxlat="37.4883434" maxlon="126.9824502"/>
    <nd ref="3804191182" lat="37.4874186" lon="126.9824140"/>
    <nd ref="11710856345" lat="37.4874348" lon="126.9824148"/>
    <nd ref="11229661063" lat="37.4881471" lon="126.9824502"/>
    <nd ref="1825741516" lat="37.4883434" lon="126.9824471"/>
    <tag k="highway" v="secondary"/>
    <tag k="name" v="동작대로"/>
    <tag k="name:en" v="Dongjak-daero"/>
    <tag k="name:ko" v="동작대로"/>
    <tag k="name:zh" v="铜雀大路"/>
    <tag k="oneway" v="yes"/>
    <tag k="surface" v="asphalt"/>
  </way>
  <way id="541467460">
    <bounds minlat="37.4816773" minlon="126.9819829" maxlat="37.4831530" maxlon="126.9820446"/>
    <nd ref="1887910807" lat="37.4816773" lon="126.9819829"/>
    <nd ref="1887910798" lat="37.4827516" lon="126.9820373"/>
    <nd ref="4984575390" lat="37.4831530" lon="126.9820446"/>
    <tag k="highway" v="secondary"/>
    <tag k="name" v="동작대로"/>
    <tag k="name:en" v="Dongjak-daero"/>
    <tag k="name:ko" v="동작대로"/>
    <tag k="name:zh" v="铜雀大路"/>
    <tag k="oneway" v="yes"/>
    <tag k="surface" v="asphalt"/>
  </way>
  <way id="541467461">
    <bounds minlat="37.4801050" minlon="126.9818913" maxlat="37.4816773" maxlon="126.9819829"/>
    <nd ref="4683581782" lat="37.4801050" lon="126.9818918"/>
    <nd ref="11521951191" lat="37.4801579" lon="126.9818913"/>
    <nd ref="11356881998" lat="37.4802382" lon="126.9818963"/>
    <nd ref="1685716288" lat="37.4805536" lon="126.9819075"/>
    <nd ref="12101476239" lat="37.4813895" lon="126.9819517"/>
    <nd ref="11521951185" lat="37.4814845" lon="126.9819580"/>
    <nd ref="1887910807" lat="37.4816773" lon="126.9819829"/>
    <tag k="highway" v="secondary"/>
    <tag k="name" v="동작대로"/>
    <tag k="name:en" v="Dongjak-daero"/>
    <tag k="name:ko" v="동작대로"/>
    <tag k="name:zh" v="铜雀大路"/>
    <tag k="oneway" v="yes"/>
    <tag k="surface" v="asphalt"/>
  </way>
  <way id="555215394">
    <bounds minlat="37.4772422" minlon="126.9815625" maxlat="37.4800927" maxlon="126.9817195"/>
    <nd ref="11521951182" lat="37.4800927" lon="126.9817195"/>
    <nd ref="1685716317" lat="37.4789948" lon="126.9816760"/>
    <nd ref="11521951195" lat="37.4788127" lon="126.9816612"/>
    <nd ref="1112905612" lat="37.4783153" lon="126.9816207"/>
    <nd ref="11521951197" lat="37.4772422" lon="126.9815625"/>
    <tag k="highway" v="secondary"/>
    <tag k="name" v="동작대로"/>
    <tag k="name:en" v="Dongjak-daero"/>
    <tag k="name:ko" v="동작대로"/>
    <tag k="name:zh" v="铜雀大路"/>
    <tag k="oneway" v="yes"/>
    <tag k="surface" v="asphalt"/>
  </way>
  <way id="560325558">
    <bounds minlat="37.4755542" minlon="126.9619926" maxlat="37.4769678" maxlon="126.9656195"/>
    <nd ref="2161063350" lat="37.4769678" lon="126.9619926"/>
    <nd ref="10860751106" lat="37.4767845" lon="126.9624559"/>
    <nd ref="2282020180" lat="37.4767273" lon="126.9626004"/>
    <nd ref="2282020197" lat="37.4764994" lon="126.9632036"/>
    <nd ref="2282020182" lat="37.4760140" lon="126.9644357"/>
    <nd ref="1905595383" lat="37.4755542" lon="126.9656195"/>
    <tag k="highway" v="secondary"/>
    <tag k="name" v="봉천로"/>
    <tag k="name:en" v="Bongcheon-ro"/>
    <tag k="name:ja" v="奉天路"/>
    <tag k="name:ko" v="봉천로"/>
  </way>
  <way id="560609924">
    <bounds minlat="37.4759529" minlon="126.9823498" maxlat="37.4766065" maxlon="126.9857543"/>
    <nd ref="2574027737" lat="37.4759529" lon="126.9857543"/>
    <nd ref="2574027670" lat="37.4761605" lon="126.9849292"/>
    <nd ref="4185991278" lat="37.4762268" lon="126.9845439"/>
    <nd ref="2574027672" lat="37.4764251" lon="126.9833924"/>
    <nd ref="4185991280" lat="37.4764999" lon="126.9829942"/>
    <nd ref="2574027743" lat="37.4765270" lon="126.9828501"/>
    <nd ref="2574027674" lat="37.4765554" lon="126.9826985"/>
    <nd ref="2574027717" lat="37.4766065" lon="126.9823498"/>
    <tag k="highway" v="primary"/>
    <tag k="name" v="남부순환로"/>
    <tag k="name:en" v="Nambusunhwan-ro"/>
    <tag k="name:ko" v="남부순환로"/>
    <tag k="name:zh" v="南部循环路"/>
    <tag k="oneway" v="yes"/>
    <tag k="ref" v="92"/>
    <tag k="surface" v="asphalt"/>
  </way>
  <way id="560609925">
    <bounds minlat="37.4765632" minlon="126.9777048" maxlat="37.4766135" maxlon="126.9789040"/>
    <nd ref="5406418025" lat="37.4765632" lon="126.9777048"/>
    <nd ref="5406418024" lat="37.4765990" lon="126.9781429"/>
    <nd ref="5406418023" lat="37.4766090" lon="126.9786276"/>
    <nd ref="5406417403" lat="37.4766135" lon="126.9789040"/>
    <tag k="bridge:name" v="사당고가도로"/>
    <tag k="highway" v="primary"/>
    <tag k="name" v="남부순환로"/>
    <tag k="name:en" v="Nambusunhwan-ro"/>
    <tag k="name:ja" v="南部循環路"/>
    <tag k="name:ko" v="남부순환로"/>
    <tag k="name:zh" v="南部循环路"/>
    <tag k="oneway" v="yes"/>
    <tag k="ref" v="92"/>
  </way>
  <way id="560609926">
    <bounds minlat="37.4760950" minlon="126.9789010" maxlat="37.4767064" maxlon="126.9849174"/>
    <nd ref="5406417404" lat="37.4760950" lon="126.9849174"/>
    <nd ref="436830509" lat="37.4762706" lon="126.9839605"/>
    <nd ref="436830510" lat="37.4764464" lon="126.9829009"/>
    <nd ref="2110338708" lat="37.4765313" lon="126.9823039"/>
    <nd ref="4888858374" lat="37.4765957" lon="126.9816624"/>
    <nd ref="5406417390" lat="37.4766337" lon="126.9811520"/>
    <nd ref="1685542260" lat="37.4766628" lon="126.9806773"/>
    <nd ref="5406417389" lat="37.4766882" lon="126.9802839"/>
    <nd ref="5406417388" lat="37.4766954" lon="126.9799910"/>
    <nd ref="2574027703" lat="37.4767064" lon="126.9793479"/>
    <nd ref="5406417387" lat="37.4767034" lon="126.9789010"/>
    <tag k="bridge" v="yes"/>
    <tag k="bridge:name" v="사당고가도로"/>
    <tag k="highway" v="primary"/>
    <tag k="layer" v="1"/>
    <tag k="name" v="사당고가차도"/>
    <tag k="name:en" v="Nambusunhwan-ro"/>
    <tag k="name:ja" v="南部循環路"/>
    <tag k="name:ko" v="사당고가차도"/>
    <tag k="name:zh" v="南部循环路"/>
    <tag k="oneway" v="yes"/>
    <tag k="ref" v="92"/>
  </way>
  <way id="560609927">
    <bounds minlat="37.4756223" minlon="126.9848904" maxlat="37.4759960" maxlon="126.9862742"/>
    <nd ref="5406417405" lat="37.4759960" lon="126.9848904"/>
    <nd ref="5406417393" lat="37.4759816" lon="126.9849631"/>
    <nd ref="5406417392" lat="37.4758337" lon="126.9855531"/>
    <nd ref="5406417418" lat="37.4756851" lon="126.9861307"/>
    <nd ref="5406417409" lat="37.4756223" lon="126.9862742"/>
    <tag k="bridge:name" v="사당고가도로"/>
    <tag k="highway" v="primary"/>
    <tag k="name" v="남부순환로"/>
    <tag k="name:en" v="Nambusunhwan-ro"/>
    <tag k="name:ja" v="南部循環路"/>
    <tag k="name:ko" v="남부순환로"/>
    <tag k="name:zh" v="南部循环路"/>
    <tag k="oneway" v="yes"/>
    <tag k="ref" v="92"/>
    <tag k="surface" v="asphalt"/>
  </way>
  <way id="560609930">
    <bounds minlat="37.4744256" minlon="126.9862742" maxlat="37.4756223" maxlon="126.9906756"/>
    <nd ref="5406417409" lat="37.4756223" lon="126.9862742"/>
    <nd ref="5406500113" lat="37.4744256" lon="126.9906756"/>
    <tag k="bridge:name" v="사당고가도로"/>
    <tag k="highway" v="primary"/>
    <tag k="name" v="남부순환로"/>
    <tag k="name:en" v="Nambusunhwan-ro"/>
    <tag k="name:ja" v="南部循環路"/>
    <tag k="name:ko" v="남부순환로"/>
    <tag k="name:zh" v="南部循环路"/>
    <tag k="oneway" v="yes"/>
    <tag k="ref" v="92"/>
  </way>
  <way id="560609931">
    <bounds minlat="37.4758287" minlon="126.9857543" maxlat="37.4759529" maxlon="126.9861679"/>
    <nd ref="5406417406" lat="37.4758287" lon="126.9861679"/>
    <nd ref="2574027737" lat="37.4759529" lon="126.9857543"/>
    <tag k="highway" v="primary"/>
    <tag k="name" v="남부순환로"/>
    <tag k="name:en" v="Nambusunhwan-ro"/>
    <tag k="name:ko" v="남부순환로"/>
    <tag k="name:zh" v="南部循环路"/>
    <tag k="oneway" v="yes"/>
    <tag k="ref" v="92"/>
    <tag k="surface" v="asphalt"/>
  </way>
  <way id="560609932">
    <bounds minlat="37.4735973" minlon="126.9939837" maxlat="37.4751703" maxlon="127.0017707"/>
    <nd ref="5406500165" lat="37.4751703" lon="127.0017707"/>
    <nd ref="7621561349" lat="37.4751068" lon="127.0016327"/>
    <nd ref="5406500164" lat="37.4743233" lon="126.9999758"/>
    <nd ref="5406500163" lat="37.4741297" lon="126.9994269"/>
    <nd ref="5406500162" lat="37.4739384" lon="126.9986623"/>
    <nd ref="5406500161" lat="37.4737871" lon="126.9980601"/>
    <nd ref="5406500160" lat="37.4737056" lon="126.9976632"/>
    <nd ref="3719498495" lat="37.4736692" lon="126.9974446"/>
    <nd ref="5406500159" lat="37.4736506" lon="126.9972371"/>
    <nd ref="5406500158" lat="37.4736256" lon="126.9968987"/>
    <nd ref="5406500157" lat="37.4735973" lon="126.9965445"/>
    <nd ref="5406500156" lat="37.4735973" lon="126.9961176"/>
    <nd ref="5406500155" lat="37.4736038" lon="126.9956867"/>
    <nd ref="5406500154" lat="37.4736199" lon="126.9952476"/>
    <nd ref="5406500153" lat="37.4736586" lon="126.9948126"/>
    <nd ref="5406500152" lat="37.4736973" lon="126.9943857"/>
    <nd ref="5406500151" lat="37.4737440" lon="126.9939837"/>
    <tag k="highway" v="primary"/>
    <tag k="name" v="남부순환로"/>
    <tag k="name:en" v="Nambusunhwan-ro"/>
    <tag k="name:ja" v="南部循環路"/>
    <tag k="name:ko" v="남부순환로"/>
    <tag k="name:zh" v="南部循环路"/>
    <tag k="oneway" v="yes"/>
    <tag k="ref" v="92"/>
  </way>
  <way id="560609933">
    <bounds minlat="37.4766964" minlon="126.9778846" maxlat="37.4767079" maxlon="126.9789010"/>
    <nd ref="5406417387" lat="37.4767034" lon="126.9789010"/>
    <nd ref="5406417420" lat="37.4767010" lon="126.9786055"/>
    <nd ref="5406418021" lat="37.4766964" lon="126.9781910"/>
    <nd ref="5406417419" lat="37.4767079" lon="126.9778846"/>
    <tag k="bridge:name" v="사당고가도로"/>
    <tag k="highway" v="primary"/>
    <tag k="name" v="남부순환로"/>
    <tag k="name:en" v="Nambusunhwan-ro"/>
    <tag k="name:ja" v="南部循環路"/>
    <tag k="name:ko" v="남부순환로"/>
    <tag k="name:zh" v="南部循环路"/>
    <tag k="oneway" v="yes"/>
    <tag k="ref" v="92"/>
  </way>
  <way id="560609934">
    <bounds minlat="37.4753105" minlon="126.9672440" maxlat="37.4767079" maxlon="126.9778846"/>
    <nd ref="5406417419" lat="37.4767079" lon="126.9778846"/>
    <nd ref="5406418022" lat="37.4766931" lon="126.9776883"/>
    <nd ref="5406469977" lat="37.4766877" lon="126.9775946"/>
    <nd ref="5406469996" lat="37.4766671" lon="126.9771863"/>
    <nd ref="2935070070" lat="37.4766430" lon="126.9768865"/>
    <nd ref="5406469997" lat="37.4766110" lon="126.9764430"/>
    <nd ref="5406469998" lat="37.4765744" lon="126.9760997"/>
    <nd ref="5406469939" lat="37.4765004" lon="126.9755034"/>
    <nd ref="5406469999" lat="37.4764284" lon="126.9751052"/>
    <nd ref="5406469938" lat="37.4763964" lon="126.9748981"/>
    <nd ref="5406470000" lat="37.4763863" lon="126.9748327"/>
    <nd ref="2876969172" lat="37.4763130" lon="126.9743810"/>
    <nd ref="5406470001" lat="37.4762543" lon="126.9741036"/>
    <nd ref="5406470002" lat="37.4761588" lon="126.9736188"/>
    <nd ref="5406469943" lat="37.4759226" lon="126.9726564"/>
    <nd ref="5406469944" lat="37.4757710" lon="126.9720727"/>
    <nd ref="5406470003" lat="37.4753976" lon="126.9705503"/>
    <nd ref="5406470004" lat="37.4753555" lon="126.9703096"/>
    <nd ref="5406470005" lat="37.4753246" lon="126.9699592"/>
    <nd ref="5406470006" lat="37.4753105" lon="126.9696832"/>
    <nd ref="5406470007" lat="37.4753105" lon="126.9693222"/>
    <nd ref="5406470008" lat="37.4753386" lon="126.9688585"/>
    <nd ref="5406470009" lat="37.4753695" lon="126.9685648"/>
    <nd ref="5406470010" lat="37.4754229" lon="126.9682073"/>
    <nd ref="5406470011" lat="37.4755156" lon="126.9677755"/>
    <nd ref="5406470012" lat="37.4756703" lon="126.9672440"/>
    <tag k="bridge:name" v="사당고가도로"/>
    <tag k="highway" v="primary"/>
    <tag k="maxspeed" v="60"/>
    <tag k="name" v="남부순환로"/>
    <tag k="name:en" v="Nambusunhwan-ro"/>
    <tag k="name:ja" v="南部循環路"/>
    <tag k="name:ko" v="남부순환로"/>
    <tag k="name:zh" v="南部循环路"/>
    <tag k="oneway" v="yes"/>
    <tag k="ref" v="92"/>
  </way>
  <way id="560609935">
    <bounds minlat="37.4759960" minlon="126.9789040" maxlat="37.4766165" maxlon="126.9848904"/>
    <nd ref="5406417403" lat="37.4766135" lon="126.9789040"/>
    <nd ref="5406417402" lat="37.4766165" lon="126.9793509"/>
    <nd ref="5406417401" lat="37.4766054" lon="126.9799940"/>
    <nd ref="5406417400" lat="37.4765982" lon="126.9802869"/>
    <nd ref="5406417399" lat="37.4765729" lon="126.9806803"/>
    <nd ref="5406417398" lat="37.4765438" lon="126.9811550"/>
    <nd ref="5406417397" lat="37.4765058" lon="126.9816654"/>
    <nd ref="5406417396" lat="37.4764414" lon="126.9823068"/>
    <nd ref="5406417395" lat="37.4763565" lon="126.9829039"/>
    <nd ref="5406417394" lat="37.4761807" lon="126.9839635"/>
    <nd ref="5406417405" lat="37.4759960" lon="126.9848904"/>
    <tag k="bridge" v="yes"/>
    <tag k="bridge:name" v="사당고가도로"/>
    <tag k="highway" v="primary"/>
    <tag k="layer" v="1"/>
    <tag k="name" v="사당고가차도"/>
    <tag k="name:en" v="Nambusunhwan-ro"/>
    <tag k="name:ja" v="南部循環路"/>
    <tag k="name:ko" v="사당고가차도"/>
    <tag k="name:zh" v="南部循环路"/>
    <tag k="oneway" v="yes"/>
    <tag k="ref" v="92"/>
  </way>
  <way id="560616140">
    <bounds minlat="37.4755604" minlon="126.9627865" maxlat="37.4772732" maxlon="126.9671785"/>
    <nd ref="5406462584" lat="37.4772732" lon="126.9627865"/>
    <nd ref="5406462591" lat="37.4769997" lon="126.9634876"/>
    <nd ref="5406462592" lat="37.4765227" lon="126.9647109"/>
    <nd ref="5406462593" lat="37.4760590" lon="126.9658999"/>
    <nd ref="5406462594" lat="37.4755604" lon="126.9671785"/>
    <tag k="highway" v="primary"/>
    <tag k="maxspeed" v="60"/>
    <tag k="name" v="남부순환로"/>
    <tag k="name:en" v="Nambusunhwan-ro"/>
    <tag k="name:ja" v="南部循環路"/>
    <tag k="name:ko" v="남부순환로"/>
    <tag k="name:zh" v="南部循环路"/>
    <tag k="oneway" v="yes"/>
    <tag k="ref" v="92"/>
    <tag k="surface" v="asphalt"/>
  </way>
  <way id="560617371">
    <bounds minlat="37.4752027" minlon="126.9671785" maxlat="37.4765632" maxlon="126.9777048"/>
    <nd ref="5406462594" lat="37.4755604" lon="126.9671785"/>
    <nd ref="5406469978" lat="37.4755397" lon="126.9672438"/>
    <nd ref="5406469953" lat="37.4755088" lon="126.9673414"/>
    <nd ref="5406469954" lat="37.4754611" lon="126.9674971"/>
    <nd ref="5406469955" lat="37.4754077" lon="126.9676918"/>
    <nd ref="5406469956" lat="37.4753487" lon="126.9680174"/>
    <nd ref="5406469957" lat="37.4752926" lon="126.9683323"/>
    <nd ref="5406469958" lat="37.4752476" lon="126.9686827"/>
    <nd ref="5406469959" lat="37.4752271" lon="126.9688741"/>
    <nd ref="5406469960" lat="37.4752125" lon="126.9690559"/>
    <nd ref="5406469961" lat="37.4752027" lon="126.9692408"/>
    <nd ref="5406469962" lat="37.4752100" lon="126.9694626"/>
    <nd ref="5406469963" lat="37.4752149" lon="126.9696968"/>
    <nd ref="5406469964" lat="37.4752271" lon="126.9699155"/>
    <nd ref="5406469965" lat="37.4752516" lon="126.9702082"/>
    <nd ref="5406469966" lat="37.4752785" lon="126.9704270"/>
    <nd ref="5406469993" lat="37.4756659" lon="126.9721795"/>
    <nd ref="5406469942" lat="37.4759804" lon="126.9734511"/>
    <nd ref="5406469967" lat="37.4760952" lon="126.9740287"/>
    <nd ref="5406469968" lat="37.4761539" lon="126.9742906"/>
    <nd ref="5406469969" lat="37.4762101" lon="126.9746049"/>
    <nd ref="5406469941" lat="37.4762545" lon="126.9748460"/>
    <nd ref="5406469970" lat="37.4763079" lon="126.9751995"/>
    <nd ref="5406469971" lat="37.4763568" lon="126.9754922"/>
    <nd ref="5406469972" lat="37.4763984" lon="126.9758126"/>
    <nd ref="5406469940" lat="37.4764462" lon="126.9761311"/>
    <nd ref="5406469973" lat="37.4764937" lon="126.9766692"/>
    <nd ref="5406469974" lat="37.4765329" lon="126.9770781"/>
    <nd ref="5406469975" lat="37.4765462" lon="126.9773899"/>
    <nd ref="5406469976" lat="37.4765589" lon="126.9775977"/>
    <nd ref="5406418025" lat="37.4765632" lon="126.9777048"/>
    <tag k="highway" v="primary"/>
    <tag k="maxspeed" v="60"/>
    <tag k="name" v="남부순환로"/>
    <tag k="name:en" v="Nambusunhwan-ro"/>
    <tag k="name:ja" v="南部循環路"/>
    <tag k="name:ko" v="남부순환로"/>
    <tag k="name:zh" v="南部循环路"/>
    <tag k="oneway" v="yes"/>
    <tag k="ref" v="92"/>
    <tag k="surface" v="asphalt"/>
  </way>
  <way id="560620473">
    <bounds minlat="37.4742006" minlon="126.9906756" maxlat="37.4744256" maxlon="126.9915033"/>
    <nd ref="5406500113" lat="37.4744256" lon="126.9906756"/>
    <nd ref="8486132576" lat="37.4743340" lon="126.9910125"/>
    <nd ref="8263848782" lat="37.4743272" lon="126.9910376"/>
    <nd ref="5406500115" lat="37.4742006" lon="126.9915033"/>
    <tag k="bridge:name" v="사당고가도로"/>
    <tag k="highway" v="primary"/>
    <tag k="name" v="남부순환로"/>
    <tag k="name:en" v="Nambusunhwan-ro"/>
    <tag k="name:ja" v="南部循環路"/>
    <tag k="name:ko" v="남부순환로"/>
    <tag k="name:zh" v="南部循环路"/>
    <tag k="oneway" v="yes"/>
    <tag k="ref" v="92"/>
  </way>
  <way id="560620474">
    <bounds minlat="37.4745665" minlon="126.9863202" maxlat="37.4757487" maxlon="126.9907245"/>
    <nd ref="5406500112" lat="37.4745665" lon="126.9907245"/>
    <nd ref="8664304485" lat="37.4748609" lon="126.9896470"/>
    <nd ref="1696934639" lat="37.4751707" lon="126.9885132"/>
    <nd ref="1696934640" lat="37.4754985" lon="126.9872568"/>
    <nd ref="5406417391" lat="37.4757487" lon="126.9863202"/>
    <tag k="highway" v="primary"/>
    <tag k="name" v="남부순환로"/>
    <tag k="name:en" v="Nambusunhwan-ro"/>
    <tag k="name:ja" v="南部循環路"/>
    <tag k="name:ko" v="남부순환로"/>
    <tag k="name:zh" v="南部循环路"/>
    <tag k="oneway" v="yes"/>
    <tag k="ref" v="92"/>
  </way>
  <way id="560620475">
    <bounds minlat="37.4743387" minlon="126.9907245" maxlat="37.4745665" maxlon="126.9915705"/>
    <nd ref="5406500114" lat="37.4743387" lon="126.9915705"/>
    <nd ref="8486132575" lat="37.4744717" lon="126.9910767"/>
    <nd ref="5406500112" lat="37.4745665" lon="126.9907245"/>
    <tag k="highway" v="primary"/>
    <tag k="name" v="남부순환로"/>
    <tag k="name:en" v="Nambusunhwan-ro"/>
    <tag k="name:ja" v="南部循環路"/>
    <tag k="name:ko" v="남부순환로"/>
    <tag k="name:zh" v="南部循环路"/>
    <tag k="oneway" v="yes"/>
    <tag k="ref" v="92"/>
  </way>
  <way id="560620476">
    <bounds minlat="37.4734591" minlon="126.9939548" maxlat="37.4750402" maxlon="127.0018557"/>
    <nd ref="3719496797" lat="37.4736044" lon="126.9939548"/>
    <nd ref="5406500133" lat="37.4735545" lon="126.9943582"/>
    <nd ref="5406500134" lat="37.4735178" lon="126.9947372"/>
    <nd ref="5406500135" lat="37.4734811" lon="126.9951531"/>
    <nd ref="5406500136" lat="37.4734664" lon="126.9956707"/>
    <nd ref="5406500137" lat="37.4734591" lon="126.9960281"/>
    <nd ref="5406500138" lat="37.4734591" lon="126.9964533"/>
    <nd ref="5406500139" lat="37.4734738" lon="126.9968292"/>
    <nd ref="5406500140" lat="37.4734958" lon="126.9972020"/>
    <nd ref="5406500141" lat="37.4735175" lon="126.9974537"/>
    <nd ref="5406500142" lat="37.4735765" lon="126.9978891"/>
    <nd ref="5406500143" lat="37.4736596" lon="126.9983451"/>
    <nd ref="5406500144" lat="37.4737885" lon="126.9988031"/>
    <nd ref="5406500149" lat="37.4738763" lon="126.9991184"/>
    <nd ref="5406500148" lat="37.4740081" lon="126.9995197"/>
    <nd ref="5406500147" lat="37.4741510" lon="126.9999208"/>
    <nd ref="5406500146" lat="37.4743665" lon="127.0004142"/>
    <nd ref="7413276816" lat="37.4747065" lon="127.0011416"/>
    <nd ref="7413276817" lat="37.4748716" lon="127.0014950"/>
    <nd ref="7621561350" lat="37.4749867" lon="127.0017363"/>
    <nd ref="5406500145" lat="37.4750402" lon="127.0018557"/>
    <tag k="highway" v="primary"/>
    <tag k="name" v="남부순환로"/>
    <tag k="name:en" v="Nambusunhwan-ro"/>
    <tag k="name:ja" v="南部循環路"/>
    <tag k="name:ko" v="남부순환로"/>
    <tag k="name:zh" v="南部循环路"/>
    <tag k="oneway" v="yes"/>
    <tag k="ref" v="92"/>
  </way>
  <way id="560620479">
    <bounds minlat="37.4751703" minlon="126.9976500" maxlat="37.4814575" maxlon="127.0017707"/>
    <nd ref="5406500165" lat="37.4751703" lon="127.0017707"/>
    <nd ref="11431861691" lat="37.4752834" lon="127.0016969"/>
    <nd ref="1696934642" lat="37.4758248" lon="127.0013429"/>
    <nd ref="11431861606" lat="37.4759726" lon="127.0012443"/>
    <nd ref="1696934651" lat="37.4767494" lon="127.0007257"/>
    <nd ref="11431861615" lat="37.4768842" lon="127.0006374"/>
    <nd ref="11431861621" lat="37.4777010" lon="127.0001027"/>
    <nd ref="1696934669" lat="37.4778685" lon="126.9999930"/>
    <nd ref="11431861570" lat="37.4779773" lon="126.9999225"/>
    <nd ref="3462555794" lat="37.4787953" lon="126.9993924"/>
    <nd ref="436844215" lat="37.4796936" lon="126.9988170"/>
    <nd ref="436844216" lat="37.4808984" lon="126.9980012"/>
    <nd ref="5935888705" lat="37.4811655" lon="126.9978322"/>
    <nd ref="8471989457" lat="37.4813024" lon="126.9977468"/>
    <nd ref="5747375654" lat="37.4814575" lon="126.9976500"/>
    <tag k="highway" v="secondary"/>
    <tag k="name" v="방배로"/>
    <tag k="name:en" v="Bangbae-ro"/>
    <tag k="name:ko" v="방배로"/>
    <tag k="name:ko-Latn" v="Bangbaero"/>
  </way>
  <way id="684691948">
    <bounds minlat="37.4902139" minlon="127.0021677" maxlat="37.4908085" maxlon="127.0043705"/>
    <nd ref="7513749191" lat="37.4902139" lon="127.0021677"/>
    <nd ref="436842082" lat="37.4908085" lon="127.0043705"/>
    <tag k="highway" v="primary"/>
    <tag k="name" v="서초대로"/>
    <tag k="name:en" v="Seocho-daero"/>
    <tag k="name:ja" v="瑞草大路"/>
    <tag k="name:ko" v="서초대로"/>
    <tag k="name:zh" v="瑞草大路"/>
    <tag k="ref" v="90"/>
    <tag k="surface" v="asphalt"/>
  </way>
  <way id="816075688">
    <bounds minlat="37.4801800" minlon="126.9936400" maxlat="37.4805775" maxlon="126.9948776"/>
    <nd ref="4185991215" lat="37.4805775" lon="126.9948776"/>
    <nd ref="436882871" lat="37.4804200" lon="126.9943700"/>
    <nd ref="436844243" lat="37.4801800" lon="126.9936400"/>
    <tag k="highway" v="secondary"/>
    <tag k="name" v="효령로"/>
    <tag k="name:en" v="Hyoryeong-ro"/>
    <tag k="name:ko" v="효령로"/>
    <tag k="name:ko-Latn" v="Hyoryeongno"/>
    <tag k="name:zh" v="孝宁路"/>
    <tag k="ncat" v="광역시도로"/>
    <tag k="review" v="no"/>
    <tag k="source" v="NTIC"/>
  </way>
  <way id="816075690">
    <bounds minlat="37.4815991" minlon="126.9986348" maxlat="37.4827400" maxlon="127.0044600"/>
    <nd ref="3274307620" lat="37.4815991" lon="126.9986348"/>
    <nd ref="1696934714" lat="37.4816342" lon="126.9990351"/>
    <nd ref="3274307625" lat="37.4816885" lon="126.9997651"/>
    <nd ref="1696934723" lat="37.4822837" lon="127.0021686"/>
    <nd ref="1925407821" lat="37.4826516" lon="127.0040160"/>
    <nd ref="436882882" lat="37.4827400" lon="127.0044600"/>
    <tag k="highway" v="secondary"/>
    <tag k="name" v="효령로"/>
    <tag k="name:en" v="Hyoryeong-ro"/>
    <tag k="name:ko" v="효령로"/>
    <tag k="name:ko-Latn" v="Hyoryeongno"/>
    <tag k="name:zh" v="孝宁路"/>
    <tag k="ncat" v="광역시도로"/>
    <tag k="review" v="no"/>
    <tag k="source" v="NTIC"/>
  </way>
  <way id="908630733">
    <bounds minlat="37.4756703" minlon="126.9628660" maxlat="37.4773814" maxlon="126.9672440"/>
    <nd ref="5406470012" lat="37.4756703" lon="126.9672440"/>
    <nd ref="1905595249" lat="37.4761668" lon="126.9659711"/>
    <nd ref="2824756386" lat="37.4762537" lon="126.9657491"/>
    <nd ref="2282020176" lat="37.4766285" lon="126.9647908"/>
    <nd ref="2282020205" lat="37.4771098" lon="126.9635604"/>
    <nd ref="4196322498" lat="37.4773814" lon="126.9628660"/>
    <tag k="bridge:name" v="사당고가도로"/>
    <tag k="highway" v="primary"/>
    <tag k="maxspeed" v="60"/>
    <tag k="name" v="남부순환로"/>
    <tag k="name:en" v="Nambusunhwan-ro"/>
    <tag k="name:ja" v="南部循環路"/>
    <tag k="name:ko" v="남부순환로"/>
    <tag k="name:zh" v="南部循环路"/>
    <tag k="oneway" v="yes"/>
    <tag k="ref" v="92"/>
  </way>
  <way id="1009647520">
    <bounds minlat="37.4853495" minlon="126.9820551" maxlat="37.4865839" maxlon="126.9821410"/>
    <nd ref="4984575377" lat="37.4865839" lon="126.9821410"/>
    <nd ref="8485187432" lat="37.4858593" lon="126.9820913"/>
    <nd ref="4984575380" lat="37.4853495" lon="126.9820551"/>
    <tag k="highway" v="secondary"/>
    <tag k="name" v="동작대로"/>
    <tag k="name:en" v="Dongjak-daero"/>
    <tag k="name:ko" v="동작대로"/>
    <tag k="name:zh" v="铜雀大路"/>
    <tag k="oneway" v="yes"/>
    <tag k="surface" v="asphalt"/>
  </way>
  <way id="1009647521">
    <bounds minlat="37.4893484" minlon="126.9824419" maxlat="37.4908889" maxlon="126.9825488"/>
    <nd ref="4984575355" lat="37.4908889" lon="126.9825488"/>
    <nd ref="4984575359" lat="37.4900847" lon="126.9825238"/>
    <nd ref="4984575361" lat="37.4894849" lon="126.9824633"/>
    <nd ref="4984575354" lat="37.4893484" lon="126.9824419"/>
    <tag k="highway" v="secondary"/>
    <tag k="name" v="동작대로"/>
    <tag k="name:en" v="Dongjak-daero"/>
    <tag k="name:ko" v="동작대로"/>
    <tag k="name:zh" v="铜雀大路"/>
    <tag k="oneway" v="yes"/>
    <tag k="surface" v="asphalt"/>
  </way>
  <way id="1009647522">
    <bounds minlat="37.4908889" minlon="126.9825488" maxlat="37.4927541" maxlon="126.9826020"/>
    <nd ref="4984575349" lat="37.4927541" lon="126.9826020"/>
    <nd ref="4984575356" lat="37.4913110" lon="126.9825641"/>
    <nd ref="4984575355" lat="37.4908889" lon="126.9825488"/>
    <tag k="highway" v="secondary"/>
    <tag k="name" v="동작대로"/>
    <tag k="name:en" v="Dongjak-daero"/>
    <tag k="name:ko" v="동작대로"/>
    <tag k="name:zh" v="铜雀大路"/>
    <tag k="oneway" v="yes"/>
    <tag k="surface" v="asphalt"/>
  </way>
  <way id="1009647523">
    <bounds minlat="37.4927541" minlon="126.9826020" maxlat="37.4937669" maxlon="126.9826394"/>
    <nd ref="4984575342" lat="37.4937669" lon="126.9826394"/>
    <nd ref="4984575349" lat="37.4927541" lon="126.9826020"/>
    <tag k="highway" v="secondary"/>
    <tag k="name" v="동작대로"/>
    <tag k="name:en" v="Dongjak-daero"/>
    <tag k="name:ko" v="동작대로"/>
    <tag k="name:zh" v="铜雀大路"/>
    <tag k="oneway" v="yes"/>
    <tag k="surface" v="asphalt"/>
  </way>
  <way id="1009647524">
    <bounds minlat="37.4740203" minlon="126.9915705" maxlat="37.4743387" maxlon="126.9927345"/>
    <nd ref="1696934637" lat="37.4740203" lon="126.9927345"/>
    <nd ref="5406500114" lat="37.4743387" lon="126.9915705"/>
    <tag k="highway" v="primary"/>
    <tag k="name" v="남부순환로"/>
    <tag k="name:en" v="Nambusunhwan-ro"/>
    <tag k="name:ja" v="南部循環路"/>
    <tag k="name:ko" v="남부순환로"/>
    <tag k="name:zh" v="南部循环路"/>
    <tag k="oneway" v="yes"/>
    <tag k="ref" v="92"/>
  </way>
  <way id="1011900161">
    <bounds minlat="37.4737440" minlon="126.9927345" maxlat="37.4740203" maxlon="126.9939837"/>
    <nd ref="5406500151" lat="37.4737440" lon="126.9939837"/>
    <nd ref="5406500150" lat="37.4738296" lon="126.9935686"/>
    <nd ref="1696934637" lat="37.4740203" lon="126.9927345"/>
    <tag k="highway" v="primary"/>
    <tag k="name" v="남부순환로"/>
    <tag k="name:en" v="Nambusunhwan-ro"/>
    <tag k="name:ja" v="南部循環路"/>
    <tag k="name:ko" v="남부순환로"/>
    <tag k="name:zh" v="南部循环路"/>
    <tag k="oneway" v="yes"/>
    <tag k="ref" v="92"/>
  </way>
  <way id="1011900163">
    <bounds minlat="37.4736044" minlon="126.9915033" maxlat="37.4742006" maxlon="126.9939548"/>
    <nd ref="5406500115" lat="37.4742006" lon="126.9915033"/>
    <nd ref="8486277807" lat="37.4739511" lon="126.9924929"/>
    <nd ref="5406417408" lat="37.4737988" lon="126.9930970"/>
    <nd ref="5406500130" lat="37.4737623" lon="126.9932521"/>
    <nd ref="5406500131" lat="37.4737085" lon="126.9934801"/>
    <nd ref="5406500132" lat="37.4736303" lon="126.9938252"/>
    <nd ref="3719496797" lat="37.4736044" lon="126.9939548"/>
    <tag k="bridge:name" v="사당고가도로"/>
    <tag k="highway" v="primary"/>
    <tag k="name" v="남부순환로"/>
    <tag k="name:en" v="Nambusunhwan-ro"/>
    <tag k="name:ja" v="南部循環路"/>
    <tag k="name:ko" v="남부순환로"/>
    <tag k="name:zh" v="南部循环路"/>
    <tag k="oneway" v="yes"/>
    <tag k="ref" v="92"/>
  </way>
  <way id="1011900164">
    <bounds minlat="37.4750402" minlon="127.0018557" maxlat="37.4775297" maxlon="127.0070410"/>
    <nd ref="5406500145" lat="37.4750402" lon="127.0018557"/>
    <nd ref="11431861764" lat="37.4751353" lon="127.0020545"/>
    <nd ref="5406500167" lat="37.4774532" lon="127.0068872"/>
    <nd ref="5406500166" lat="37.4775297" lon="127.0070410"/>
    <tag k="bridge:name" v="사당고가도로"/>
    <tag k="highway" v="primary"/>
    <tag k="name" v="남부순환로"/>
    <tag k="name:en" v="Nambusunhwan-ro"/>
    <tag k="name:ja" v="南部循環路"/>
    <tag k="name:ko" v="남부순환로"/>
    <tag k="name:zh" v="南部循环路"/>
    <tag k="oneway" v="yes"/>
    <tag k="ref" v="92"/>
  </way>
  <way id="1224608692">
    <bounds minlat="37.4583271" minlon="126.9875672" maxlat="37.4640504" maxlon="126.9885593"/>
    <nd ref="11521951020" lat="37.4583271" lon="126.9885593"/>
    <nd ref="11639834534" lat="37.4583971" lon="126.9885054"/>
    <nd ref="11639834527" lat="37.4592671" lon="126.9878965"/>
    <nd ref="11639834526" lat="37.4603229" lon="126.9875672"/>
    <nd ref="436838027" lat="37.4627402" lon="126.9880878"/>
    <nd ref="436838028" lat="37.4633426" lon="126.9882127"/>
    <nd ref="11449537920" lat="37.4640504" lon="126.9883465"/>
    <tag k="highway" v="secondary"/>
    <tag k="name" v="과천대로"/>
    <tag k="name:en" v="Gwacheon-daero"/>
    <tag k="name:ko" v="과천대로"/>
    <tag k="oneway" v="yes"/>
  </way>
  <way id="1224608697">
    <bounds minlat="37.4678689" minlon="126.9857047" maxlat="37.4686289" maxlon="126.9866139"/>
    <nd ref="4867773818" lat="37.4686289" lon="126.9857047"/>
    <nd ref="4867773819" lat="37.4684525" lon="126.9859209"/>
    <nd ref="11526383106" lat="37.4680443" lon="126.9864057"/>
    <nd ref="3079948577" lat="37.4678689" lon="126.9866139"/>
    <tag k="highway" v="secondary"/>
    <tag k="name" v="과천대로"/>
    <tag k="name:en" v="Gwacheon-daero"/>
    <tag k="name:ko" v="과천대로"/>
    <tag k="oneway" v="yes"/>
  </way>
  <way id="1240167319">
    <bounds minlat="37.4646575" minlon="126.9880364" maxlat="37.4661344" maxlon="126.9883513"/>
    <nd ref="3079163794" lat="37.4646575" lon="126.9883513"/>
    <nd ref="436838030" lat="37.4649964" lon="126.9883303"/>
    <nd ref="7838702953" lat="37.4655634" lon="126.9882261"/>
    <nd ref="7838702954" lat="37.4659426" lon="126.9881185"/>
    <nd ref="3079163739" lat="37.4661344" lon="126.9880364"/>
    <tag k="highway" v="secondary"/>
    <tag k="name" v="과천대로"/>
    <tag k="name:en" v="Gwacheon-daero"/>
    <tag k="name:ko" v="과천대로"/>
    <tag k="oneway" v="yes"/>
  </way>
  <way id="1240167320">
    <bounds minlat="37.4640504" minlon="126.9883465" maxlat="37.4646575" maxlon="126.9883513"/>
    <nd ref="11449537920" lat="37.4640504" lon="126.9883465"/>
    <nd ref="3079163794" lat="37.4646575" lon="126.9883513"/>
    <tag k="highway" v="secondary"/>
    <tag k="name" v="과천대로"/>
    <tag k="name:en" v="Gwacheon-daero"/>
    <tag k="name:ko" v="과천대로"/>
    <tag k="oneway" v="yes"/>
  </way>
  <way id="1240167345">
    <bounds minlat="37.4753625" minlon="126.9815053" maxlat="37.4760203" maxlon="126.9815509"/>
    <nd ref="11521951149" lat="37.4760203" lon="126.9815053"/>
    <nd ref="2574027719" lat="37.4758220" lon="126.9815196"/>
    <nd ref="11523765973" lat="37.4753625" lon="126.9815509"/>
    <tag k="highway" v="secondary"/>
    <tag k="name" v="과천대로"/>
    <tag k="name:en" v="Gwacheon-daero"/>
    <tag k="name:ko" v="과천대로"/>
    <tag k="name:zh" v="果川大路"/>
    <tag k="oneway" v="yes"/>
    <tag k="surface" v="asphalt"/>
  </way>
  <way id="1252207931">
    <bounds minlat="37.4581478" minlon="126.9873487" maxlat="37.4627706" maxlon="126.9884637"/>
    <nd ref="4867774129" lat="37.4627706" lon="126.9878837"/>
    <nd ref="11639834529" lat="37.4621863" lon="126.9877483"/>
    <nd ref="11639834530" lat="37.4609707" lon="126.9874452"/>
    <nd ref="8485679784" lat="37.4609115" lon="126.9874360"/>
    <nd ref="11639834531" lat="37.4603511" lon="126.9873487"/>
    <nd ref="11639834532" lat="37.4595910" lon="126.9874667"/>
    <nd ref="11639834533" lat="37.4591609" lon="126.9876732"/>
    <nd ref="4867774135" lat="37.4581478" lon="126.9884637"/>
    <tag k="highway" v="secondary"/>
    <tag k="oneway" v="yes"/>
  </way>
  <way id="1252207934">
    <bounds minlat="37.4865839" minlon="126.9821410" maxlat="37.4881553" maxlon="126.9821737"/>
    <nd ref="4984575372" lat="37.4881553" lon="126.9821737"/>
    <nd ref="11639834562" lat="37.4875508" lon="126.9821611"/>
    <nd ref="4984575377" lat="37.4865839" lon="126.9821410"/>
    <tag k="highway" v="secondary"/>
    <tag k="name" v="동작대로"/>
    <tag k="name:en" v="Dongjak-daero"/>
    <tag k="name:ko" v="동작대로"/>
    <tag k="name:zh" v="铜雀大路"/>
    <tag k="oneway" v="yes"/>
    <tag k="surface" v="asphalt"/>
  </way>
  <way id="1259654024">
    <bounds minlat="37.4853952" minlon="126.9822344" maxlat="37.4863686" maxlon="126.9823242"/>
    <nd ref="4984575382" lat="37.4853952" lon="126.9822344"/>
    <nd ref="8485173586" lat="37.4859059" lon="126.9822659"/>
    <nd ref="3804191055" lat="37.4863686" lon="126.9823242"/>
    <tag k="highway" v="secondary"/>
    <tag k="name" v="동작대로"/>
    <tag k="name:en" v="Dongjak-daero"/>
    <tag k="name:ko" v="동작대로"/>
    <tag k="name:zh" v="铜雀大路"/>
    <tag k="oneway" v="yes"/>
    <tag k="surface" v="asphalt"/>
  </way>

</osm>
